{
"type": "FeatureCollection",
"name": "busan-line-1-extension-stops",
"crs": { "type": "name", "properties": { "name": "urn:ogc:def:crs:OGC:1.3:CRS84" } },
"features": [
{ "type": "Feature", "properties": { "full_id": "n5581116350", "osm_id": "5581116350", "osm_type": "node", "name:en": "Jangnim", "name:ko-Latn": "Jangnimyeok", "alt_name": "", "alt_name:en": "", "name": "장림", "name:ja": "チャンリム(長林)", "name:ko-Hani": "", "name:zh": "", "operator": "부산교통공사", "platforms": "", "public_transport": "stop_position", "railway": "station", "ref": "", "station": "subway", "train": "", "int_name": "", "power": "", "subway": "yes", "wikidata": "Q22329179", "wikipedia": "ko:장림역", "name:ru": "", "name:ko": "장림", "alt_name:ja": "", "alt_name:ko": "", "alt_name:ko-Latn": "", "alt_name:zh": "", "wheelchair": "yes", "addr:city": "부산광역시", "addr:district": "사하구", "addr:housenumber": "지하 230", "addr:neighbourhood": "장림동", "addr:postcode": "49464", "addr:street": "다대로", "internet_access": "wlan", "internet_access:fee": "no", "name:ko_hanja": "長林驛", "phone": "+82 51-678-6199", "ncat": "", "amenity": "", "junction": "", "light_rail": "", "network": "", "name:lzh": "", "description": "", "leisure": "", "disused:railway": "", "colour": "", "level": "", "location": "", "highspeed": "", "service": "", "name:de": "", "highway": "", "bicycle": "", "official_name:en": "", "official_name:ko": "", "name:ja-Hira": "", "layer": "", "name:eo": "", "toilets:wheelchair": "", "entrance": "", "tram": "", "old_name": "" }, "geometry": { "type": "Point", "coordinates": [ 128.97748390000001, 35.0819425 ] } },
{ "type": "Feature", "properties": { "full_id": "n5581117238", "osm_id": "5581117238", "osm_type": "node", "name:en": "Dongmae", "name:ko-Latn": "Dongmaeyeok", "alt_name": "", "alt_name:en": "", "name": "동매", "name:ja": "トンメ", "name:ko-Hani": "", "name:zh": "", "operator": "부산교통공사", "platforms": "", "public_transport": "stop_position", "railway": "station", "ref": "", "station": "subway", "train": "", "int_name": "", "power": "", "subway": "yes", "wikidata": "Q22329180", "wikipedia": "ko:동매역", "name:ru": "", "name:ko": "동매", "alt_name:ja": "", "alt_name:ko": "", "alt_name:ko-Latn": "", "alt_name:zh": "", "wheelchair": "yes", "addr:city": "", "addr:district": "", "addr:housenumber": "", "addr:neighbourhood": "", "addr:postcode": "", "addr:street": "", "internet_access": "wlan", "internet_access:fee": "no", "name:ko_hanja": "", "phone": "+82 51-678-6100", "ncat": "", "amenity": "", "junction": "", "light_rail": "", "network": "", "name:lzh": "", "description": "", "leisure": "", "disused:railway": "", "colour": "", "level": "", "location": "", "highspeed": "", "service": "", "name:de": "", "highway": "", "bicycle": "", "official_name:en": "", "official_name:ko": "", "name:ja-Hira": "", "layer": "", "name:eo": "", "toilets:wheelchair": "", "entrance": "", "tram": "", "old_name": "" }, "geometry": { "type": "Point", "coordinates": [ 128.9734415, 35.0897855 ] } },
{ "type": "Feature", "properties": { "full_id": "n5585724252", "osm_id": "5585724252", "osm_type": "node", "name:en": "Dadaepo Beach", "name:ko-Latn": "Dadaepo haesuyokjangyeok", "alt_name": "", "alt_name:en": "", "name": "다대포해수욕장", "name:ja": "多大浦海水浴場", "name:ko-Hani": "", "name:zh": "", "operator": "부산교통공사", "platforms": "", "public_transport": "station", "railway": "station", "ref": "", "station": "subway", "train": "", "int_name": "", "power": "", "subway": "yes", "wikidata": "Q22329176", "wikipedia": "ko:다대포해수욕장역", "name:ru": "", "name:ko": "다대포해수욕장역", "alt_name:ja": "", "alt_name:ko": "", "alt_name:ko-Latn": "", "alt_name:zh": "", "wheelchair": "yes", "addr:city": "", "addr:district": "", "addr:housenumber": "", "addr:neighbourhood": "", "addr:postcode": "", "addr:street": "", "internet_access": "wlan", "internet_access:fee": "no", "name:ko_hanja": "多大浦海水浴場驛", "phone": "+82 51-678-6195", "ncat": "", "amenity": "", "junction": "", "light_rail": "", "network": "", "name:lzh": "", "description": "", "leisure": "", "disused:railway": "", "colour": "", "level": "", "location": "", "highspeed": "", "service": "", "name:de": "", "highway": "", "bicycle": "", "official_name:en": "", "official_name:ko": "", "name:ja-Hira": "", "layer": "", "name:eo": "", "toilets:wheelchair": "", "entrance": "", "tram": "", "old_name": "" }, "geometry": { "type": "Point", "coordinates": [ 128.9662119, 35.0480653 ] } },
{ "type": "Feature", "properties": { "full_id": "n5773426737", "osm_id": "5773426737", "osm_type": "node", "name:en": "Sinjangnim", "name:ko-Latn": "Sinjangnimyeok", "alt_name": "", "alt_name:en": "", "name": "신장림", "name:ja": "シンジャンリム(新長林)", "name:ko-Hani": "", "name:zh": "", "operator": "부산교통공사", "platforms": "", "public_transport": "station", "railway": "station", "ref": "", "station": "subway", "train": "", "int_name": "", "power": "", "subway": "yes", "wikidata": "Q22329178", "wikipedia": "ko:신장림역", "name:ru": "", "name:ko": "신장림", "alt_name:ja": "", "alt_name:ko": "", "alt_name:ko-Latn": "", "alt_name:zh": "", "wheelchair": "yes", "addr:city": "부산광역시", "addr:district": "사하구", "addr:housenumber": "지하 310", "addr:neighbourhood": "장림동", "addr:postcode": "49511", "addr:street": "다대로", "internet_access": "wlan", "internet_access:fee": "no", "name:ko_hanja": "新長林驛", "phone": "+82 51-678-6198", "ncat": "", "amenity": "", "junction": "", "light_rail": "", "network": "", "name:lzh": "", "description": "", "leisure": "", "disused:railway": "", "colour": "", "level": "", "location": "", "highspeed": "", "service": "", "name:de": "", "highway": "", "bicycle": "", "official_name:en": "", "official_name:ko": "", "name:ja-Hira": "", "layer": "", "name:eo": "", "toilets:wheelchair": "", "entrance": "", "tram": "", "old_name": "" }, "geometry": { "type": "Point", "coordinates": [ 128.9768092, 35.0745502 ] } },
{ "type": "Feature", "properties": { "full_id": "n5773428961", "osm_id": "5773428961", "osm_type": "node", "name:en": "Natgae", "name:ko-Latn": "Natgaeyeok", "alt_name": "", "alt_name:en": "", "name": "낫개", "name:ja": "ナッケ", "name:ko-Hani": "", "name:zh": "", "operator": "부산교통공사", "platforms": "", "public_transport": "station", "railway": "station", "ref": "", "station": "subway", "train": "", "int_name": "", "power": "", "subway": "yes", "wikidata": "Q22329177", "wikipedia": "ko:낫개역", "name:ru": "", "name:ko": "낫개", "alt_name:ja": "", "alt_name:ko": "", "alt_name:ko-Latn": "", "alt_name:zh": "", "wheelchair": "yes", "addr:city": "부산광역시", "addr:district": "사하구", "addr:housenumber": "지하 422", "addr:neighbourhood": "다대동", "addr:postcode": "49518", "addr:street": "다대로", "internet_access": "wlan", "internet_access:fee": "no", "name:ko_hanja": "", "phone": "+82 51-678-6197", "ncat": "", "amenity": "", "junction": "", "light_rail": "", "network": "", "name:lzh": "", "description": "", "leisure": "", "disused:railway": "", "colour": "", "level": "", "location": "", "highspeed": "", "service": "", "name:de": "", "highway": "", "bicycle": "", "official_name:en": "", "official_name:ko": "", "name:ja-Hira": "", "layer": "", "name:eo": "", "toilets:wheelchair": "", "entrance": "", "tram": "", "old_name": "" }, "geometry": { "type": "Point", "coordinates": [ 128.979733, 35.0652983 ] } },
{ "type": "Feature", "properties": { "full_id": "n5773432737", "osm_id": "5773432737", "osm_type": "node", "name:en": "Dadaepo Harbor", "name:ko-Latn": "Dadaepo hangyeok", "alt_name": "", "alt_name:en": "", "name": "다대포항", "name:ja": "タデポハン(多大浦港)", "name:ko-Hani": "", "name:zh": "", "operator": "부산교통공사", "platforms": "", "public_transport": "station", "railway": "station", "ref": "", "station": "subway", "train": "", "int_name": "", "power": "", "subway": "yes", "wikidata": "Q22329181", "wikipedia": "ko:다대포항역", "name:ru": "", "name:ko": "다대포항", "alt_name:ja": "", "alt_name:ko": "", "alt_name:ko-Latn": "", "alt_name:zh": "", "wheelchair": "yes", "addr:city": "부산광역시", "addr:district": "사하구", "addr:housenumber": "지하 548", "addr:neighbourhood": "다대동", "addr:postcode": "49524", "addr:street": "다대로", "internet_access": "wlan", "internet_access:fee": "no", "name:ko_hanja": "多大浦港驛", "phone": "+82 51-678-6196", "ncat": "", "amenity": "", "junction": "", "light_rail": "", "network": "", "name:lzh": "", "description": "", "leisure": "", "disused:railway": "", "colour": "", "level": "", "location": "", "highspeed": "", "service": "", "name:de": "", "highway": "", "bicycle": "", "official_name:en": "", "official_name:ko": "", "name:ja-Hira": "", "layer": "", "name:eo": "", "toilets:wheelchair": "", "entrance": "", "tram": "", "old_name": "" }, "geometry": { "type": "Point", "coordinates": [ 128.971469399999989, 35.0576593 ] } }
]
}
