{
"type": "FeatureCollection",
"name": "cairo-line-1-stops",
"crs": { "type": "name", "properties": { "name": "urn:ogc:def:crs:OGC:1.3:CRS84" } },
"features": [
{ "type": "Feature", "properties": { "full_id": "n5348846066", "osm_id": "5348846066", "osm_type": "node", "int_name": "Hadayeq El-Maadi", "name": "Maadi Gardens", "name:ar": "مترو حدائق المعادى", "name:de": "Maadi Gärten", "name:en": "Maadi Gardens", "name:fr": "Jardins Maadi", "public_transport": "stop_position", "subway": "yes", "railway": "", "station": "", "alt_name": "", "name:zh": "", "name:ar1": "", "network": "", "old_name": "", "old_name:en": "" }, "geometry": { "type": "Point", "coordinates": [ 31.2506475, 29.9700863 ] } },
{ "type": "Feature", "properties": { "full_id": "n5349031084", "osm_id": "5349031084", "osm_type": "node", "int_name": "Saad Zaghloul", "name": "Saad Zaghloul", "name:ar": "سعد زغلول", "name:de": "Saad Zaghloul", "name:en": "Saad Zaghloul", "name:fr": "Saad Zaghloul", "public_transport": "stop_position", "subway": "yes", "railway": "", "station": "", "alt_name": "مترو سعد زغلول", "name:zh": "", "name:ar1": "", "network": "", "old_name": "", "old_name:en": "" }, "geometry": { "type": "Point", "coordinates": [ 31.2381149, 30.0365606 ] } },
{ "type": "Feature", "properties": { "full_id": "n5194295704", "osm_id": "5194295704", "osm_type": "node", "int_name": "Sadat", "name": "Sadat", "name:ar": "السادات", "name:de": "Sadat", "name:en": "Sadat", "name:fr": "Sadat", "public_transport": "stop_position", "subway": "yes", "railway": "", "station": "", "alt_name": "", "name:zh": "萨达特", "name:ar1": "", "network": "", "old_name": "", "old_name:en": "" }, "geometry": { "type": "Point", "coordinates": [ 31.235563, 30.0443604 ] } },
{ "type": "Feature", "properties": { "full_id": "n5194295698", "osm_id": "5194295698", "osm_type": "node", "int_name": "", "name": "Shuhada", "name:ar": "الشهداء", "name:de": "Shuhada", "name:en": "Shuhada", "name:fr": "Shuhada", "public_transport": "stop_position", "subway": "yes", "railway": "stop", "station": "", "alt_name": "", "name:zh": "烈士", "name:ar1": "", "network": "", "old_name": "مبارك", "old_name:en": "Mubarak" }, "geometry": { "type": "Point", "coordinates": [ 31.2465478, 30.0617745 ] } },
{ "type": "Feature", "properties": { "full_id": "n5194246944", "osm_id": "5194246944", "osm_type": "node", "int_name": "", "name": "Kozzika", "name:ar": "كوتسكا", "name:de": "Kozzika", "name:en": "Kozzika", "name:fr": "Kozzika", "public_transport": "stop_position", "subway": "yes", "railway": "", "station": "", "alt_name": "", "name:zh": "", "name:ar1": "", "network": "", "old_name": "", "old_name:en": "" }, "geometry": { "type": "Point", "coordinates": [ 31.2817234, 29.9361576 ] } },
{ "type": "Feature", "properties": { "full_id": "n5344953917", "osm_id": "5344953917", "osm_type": "node", "int_name": "", "name": "Tora El-Asmant", "name:ar": "طرا الأسمنت", "name:de": "Tora El-Asmant", "name:en": "Tora El-Asmant", "name:fr": "Tora El-Asmant", "public_transport": "stop_position", "subway": "yes", "railway": "", "station": "", "alt_name": "", "name:zh": "", "name:ar1": "", "network": "", "old_name": "", "old_name:en": "" }, "geometry": { "type": "Point", "coordinates": [ 31.2877081, 29.9258553 ] } },
{ "type": "Feature", "properties": { "full_id": "n4979331537", "osm_id": "4979331537", "osm_type": "node", "int_name": "New El-Marg", "name": "New El-Marg", "name:ar": "المرج الجديدة", "name:de": "New El-Marg", "name:en": "New El-Marg", "name:fr": "New El-Marg", "public_transport": "stop_position", "subway": "yes", "railway": "stop", "station": "", "alt_name": "", "name:zh": "", "name:ar1": "", "network": "", "old_name": "", "old_name:en": "" }, "geometry": { "type": "Point", "coordinates": [ 31.3382243, 30.1635686 ] } },
{ "type": "Feature", "properties": { "full_id": "n2460595904", "osm_id": "2460595904", "osm_type": "node", "int_name": "El-Malek El-Saleh", "name": "Al-Malek Al-Saleh", "name:ar": "الملك الصالح", "name:de": "Al-Malek Al-Saleh", "name:en": "Al-Malek Al-Saleh", "name:fr": "Al-Malek Al-Saleh", "public_transport": "stop_position", "subway": "yes", "railway": "", "station": "", "alt_name": "", "name:zh": "", "name:ar1": "", "network": "", "old_name": "", "old_name:en": "" }, "geometry": { "type": "Point", "coordinates": [ 31.2309278, 30.0168845 ] } },
{ "type": "Feature", "properties": { "full_id": "n2208367177", "osm_id": "2208367177", "osm_type": "node", "int_name": "", "name": "Thakanat El-Maadi", "name:ar": "ثكنات المعادي", "name:de": "Thakanat El-Maadi", "name:en": "Thakanat El-Maadi", "name:fr": "Thakanat El-Maadi", "public_transport": "stop_position", "subway": "yes", "railway": "", "station": "", "alt_name": "", "name:zh": "", "name:ar1": "", "network": "", "old_name": "", "old_name:en": "" }, "geometry": { "type": "Point", "coordinates": [ 31.2634489, 29.9528287 ] } },
{ "type": "Feature", "properties": { "full_id": "n2208367184", "osm_id": "2208367184", "osm_type": "node", "int_name": "Maadi", "name": "Maadi", "name:ar": "المعادى", "name:de": "Maadi", "name:en": "Maadi", "name:fr": "Maadi", "public_transport": "stop_position", "subway": "yes", "railway": "", "station": "", "alt_name": "", "name:zh": "", "name:ar1": "", "network": "", "old_name": "", "old_name:en": "" }, "geometry": { "type": "Point", "coordinates": [ 31.2580577, 29.959836 ] } },
{ "type": "Feature", "properties": { "full_id": "n1642383282", "osm_id": "1642383282", "osm_type": "node", "int_name": "El-Demerdash", "name": "Al-Demerdash", "name:ar": "الدمرداش", "name:de": "Al-Demerdash", "name:en": "Al-Demerdash", "name:fr": "Al-Demerdash", "public_transport": "stop_position", "subway": "yes", "railway": "", "station": "", "alt_name": "", "name:zh": "", "name:ar1": "", "network": "", "old_name": "", "old_name:en": "" }, "geometry": { "type": "Point", "coordinates": [ 31.2778219, 30.0772438 ] } },
{ "type": "Feature", "properties": { "full_id": "n4979331202", "osm_id": "4979331202", "osm_type": "node", "int_name": "Saray El-Qobba", "name": "Saray Al-Qobba", "name:ar": "سراي القبة", "name:de": "Saray Al-Qobba", "name:en": "Saray Al-Qobba", "name:fr": "Saray Al-Qobba", "public_transport": "stop_position", "subway": "yes", "railway": "", "station": "", "alt_name": "", "name:zh": "", "name:ar1": "", "network": "", "old_name": "", "old_name:en": "" }, "geometry": { "type": "Point", "coordinates": [ 31.3047335, 30.0980768 ] } },
{ "type": "Feature", "properties": { "full_id": "n3755981998", "osm_id": "3755981998", "osm_type": "node", "int_name": "Helwan", "name": "Helwan", "name:ar": "حلوان", "name:de": "", "name:en": "Helwan", "name:fr": "", "public_transport": "stop_position", "subway": "yes", "railway": "stop", "station": "", "alt_name": "", "name:zh": "", "name:ar1": "", "network": "First Line", "old_name": "", "old_name:en": "" }, "geometry": { "type": "Point", "coordinates": [ 31.3340772, 29.8498844 ] } },
{ "type": "Feature", "properties": { "full_id": "n316643099", "osm_id": "316643099", "osm_type": "node", "int_name": "El-Matareyya", "name": "El-Matareyya", "name:ar": "المطرية", "name:de": "El-Matareyya", "name:en": "El-Matareyya", "name:fr": "El-Matareyya", "public_transport": "stop_position", "subway": "yes", "railway": "", "station": "", "alt_name": "", "name:zh": "", "name:ar1": "", "network": "", "old_name": "", "old_name:en": "" }, "geometry": { "type": "Point", "coordinates": [ 31.3139785, 30.1213759 ] } },
{ "type": "Feature", "properties": { "full_id": "n316643111", "osm_id": "316643111", "osm_type": "node", "int_name": "Ezbet El-Nakhl", "name": "Ezbet en Nakhl", "name:ar": "محطة عزبة النخل", "name:de": "Ezbet en Nakhl", "name:en": "Ezbet en Nakhl", "name:fr": "Ezbet en Nakhl", "public_transport": "stop_position", "subway": "yes", "railway": "", "station": "", "alt_name": "محطة عزبة النخل", "name:zh": "", "name:ar1": "", "network": "", "old_name": "", "old_name:en": "" }, "geometry": { "type": "Point", "coordinates": [ 31.3245258, 30.1392468 ] } },
{ "type": "Feature", "properties": { "full_id": "n316643077", "osm_id": "316643077", "osm_type": "node", "int_name": "Hadayeq El-Zaitoun", "name": "Hadayeq Al-Zaitoun", "name:ar": "حدائق الزيتون", "name:de": "Hadayeq Al-Zaitoun", "name:en": "Hadayeq Al-Zaitoun", "name:fr": "Hadayeq Al-Zaitoun", "public_transport": "stop_position", "subway": "yes", "railway": "", "station": "", "alt_name": "", "name:zh": "", "name:ar1": "", "network": "", "old_name": "", "old_name:en": "" }, "geometry": { "type": "Point", "coordinates": [ 31.309954, 30.1051939 ] } },
{ "type": "Feature", "properties": { "full_id": "n316643067", "osm_id": "316643067", "osm_type": "node", "int_name": "Kobri El-Qobba", "name": "Kobri Al-Qobba", "name:ar": "كوبري القبة", "name:de": "Kobri Al-Qobba", "name:en": "Kobri Al-Qobba", "name:fr": "Kobri Al-Qobba", "public_transport": "stop_position", "subway": "yes", "railway": "", "station": "", "alt_name": "", "name:zh": "", "name:ar1": "", "network": "", "old_name": "", "old_name:en": "" }, "geometry": { "type": "Point", "coordinates": [ 31.2938354, 30.0869499 ] } },
{ "type": "Feature", "properties": { "full_id": "n316643069", "osm_id": "316643069", "osm_type": "node", "int_name": "Hammamat El-Qobba", "name": "Hammamat Al-Qobba", "name:ar": "حمامات القبة", "name:de": "Hammamat Al-Qobba", "name:en": "Hammamat Al-Qobba", "name:fr": "Hammamat Al-Qobba", "public_transport": "stop_position", "subway": "yes", "railway": "", "station": "", "alt_name": "", "name:zh": "", "name:ar1": "", "network": "", "old_name": "", "old_name:en": "" }, "geometry": { "type": "Point", "coordinates": [ 31.2981183, 30.0903238 ] } },
{ "type": "Feature", "properties": { "full_id": "n316642043", "osm_id": "316642043", "osm_type": "node", "int_name": "Ghamra", "name": "Ghamra", "name:ar": "الغمرة", "name:de": "Ghamra", "name:en": "Ghamra", "name:fr": "Ghamra", "public_transport": "stop_position", "subway": "yes", "railway": "", "station": "", "alt_name": "", "name:zh": "", "name:ar1": "", "network": "", "old_name": "", "old_name:en": "" }, "geometry": { "type": "Point", "coordinates": [ 31.264684, 30.0689464 ] } },
{ "type": "Feature", "properties": { "full_id": "n316642888", "osm_id": "316642888", "osm_type": "node", "int_name": "Manshiet El-Sadr", "name": "Manshiet Al-Sadr", "name:ar": "منشية الصدر", "name:de": "Manshiet Al-Sadr", "name:en": "Manshiet Al-Sadr", "name:fr": "Manshiet Al-Sadr", "public_transport": "stop_position", "subway": "yes", "railway": "", "station": "", "alt_name": "", "name:zh": "", "name:ar1": "", "network": "", "old_name": "", "old_name:en": "" }, "geometry": { "type": "Point", "coordinates": [ 31.287851, 30.0821976 ] } },
{ "type": "Feature", "properties": { "full_id": "n1642286403", "osm_id": "1642286403", "osm_type": "node", "int_name": "Ain Shams", "name": "Ain Shams", "name:ar": "عين شمس", "name:de": "Ain Shams", "name:en": "Ain Shams", "name:fr": "Ain Shams", "public_transport": "stop_position", "subway": "yes", "railway": "", "station": "", "alt_name": "عين شمس", "name:zh": "", "name:ar1": "عين شمس", "network": "", "old_name": "", "old_name:en": "" }, "geometry": { "type": "Point", "coordinates": [ 31.319109, 30.1310105 ] } },
{ "type": "Feature", "properties": { "full_id": "n493207780", "osm_id": "493207780", "osm_type": "node", "int_name": "El-Zahraa'", "name": "Al-Zahraa", "name:ar": "الزهراء", "name:de": "Al-Zahraa", "name:en": "Al-Zahraa", "name:fr": "Al-Zahraa", "public_transport": "stop_position", "subway": "yes", "railway": "", "station": "", "alt_name": "الزهراء", "name:zh": "", "name:ar1": "", "network": "", "old_name": "", "old_name:en": "" }, "geometry": { "type": "Point", "coordinates": [ 31.2313392, 29.9954263 ] } },
{ "type": "Feature", "properties": { "full_id": "n316643120", "osm_id": "316643120", "osm_type": "node", "int_name": "El-Marg", "name": "Al Marj", "name:ar": "المرج", "name:de": "Al Marj", "name:en": "Al Marj", "name:fr": "Al Marj", "public_transport": "stop_position", "subway": "yes", "railway": "", "station": "", "alt_name": "المرج", "name:zh": "", "name:ar1": "", "network": "", "old_name": "", "old_name:en": "" }, "geometry": { "type": "Point", "coordinates": [ 31.3357913, 30.1520732 ] } },
{ "type": "Feature", "properties": { "full_id": "n316388053", "osm_id": "316388053", "osm_type": "node", "int_name": "", "name": "Dar Al-Salam", "name:ar": "دار السلام", "name:de": "Dar Al-Salam", "name:en": "Dar Al-Salam", "name:fr": "Dar Al-Salam", "public_transport": "stop_position", "subway": "yes", "railway": "", "station": "", "alt_name": "", "name:zh": "", "name:ar1": "", "network": "", "old_name": "", "old_name:en": "" }, "geometry": { "type": "Point", "coordinates": [ 31.2421744, 29.9819862 ] } },
{ "type": "Feature", "properties": { "full_id": "n316388031", "osm_id": "316388031", "osm_type": "node", "int_name": "Mar Girgis", "name": "Mar Girgis", "name:ar": "مار جرجس", "name:de": "Mar Girgis", "name:en": "Mar Girgis", "name:fr": "Mar Girgis", "public_transport": "stop_position", "subway": "yes", "railway": "", "station": "", "alt_name": "", "name:zh": "", "name:ar1": "", "network": "", "old_name": "", "old_name:en": "" }, "geometry": { "type": "Point", "coordinates": [ 31.2294978, 30.0058512 ] } },
{ "type": "Feature", "properties": { "full_id": "n316639686", "osm_id": "316639686", "osm_type": "node", "int_name": "AlSayyeda Zeinab", "name": "Sayyeda Zeinab", "name:ar": "السيدة زينب", "name:de": "Sayyeda Zeinab", "name:en": "Sayyeda Zeinab", "name:fr": "Sayyeda Zeinab", "public_transport": "stop_position", "subway": "yes", "railway": "", "station": "", "alt_name": "", "name:zh": "", "name:ar1": "", "network": "", "old_name": "", "old_name:en": "" }, "geometry": { "type": "Point", "coordinates": [ 31.2353264, 30.0292919 ] } },
{ "type": "Feature", "properties": { "full_id": "n316641712", "osm_id": "316641712", "osm_type": "node", "int_name": "Gamal AbdAlNasser", "name": "Nasser", "name:ar": "ناصر", "name:de": "Nasser", "name:en": "Nasser", "name:fr": "Nasser", "public_transport": "stop_position", "subway": "yes", "railway": "", "station": "", "alt_name": "", "name:zh": "", "name:ar1": "", "network": "", "old_name": "", "old_name:en": "" }, "geometry": { "type": "Point", "coordinates": [ 31.2387916, 30.0535647 ] } },
{ "type": "Feature", "properties": { "full_id": "n316638531", "osm_id": "316638531", "osm_type": "node", "int_name": "El-Maasara", "name": "Al-Maasara", "name:ar": "المعصرة", "name:de": "Al-Maasara", "name:en": "Al-Maasara", "name:fr": "Al-Maasara", "public_transport": "stop_position", "subway": "yes", "railway": "", "station": "", "alt_name": "", "name:zh": "", "name:ar1": "", "network": "", "old_name": "", "old_name:en": "" }, "geometry": { "type": "Point", "coordinates": [ 31.2996691, 29.9060831 ] } },
{ "type": "Feature", "properties": { "full_id": "n316637588", "osm_id": "316637588", "osm_type": "node", "int_name": "Wadi Hof", "name": "Wadi Hof", "name:ar": "وادي حوف", "name:de": "Wadi Hof", "name:en": "Wadi Hof", "name:fr": "Wadi Hof", "public_transport": "stop_position", "subway": "yes", "railway": "", "station": "", "alt_name": "", "name:zh": "", "name:ar1": "", "network": "", "old_name": "", "old_name:en": "" }, "geometry": { "type": "Point", "coordinates": [ 31.3133885, 29.8794305 ] } },
{ "type": "Feature", "properties": { "full_id": "n316638393", "osm_id": "316638393", "osm_type": "node", "int_name": "Hadayeq Helwan", "name": "Hadayeq Helwan", "name:ar": "حدائق حلوان", "name:de": "Hadayeq Helwan", "name:en": "Hadayeq Helwan", "name:fr": "Hadayeq Helwan", "public_transport": "stop_position", "subway": "yes", "railway": "", "station": "", "alt_name": "", "name:zh": "", "name:ar1": "", "network": "", "old_name": "", "old_name:en": "" }, "geometry": { "type": "Point", "coordinates": [ 31.3040386, 29.8971768 ] } },
{ "type": "Feature", "properties": { "full_id": "n316637584", "osm_id": "316637584", "osm_type": "node", "int_name": "Ain Helwan", "name": "Ain Helwan", "name:ar": "محطة عين حلوان", "name:de": "Ain Helwan", "name:en": "Ain Helwan", "name:fr": "Ain Helwan", "public_transport": "stop_position", "subway": "yes", "railway": "", "station": "", "alt_name": "محطة عين حلوان", "name:zh": "", "name:ar1": "", "network": "", "old_name": "", "old_name:en": "" }, "geometry": { "type": "Point", "coordinates": [ 31.3249899, 29.8626458 ] } },
{ "type": "Feature", "properties": { "full_id": "n5353485468", "osm_id": "5353485468", "osm_type": "node", "int_name": "", "name": "Orabi", "name:ar": "عرابي", "name:de": "Orabi", "name:en": "Orabi", "name:fr": "Orabi", "public_transport": "stop_position", "subway": "yes", "railway": "stop", "station": "", "alt_name": "", "name:zh": "", "name:ar1": "", "network": "", "old_name": "", "old_name:en": "" }, "geometry": { "type": "Point", "coordinates": [ 31.242693, 30.0573777 ] } },
{ "type": "Feature", "properties": { "full_id": "n5349031094", "osm_id": "5349031094", "osm_type": "node", "int_name": "", "name": "Helwan University", "name:ar": "جامعة حلوان", "name:de": "Helwan Universität", "name:en": "Helwan University", "name:fr": "Université Helwan", "public_transport": "stop_position", "subway": "yes", "railway": "", "station": "", "alt_name": "", "name:zh": "", "name:ar1": "", "network": "", "old_name": "", "old_name:en": "" }, "geometry": { "type": "Point", "coordinates": [ 31.3203559, 29.8690126 ] } },
{ "type": "Feature", "properties": { "full_id": "n5349031095", "osm_id": "5349031095", "osm_type": "node", "int_name": "Tora El-Balad", "name": "Tora El-Balad", "name:ar": "طرة البلد", "name:de": "Tora El-Balad", "name:en": "Tora El-Balad", "name:fr": "Tora El-Balad", "public_transport": "stop_position", "subway": "yes", "railway": "", "station": "", "alt_name": "طرا البلد", "name:zh": "", "name:ar1": "", "network": "", "old_name": "", "old_name:en": "" }, "geometry": { "type": "Point", "coordinates": [ 31.2736003, 29.9463575 ] } },
{ "type": "Feature", "properties": { "full_id": "n5349031071", "osm_id": "5349031071", "osm_type": "node", "int_name": "Helmeyet El-Zaitoun", "name": "Helmeyet Al-Zaitoun", "name:ar": "حلمية الزيتون", "name:de": "Helmeyet Al-Zaitoun", "name:en": "Helmeyet Al-Zaitoun", "name:fr": "Helmeyet Al-Zaitoun", "public_transport": "stop_position", "subway": "yes", "railway": "", "station": "", "alt_name": "", "name:zh": "", "name:ar1": "", "network": "", "old_name": "", "old_name:en": "" }, "geometry": { "type": "Point", "coordinates": [ 31.3138798, 30.1143443 ] } }
]
}
