{
"type": "FeatureCollection",
"name": "changsha-line-4-phase-1-stops",
"crs": { "type": "name", "properties": { "name": "urn:ogc:def:crs:OGC:1.3:CRS84" } },
"features": [
{ "type": "Feature", "properties": { "full_id": "n3755306649", "osm_id": "3755306649", "osm_type": "node", "name": "Huangtuling", "name:en": "Huangtuling", "public_transport": "stop_position", "railway": "", "station": "", "subway": "yes", "wikidata": "", "access": "", "description": "" }, "geometry": { "type": "Point", "coordinates": [ 112.980104, 28.1636253 ] } },
{ "type": "Feature", "properties": { "full_id": "n6505534612", "osm_id": "6505534612", "osm_type": "node", "name": "Guangda", "name:en": "Guangda", "public_transport": "stop_position", "railway": "", "station": "", "subway": "yes", "wikidata": "", "access": "", "description": "" }, "geometry": { "type": "Point", "coordinates": [ 113.0795231, 28.1511513 ] } },
{ "type": "Feature", "properties": { "full_id": "n6505534609", "osm_id": "6505534609", "osm_type": "node", "name": "Yingwanzhen", "name:en": "Yingwanzhen", "public_transport": "stop_position", "railway": "stop", "station": "", "subway": "yes", "wikidata": "", "access": "", "description": "" }, "geometry": { "type": "Point", "coordinates": [ 112.9470667, 28.2011697 ] } },
{ "type": "Feature", "properties": { "full_id": "n6504722612", "osm_id": "6504722612", "osm_type": "node", "name": "Guanziling", "name:en": "Guanziling", "public_transport": "stop_position", "railway": "station", "station": "subway", "subway": "yes", "wikidata": "Q63965744", "access": "", "description": "" }, "geometry": { "type": "Point", "coordinates": [ 112.9181758, 28.297518 ] } },
{ "type": "Feature", "properties": { "full_id": "n6504722355", "osm_id": "6504722355", "osm_type": "node", "name": "Dujiaping", "name:en": "Dujiaping", "public_transport": "stop_position", "railway": "station", "station": "subway", "subway": "yes", "wikidata": "Q63965784", "access": "", "description": "" }, "geometry": { "type": "Point", "coordinates": [ 113.0878433, 28.1456199 ] } },
{ "type": "Feature", "properties": { "full_id": "n6504722607", "osm_id": "6504722607", "osm_type": "node", "name": "West Yueliangdao", "name:en": "West Yueliangdao", "public_transport": "stop_position", "railway": "station", "station": "subway", "subway": "yes", "wikidata": "Q63965747", "access": "", "description": "" }, "geometry": { "type": "Point", "coordinates": [ 112.9241783, 28.2906807 ] } },
{ "type": "Feature", "properties": { "full_id": "n6504722603", "osm_id": "6504722603", "osm_type": "node", "name": "Xiangjiang New Town", "name:en": "Xiangjiang New Town", "public_transport": "stop_position", "railway": "station", "station": "subway", "subway": "yes", "wikidata": "Q63965749", "access": "", "description": "" }, "geometry": { "type": "Point", "coordinates": [ 112.9284961, 28.2847094 ] } },
{ "type": "Feature", "properties": { "full_id": "n6504722597", "osm_id": "6504722597", "osm_type": "node", "name": "Hanwangling Park", "name:en": "Hanwangling Park", "public_transport": "stop_position", "railway": "station", "station": "subway", "subway": "yes", "wikidata": "Q63965750", "access": "", "description": "" }, "geometry": { "type": "Point", "coordinates": [ 112.9423615, 28.2708952 ] } },
{ "type": "Feature", "properties": { "full_id": "n6504722589", "osm_id": "6504722589", "osm_type": "node", "name": "West Fuyuan Bridge", "name:en": "West Fuyuan Bridge", "public_transport": "stop_position", "railway": "station", "station": "subway", "subway": "yes", "wikidata": "", "access": "", "description": "" }, "geometry": { "type": "Point", "coordinates": [ 112.9532407, 28.2572812 ] } },
{ "type": "Feature", "properties": { "full_id": "n6504722406", "osm_id": "6504722406", "osm_type": "node", "name": "Shazitang", "name:en": "Shazitang", "public_transport": "stop_position", "railway": "station", "station": "subway", "subway": "yes", "wikidata": "", "access": "", "description": "" }, "geometry": { "type": "Point", "coordinates": [ 112.9874044, 28.165933 ] } },
{ "type": "Feature", "properties": { "full_id": "n6504722394", "osm_id": "6504722394", "osm_type": "node", "name": "Chigangling", "name:en": "Chigangling", "public_transport": "stop_position", "railway": "station", "station": "subway", "subway": "yes", "wikidata": "", "access": "", "description": "" }, "geometry": { "type": "Point", "coordinates": [ 112.9999711, 28.1629983 ] } },
{ "type": "Feature", "properties": { "full_id": "n6504722387", "osm_id": "6504722387", "osm_type": "node", "name": "Shumuling", "name:en": "Shumuling", "public_transport": "stop_position", "railway": "station", "station": "subway", "subway": "yes", "wikidata": "", "access": "", "description": "" }, "geometry": { "type": "Point", "coordinates": [ 113.0144741, 28.1592903 ] } },
{ "type": "Feature", "properties": { "full_id": "n6504722382", "osm_id": "6504722382", "osm_type": "node", "name": "Guitang", "name:en": "Guitang", "public_transport": "stop_position", "railway": "station", "station": "subway", "subway": "yes", "wikidata": "", "access": "", "description": "" }, "geometry": { "type": "Point", "coordinates": [ 113.0246734, 28.1607808 ] } },
{ "type": "Feature", "properties": { "full_id": "n6504722379", "osm_id": "6504722379", "osm_type": "node", "name": "Sutang", "name:en": "Sutang", "public_transport": "stop_position", "railway": "station", "station": "subway", "subway": "yes", "wikidata": "", "access": "", "description": "" }, "geometry": { "type": "Point", "coordinates": [ 113.0461927, 28.1608713 ] } },
{ "type": "Feature", "properties": { "full_id": "n6504722370", "osm_id": "6504722370", "osm_type": "node", "name": "South Railway Station", "name:en": "South Railway Station", "public_transport": "stop_position", "railway": "", "station": "", "subway": "yes", "wikidata": "", "access": "", "description": "" }, "geometry": { "type": "Point", "coordinates": [ 113.0576362, 28.1497759 ] } },
{ "type": "Feature", "properties": { "full_id": "n6504722369", "osm_id": "6504722369", "osm_type": "node", "name": "Pingyang", "name:en": "Pingyang", "public_transport": "stop_position", "railway": "station", "station": "subway", "subway": "yes", "wikidata": "", "access": "", "description": "" }, "geometry": { "type": "Point", "coordinates": [ 113.0513176, 28.1552287 ] } },
{ "type": "Feature", "properties": { "full_id": "n6504722585", "osm_id": "6504722585", "osm_type": "node", "name": "Chazishan", "name:en": "Chazishan", "public_transport": "stop_position", "railway": "station", "station": "subway", "subway": "yes", "wikidata": "", "access": "", "description": "" }, "geometry": { "type": "Point", "coordinates": [ 112.9540212, 28.245671 ] } },
{ "type": "Feature", "properties": { "full_id": "n6504722472", "osm_id": "6504722472", "osm_type": "node", "name": "Guanshaling", "name:en": "Guanshaling", "public_transport": "stop_position", "railway": "station", "station": "subway", "subway": "yes", "wikidata": "", "access": "", "description": "" }, "geometry": { "type": "Point", "coordinates": [ 112.9469238, 28.2349267 ] } },
{ "type": "Feature", "properties": { "full_id": "n6504722467", "osm_id": "6504722467", "osm_type": "node", "name": "Liugoulong", "name:en": "Liugoulong", "public_transport": "stop_position", "railway": "station", "station": "subway", "subway": "yes", "wikidata": "Q63965753", "access": "", "description": "" }, "geometry": { "type": "Point", "coordinates": [ 112.9493729, 28.2229775 ] } },
{ "type": "Feature", "properties": { "full_id": "n6504722459", "osm_id": "6504722459", "osm_type": "node", "name": "Wangyuehu", "name:en": "Wangyuehu", "public_transport": "stop_position", "railway": "station", "station": "subway", "subway": "yes", "wikidata": "", "access": "", "description": "" }, "geometry": { "type": "Point", "coordinates": [ 112.9504804, 28.2100739 ] } },
{ "type": "Feature", "properties": { "full_id": "n6504722452", "osm_id": "6504722452", "osm_type": "node", "name": "Hunan Normal University", "name:en": "Hunan Normal University", "public_transport": "stop_position", "railway": "station", "station": "subway", "subway": "yes", "wikidata": "Q63965769", "access": "", "description": "" }, "geometry": { "type": "Point", "coordinates": [ 112.9427746, 28.1895029 ] } },
{ "type": "Feature", "properties": { "full_id": "n6504722446", "osm_id": "6504722446", "osm_type": "node", "name": "Hunan University", "name:en": "Hunan University", "public_transport": "stop_position", "railway": "station", "station": "subway", "subway": "yes", "wikidata": "Q63965766", "access": "", "description": "" }, "geometry": { "type": "Point", "coordinates": [ 112.9413044, 28.1833753 ] } },
{ "type": "Feature", "properties": { "full_id": "n6504722436", "osm_id": "6504722436", "osm_type": "node", "name": "Fubuhe", "name:en": "Fubuhe", "public_transport": "stop_position", "railway": "station", "station": "subway", "subway": "yes", "wikidata": "", "access": "", "description": "" }, "geometry": { "type": "Point", "coordinates": [ 112.9422964, 28.169363 ] } },
{ "type": "Feature", "properties": { "full_id": "n6504722427", "osm_id": "6504722427", "osm_type": "node", "name": "Bishahu", "name:en": "Bishahu", "public_transport": "stop_position", "railway": "station", "station": "subway", "subway": "yes", "wikidata": "", "access": "", "description": "" }, "geometry": { "type": "Point", "coordinates": [ 112.9622485, 28.1678228 ] } },
{ "type": "Feature", "properties": { "full_id": "n2803078694", "osm_id": "2803078694", "osm_type": "node", "name": "Shawan Park", "name:en": "Shawan Park", "public_transport": "stop_position", "railway": "", "station": "", "subway": "yes", "wikidata": "", "access": "", "description": "" }, "geometry": { "type": "Point", "coordinates": [ 113.0388621, 28.1608747 ] } }
]
}
