{
"type": "FeatureCollection",
"name": "dubai-phase-1-red-line-stops",
"crs": { "type": "name", "properties": { "name": "urn:ogc:def:crs:OGC:1.3:CRS84" } },
"features": [
{ "type": "Feature", "properties": { "full_id": "n5174282119", "osm_id": "5174282119", "osm_type": "node", "name": "BurJuman", "name:ar": "برجمان", "name:de": "BurJuman", "name:en": "BurJuman", "public_transport": "stop_position", "railway": "stop", "subway": "yes", "network": "", "old_name:ar": "", "old_name:en": "", "operator": "", "platforms": "", "wheelchair": "", "alt_name:ar": "", "transport": "", "name:fa": "", "addr:city": "", "addr:country": "", "alt_name": "", "alt_name:en": "", "crossing": "", "highway": "", "station": "", "train": "" }, "geometry": { "type": "Point", "coordinates": [ 55.3041096, 25.254402 ] } },
{ "type": "Feature", "properties": { "full_id": "n6580427307", "osm_id": "6580427307", "osm_type": "node", "name": "Union", "name:ar": "الاتحاد", "name:de": "", "name:en": "Union", "public_transport": "stop_position", "railway": "", "subway": "yes", "network": "", "old_name:ar": "", "old_name:en": "", "operator": "", "platforms": "", "wheelchair": "", "alt_name:ar": "", "transport": "", "name:fa": "ایستگاه مترو یونیون", "addr:city": "", "addr:country": "", "alt_name": "", "alt_name:en": "", "crossing": "", "highway": "", "station": "", "train": "" }, "geometry": { "type": "Point", "coordinates": [ 55.3137709, 25.2661288 ] } },
{ "type": "Feature", "properties": { "full_id": "n6580427361", "osm_id": "6580427361", "osm_type": "node", "name": "Burj Khalifa \/ Dubai Mall", "name:ar": "دبي مول \/ برج خليفة", "name:de": "", "name:en": "Burj Khalifa \/ Dubai Mall", "public_transport": "stop_position", "railway": "stop", "subway": "yes", "network": "", "old_name:ar": "", "old_name:en": "", "operator": "", "platforms": "", "wheelchair": "yes", "alt_name:ar": "", "transport": "", "name:fa": "", "addr:city": "", "addr:country": "", "alt_name": "", "alt_name:en": "", "crossing": "", "highway": "", "station": "", "train": "" }, "geometry": { "type": "Point", "coordinates": [ 55.2699064, 25.2017447 ] } },
{ "type": "Feature", "properties": { "full_id": "n1013649022", "osm_id": "1013649022", "osm_type": "node", "name": "Al Mashreq", "name:ar": "المشرق", "name:de": "Al Mashreq", "name:en": "Al Mashreq", "public_transport": "stop_position", "railway": "stop", "subway": "yes", "network": "Dubai Metro", "old_name:ar": "شرف دي جي", "old_name:en": "Sharaf DG", "operator": "Roads and Transport Authority", "platforms": "", "wheelchair": "", "alt_name:ar": "", "transport": "", "name:fa": "", "addr:city": "", "addr:country": "", "alt_name": "", "alt_name:en": "", "crossing": "", "highway": "", "station": "", "train": "" }, "geometry": { "type": "Point", "coordinates": [ 55.1908843, 25.1147866 ] } },
{ "type": "Feature", "properties": { "full_id": "n1016073957", "osm_id": "1016073957", "osm_type": "node", "name": "Al Safa", "name:ar": "الصفا", "name:de": "Al Safa", "name:en": "Al Safa", "public_transport": "stop_position", "railway": "stop", "subway": "yes", "network": "Dubai Metro", "old_name:ar": "نور بنك", "old_name:en": "Noor Bank", "operator": "Roads and Transport Authority", "platforms": "", "wheelchair": "", "alt_name:ar": "", "transport": "", "name:fa": "", "addr:city": "", "addr:country": "", "alt_name": "", "alt_name:en": "", "crossing": "", "highway": "", "station": "", "train": "" }, "geometry": { "type": "Point", "coordinates": [ 55.2284999, 25.1556519 ] } },
{ "type": "Feature", "properties": { "full_id": "n605500288", "osm_id": "605500288", "osm_type": "node", "name": "Airport Terminal 1", "name:ar": "المطار- مبنى رقم 1", "name:de": "Airport Terminal 1", "name:en": "Airport Terminal 1", "public_transport": "stop_position", "railway": "stop", "subway": "yes", "network": "", "old_name:ar": "", "old_name:en": "", "operator": "", "platforms": "", "wheelchair": "", "alt_name:ar": "", "transport": "", "name:fa": "", "addr:city": "", "addr:country": "", "alt_name": "", "alt_name:en": "", "crossing": "", "highway": "", "station": "", "train": "" }, "geometry": { "type": "Point", "coordinates": [ 55.3523482, 25.2484962 ] } },
{ "type": "Feature", "properties": { "full_id": "n574351616", "osm_id": "574351616", "osm_type": "node", "name": "Al Jafiliya", "name:ar": "الجافلية", "name:de": "Al Jafiliya", "name:en": "Al Jafiliya", "public_transport": "stop_position", "railway": "stop", "subway": "yes", "network": "", "old_name:ar": "", "old_name:en": "", "operator": "", "platforms": "", "wheelchair": "", "alt_name:ar": "", "transport": "", "name:fa": "", "addr:city": "", "addr:country": "", "alt_name": "", "alt_name:en": "", "crossing": "", "highway": "", "station": "", "train": "" }, "geometry": { "type": "Point", "coordinates": [ 55.2920421, 25.2333634 ] } },
{ "type": "Feature", "properties": { "full_id": "n604304436", "osm_id": "604304436", "osm_type": "node", "name": "Jabal Ali", "name:ar": "جبل علي", "name:de": "", "name:en": "Jabal Ali", "public_transport": "stop_position", "railway": "stop", "subway": "yes", "network": "", "old_name:ar": "", "old_name:en": "", "operator": "", "platforms": "", "wheelchair": "", "alt_name:ar": "", "transport": "", "name:fa": "", "addr:city": "", "addr:country": "", "alt_name": "", "alt_name:en": "", "crossing": "", "highway": "", "station": "", "train": "" }, "geometry": { "type": "Point", "coordinates": [ 55.1272615, 25.0579617 ] } },
{ "type": "Feature", "properties": { "full_id": "n574351614", "osm_id": "574351614", "osm_type": "node", "name": "Financial Centre", "name:ar": "المركز المالي", "name:de": "Financial Centre", "name:en": "Financial Centre", "public_transport": "stop_position", "railway": "stop", "subway": "yes", "network": "", "old_name:ar": "", "old_name:en": "", "operator": "", "platforms": "", "wheelchair": "", "alt_name:ar": "", "transport": "", "name:fa": "", "addr:city": "", "addr:country": "", "alt_name": "", "alt_name:en": "", "crossing": "", "highway": "", "station": "", "train": "" }, "geometry": { "type": "Point", "coordinates": [ 55.2755074, 25.2108544 ] } },
{ "type": "Feature", "properties": { "full_id": "n1437624984", "osm_id": "1437624984", "osm_type": "node", "name": "Danube", "name:ar": "دانوب", "name:de": "", "name:en": "Danube", "public_transport": "stop_position", "railway": "stop", "subway": "yes", "network": "", "old_name:ar": "", "old_name:en": "", "operator": "", "platforms": "", "wheelchair": "", "alt_name:ar": "", "transport": "", "name:fa": "", "addr:city": "", "addr:country": "", "alt_name": "", "alt_name:en": "", "crossing": "", "highway": "", "station": "", "train": "" }, "geometry": { "type": "Point", "coordinates": [ 55.0956959, 25.0012905 ] } },
{ "type": "Feature", "properties": { "full_id": "n1038911837", "osm_id": "1038911837", "osm_type": "node", "name": "Mall of the Emirates", "name:ar": "مول الإمارات", "name:de": "Mall of the Emirates", "name:en": "Mall of the Emirates", "public_transport": "stop_position", "railway": "stop", "subway": "yes", "network": "", "old_name:ar": "", "old_name:en": "", "operator": "", "platforms": "", "wheelchair": "", "alt_name:ar": "", "transport": "", "name:fa": "", "addr:city": "", "addr:country": "", "alt_name": "", "alt_name:en": "", "crossing": "", "highway": "", "station": "", "train": "" }, "geometry": { "type": "Point", "coordinates": [ 55.2004501, 25.12122 ] } },
{ "type": "Feature", "properties": { "full_id": "n1437596767", "osm_id": "1437596767", "osm_type": "node", "name": "Al Rigga", "name:ar": "الرقة", "name:de": "Al Rigga", "name:en": "Al Rigga", "public_transport": "stop_position", "railway": "stop", "subway": "yes", "network": "Dubai Metro", "old_name:ar": "", "old_name:en": "", "operator": "Roads and Transport Authority", "platforms": "2", "wheelchair": "", "alt_name:ar": "", "transport": "", "name:fa": "", "addr:city": "", "addr:country": "", "alt_name": "", "alt_name:en": "", "crossing": "", "highway": "", "station": "", "train": "" }, "geometry": { "type": "Point", "coordinates": [ 55.323887, 25.2633609 ] } },
{ "type": "Feature", "properties": { "full_id": "n1038596037", "osm_id": "1038596037", "osm_type": "node", "name": "Al Khail", "name:ar": "الخيل", "name:de": "Al Khail", "name:en": "Al Khail", "public_transport": "stop_position", "railway": "stop", "subway": "yes", "network": "Dubai Metro", "old_name:ar": "نخيل", "old_name:en": "Nakheel", "operator": "Roads and Transport Authority", "platforms": "", "wheelchair": "", "alt_name:ar": "", "transport": "", "name:fa": "", "addr:city": "", "addr:country": "", "alt_name": "", "alt_name:en": "", "crossing": "", "highway": "", "station": "", "train": "" }, "geometry": { "type": "Point", "coordinates": [ 55.1581682, 25.0889222 ] } },
{ "type": "Feature", "properties": { "full_id": "n1038911836", "osm_id": "1038911836", "osm_type": "node", "name": "Umm Al Sheif", "name:ar": "أم الشيف", "name:de": "Umm Al Sheif", "name:en": "Umm Al Sheif", "public_transport": "stop_position", "railway": "stop", "subway": "yes", "network": "Dubai Metro", "old_name:ar": "بنك أبوظبي الأول", "old_name:en": "First Abu Dhabi Bank", "operator": "Roads and Transport Authority", "platforms": "", "wheelchair": "", "alt_name:ar": "", "transport": "", "name:fa": "", "addr:city": "", "addr:country": "", "alt_name": "", "alt_name:en": "", "crossing": "", "highway": "", "station": "", "train": "" }, "geometry": { "type": "Point", "coordinates": [ 55.2079227, 25.1266938 ] } },
{ "type": "Feature", "properties": { "full_id": "n6582545007", "osm_id": "6582545007", "osm_type": "node", "name": "Emirates Towers", "name:ar": "أبراج الإمارات", "name:de": "", "name:en": "Emirates Towers", "public_transport": "stop_position", "railway": "stop", "subway": "yes", "network": "", "old_name:ar": "", "old_name:en": "", "operator": "", "platforms": "", "wheelchair": "", "alt_name:ar": "", "transport": "", "name:fa": "", "addr:city": "", "addr:country": "", "alt_name": "", "alt_name:en": "", "crossing": "", "highway": "", "station": "", "train": "" }, "geometry": { "type": "Point", "coordinates": [ 55.2801498, 25.2175728 ] } },
{ "type": "Feature", "properties": { "full_id": "n1038596002", "osm_id": "1038596002", "osm_type": "node", "name": "Dubai Internet City", "name:ar": "مدينة دبي للإنترنت", "name:de": "Dubai Internet City", "name:en": "Dubai Internet City", "public_transport": "stop_position", "railway": "stop", "subway": "yes", "network": "", "old_name:ar": "", "old_name:en": "", "operator": "", "platforms": "", "wheelchair": "", "alt_name:ar": "", "transport": "", "name:fa": "", "addr:city": "", "addr:country": "", "alt_name": "", "alt_name:en": "", "crossing": "", "highway": "", "station": "", "train": "" }, "geometry": { "type": "Point", "coordinates": [ 55.1738997, 25.1021673 ] } },
{ "type": "Feature", "properties": { "full_id": "n1038596017", "osm_id": "1038596017", "osm_type": "node", "name": "Dubai Marina", "name:ar": "دبي مارينا", "name:de": "Dubai Marina", "name:en": "Dubai Marina", "public_transport": "stop_position", "railway": "stop", "subway": "yes", "network": "Dubai Metro", "old_name:ar": "داماك العقارية", "old_name:en": "DAMAC Properties", "operator": "Roads and Transport Authority", "platforms": "", "wheelchair": "", "alt_name:ar": "", "transport": "", "name:fa": "", "addr:city": "", "addr:country": "", "alt_name": "", "alt_name:en": "", "crossing": "", "highway": "", "station": "", "train": "" }, "geometry": { "type": "Point", "coordinates": [ 55.1475925, 25.0799561 ] } },
{ "type": "Feature", "properties": { "full_id": "n6580480985", "osm_id": "6580480985", "osm_type": "node", "name": "Airport Terminal 3", "name:ar": "المطار- مبنى رقم 3", "name:de": "Airport Terminal 3", "name:en": "Airport Terminal 3", "public_transport": "stop_position", "railway": "stop", "subway": "yes", "network": "", "old_name:ar": "", "old_name:en": "", "operator": "Dubai Metro", "platforms": "", "wheelchair": "", "alt_name:ar": "", "transport": "", "name:fa": "", "addr:city": "", "addr:country": "", "alt_name": "", "alt_name:en": "", "crossing": "", "highway": "", "station": "", "train": "" }, "geometry": { "type": "Point", "coordinates": [ 55.3598209, 25.2448296 ] } },
{ "type": "Feature", "properties": { "full_id": "n1855656927", "osm_id": "1855656927", "osm_type": "node", "name": "World Trade Centre", "name:ar": "المركز التجاري العالمي", "name:de": "World Trade Centre", "name:en": "World Trade Centre", "public_transport": "stop_position", "railway": "stop", "subway": "yes", "network": "", "old_name:ar": "", "old_name:en": "", "operator": "", "platforms": "", "wheelchair": "", "alt_name:ar": "", "transport": "", "name:fa": "", "addr:city": "", "addr:country": "", "alt_name": "", "alt_name:en": "", "crossing": "", "highway": "", "station": "", "train": "" }, "geometry": { "type": "Point", "coordinates": [ 55.2851055, 25.2248416 ] } },
{ "type": "Feature", "properties": { "full_id": "n6588381693", "osm_id": "6588381693", "osm_type": "node", "name": "UAE Exchange", "name:ar": "مركز الإمارات العربية المتحدة للصرافة", "name:de": "", "name:en": "UAE Exchange", "public_transport": "stop_position", "railway": "stop", "subway": "yes", "network": "RTA", "old_name:ar": "", "old_name:en": "", "operator": "", "platforms": "", "wheelchair": "", "alt_name:ar": "", "transport": "", "name:fa": "", "addr:city": "Dubai", "addr:country": "AE", "alt_name": "جبل علي", "alt_name:en": "Jebel Ali", "crossing": "", "highway": "", "station": "", "train": "" }, "geometry": { "type": "Point", "coordinates": [ 55.0911905, 24.9778584 ] } },
{ "type": "Feature", "properties": { "full_id": "n6588516082", "osm_id": "6588516082", "osm_type": "node", "name": "DMCC", "name:ar": "مركز دبي للسلع المتعددة", "name:de": "DMCC", "name:en": "DMCC", "public_transport": "station", "railway": "station", "subway": "yes", "network": "", "old_name:ar": "", "old_name:en": "", "operator": "", "platforms": "", "wheelchair": "yes", "alt_name:ar": "", "transport": "", "name:fa": "", "addr:city": "", "addr:country": "", "alt_name": "", "alt_name:en": "", "crossing": "", "highway": "", "station": "subway", "train": "yes" }, "geometry": { "type": "Point", "coordinates": [ 55.1387943, 25.0709809 ] } },
{ "type": "Feature", "properties": { "full_id": "n1837882400", "osm_id": "1837882400", "osm_type": "node", "name": "ADCB", "name:ar": "بنك أبوظبي التجاري", "name:de": "ADCB", "name:en": "ADCB", "public_transport": "stop_position", "railway": "stop", "subway": "yes", "network": "", "old_name:ar": "", "old_name:en": "", "operator": "RTA", "platforms": "", "wheelchair": "", "alt_name:ar": "", "transport": "", "name:fa": "", "addr:city": "", "addr:country": "", "alt_name": "", "alt_name:en": "", "crossing": "", "highway": "", "station": "", "train": "" }, "geometry": { "type": "Point", "coordinates": [ 55.2983062, 25.2448407 ] } },
{ "type": "Feature", "properties": { "full_id": "n6582545024", "osm_id": "6582545024", "osm_type": "node", "name": "Business Bay", "name:ar": "الخليج التجاري", "name:de": "", "name:en": "Business Bay", "public_transport": "stop_position", "railway": "stop", "subway": "yes", "network": "", "old_name:ar": "", "old_name:en": "", "operator": "", "platforms": "", "wheelchair": "yes", "alt_name:ar": "", "transport": "", "name:fa": "", "addr:city": "", "addr:country": "", "alt_name": "", "alt_name:en": "", "crossing": "", "highway": "", "station": "", "train": "" }, "geometry": { "type": "Point", "coordinates": [ 55.2600944, 25.190986 ] } },
{ "type": "Feature", "properties": { "full_id": "n2071800191", "osm_id": "2071800191", "osm_type": "node", "name": "Ibn Battuta", "name:ar": "ابن بطوطة", "name:de": "Ibn Battuta", "name:en": "Ibn Battuta", "public_transport": "stop_position", "railway": "stop", "subway": "yes", "network": "", "old_name:ar": "", "old_name:en": "", "operator": "RTA", "platforms": "", "wheelchair": "", "alt_name:ar": "", "transport": "", "name:fa": "", "addr:city": "", "addr:country": "", "alt_name": "", "alt_name:en": "", "crossing": "", "highway": "", "station": "", "train": "" }, "geometry": { "type": "Point", "coordinates": [ 55.1171518, 25.0462785 ] } },
{ "type": "Feature", "properties": { "full_id": "n2109541845", "osm_id": "2109541845", "osm_type": "node", "name": "Energy", "name:ar": "الطاقة", "name:de": "Energy", "name:en": "Energy", "public_transport": "stop_position", "railway": "stop", "subway": "yes", "network": "", "old_name:ar": "", "old_name:en": "", "operator": "", "platforms": "", "wheelchair": "", "alt_name:ar": "", "transport": "", "name:fa": "", "addr:city": "", "addr:country": "", "alt_name": "", "alt_name:en": "", "crossing": "", "highway": "", "station": "", "train": "" }, "geometry": { "type": "Point", "coordinates": [ 55.1012875, 25.0263157 ] } },
{ "type": "Feature", "properties": { "full_id": "n2017986126", "osm_id": "2017986126", "osm_type": "node", "name": "GGICO", "name:ar": "جي جي كو", "name:de": "GGICO", "name:en": "GGICO", "public_transport": "stop_position", "railway": "stop", "subway": "yes", "network": "", "old_name:ar": "", "old_name:en": "", "operator": "", "platforms": "", "wheelchair": "", "alt_name:ar": "", "transport": "", "name:fa": "", "addr:city": "", "addr:country": "", "alt_name": "", "alt_name:en": "", "crossing": "", "highway": "", "station": "", "train": "" }, "geometry": { "type": "Point", "coordinates": [ 55.3399678, 25.249494 ] } },
{ "type": "Feature", "properties": { "full_id": "n2030157620", "osm_id": "2030157620", "osm_type": "node", "name": "Rashidiya", "name:ar": "الراشدية", "name:de": "Rashidiya", "name:en": "Rashidiya", "public_transport": "stop_position", "railway": "stop", "subway": "yes", "network": "", "old_name:ar": "", "old_name:en": "", "operator": "", "platforms": "", "wheelchair": "", "alt_name:ar": "", "transport": "", "name:fa": "", "addr:city": "", "addr:country": "", "alt_name": "", "alt_name:en": "", "crossing": "", "highway": "", "station": "", "train": "" }, "geometry": { "type": "Point", "coordinates": [ 55.3911452, 25.2302147 ] } },
{ "type": "Feature", "properties": { "full_id": "n2017967841", "osm_id": "2017967841", "osm_type": "node", "name": "Emirates", "name:ar": "طيران الإمارات", "name:de": "Emirates", "name:en": "Emirates", "public_transport": "stop_position", "railway": "stop", "subway": "yes", "network": "", "old_name:ar": "", "old_name:en": "", "operator": "", "platforms": "", "wheelchair": "", "alt_name:ar": "", "transport": "", "name:fa": "", "addr:city": "", "addr:country": "", "alt_name": "", "alt_name:en": "", "crossing": "", "highway": "", "station": "", "train": "" }, "geometry": { "type": "Point", "coordinates": [ 55.3656766, 25.241072 ] } },
{ "type": "Feature", "properties": { "full_id": "n6588569800", "osm_id": "6588569800", "osm_type": "node", "name": "Deira City Centre", "name:ar": "ديرة سيتي سنتر", "name:de": "Deira City Centre", "name:en": "Deira City Centre", "public_transport": "stop_position", "railway": "stop", "subway": "yes", "network": "", "old_name:ar": "", "old_name:en": "", "operator": "Dubai Metro", "platforms": "", "wheelchair": "", "alt_name:ar": "", "transport": "", "name:fa": "", "addr:city": "", "addr:country": "", "alt_name": "", "alt_name:en": "", "crossing": "", "highway": "", "station": "", "train": "" }, "geometry": { "type": "Point", "coordinates": [ 55.3302333, 25.2546162 ] } }
]
}
