{
"type": "FeatureCollection",
"name": "guangzhou-line-10-stops",
"crs": { "type": "name", "properties": { "name": "urn:ogc:def:crs:OGC:1.3:CRS84" } },
"features": [
{ "type": "Feature", "properties": { "full_id": "n7787790131", "osm_id": "7787790131", "osm_type": "node", "railway": "stop", "construction": "", "name": "Xilang", "name:zh": "西塱", "alt_name": "", "construction:railway": "", "name:en": "Xilang", "old_name": "", "proposed:public_transport": "", "subway": "yes", "public_transport": "stop_position", "ref": "10-01", "operator": "广州地铁集团有限公司" }, "geometry": { "type": "Point", "coordinates": [ 113.2277584, 23.0676012 ] } },
{ "type": "Feature", "properties": { "full_id": "n7787790086", "osm_id": "7787790086", "osm_type": "node", "railway": "stop", "construction": "", "name": "Guanggang", "name:zh": "广钢新城", "alt_name": "", "construction:railway": "", "name:en": "Guanggang New Town", "old_name": "", "proposed:public_transport": "", "subway": "yes", "public_transport": "stop_position", "ref": "10-02", "operator": "广州地铁集团有限公司" }, "geometry": { "type": "Point", "coordinates": [ 113.2413694, 23.0586653 ] } },
{ "type": "Feature", "properties": { "full_id": "n7787790037", "osm_id": "7787790037", "osm_type": "node", "railway": "stop", "construction": "", "name": "Dongsha", "name:zh": "东沙", "alt_name": "", "construction:railway": "", "name:en": "Dongsha", "old_name": "", "proposed:public_transport": "", "subway": "yes", "public_transport": "stop_position", "ref": "10-03", "operator": "广州地铁集团有限公司" }, "geometry": { "type": "Point", "coordinates": [ 113.2540195, 23.058707 ] } },
{ "type": "Feature", "properties": { "full_id": "n7787789996", "osm_id": "7787789996", "osm_type": "node", "railway": "stop", "construction": "", "name": "Daganwei", "name:zh": "大干围", "alt_name": "", "construction:railway": "", "name:en": "Daganwei", "old_name": "", "proposed:public_transport": "", "subway": "yes", "public_transport": "stop_position", "ref": "10-04", "operator": "广州地铁集团有限公司" }, "geometry": { "type": "Point", "coordinates": [ 113.2801719, 23.0628069 ] } },
{ "type": "Feature", "properties": { "full_id": "n7787734561", "osm_id": "7787734561", "osm_type": "node", "railway": "stop", "construction": "", "name": "Shixi", "name:zh": "石溪", "alt_name": "", "construction:railway": "", "name:en": "Shixi", "old_name": "", "proposed:public_transport": "", "subway": "yes", "public_transport": "stop_position", "ref": "10-05", "operator": "广州地铁集团有限公司" }, "geometry": { "type": "Point", "coordinates": [ 113.2832646, 23.0701089 ] } },
{ "type": "Feature", "properties": { "full_id": "n7787549467", "osm_id": "7787549467", "osm_type": "node", "railway": "stop", "construction": "", "name": "East Binjiang Road", "name:zh": "滨江东路", "alt_name": "", "construction:railway": "", "name:en": "Binjiang Donglu", "old_name": "", "proposed:public_transport": "", "subway": "yes", "public_transport": "stop_position", "ref": "10-09", "operator": "广州地铁集团有限公司" }, "geometry": { "type": "Point", "coordinates": [ 113.2875131, 23.1062014 ] } },
{ "type": "Feature", "properties": { "full_id": "n7787549456", "osm_id": "7787549456", "osm_type": "node", "railway": "stop", "construction": "", "name": "Sun Yat-sen University (South Gate)", "name:zh": "中大南门", "alt_name": "", "construction:railway": "", "name:en": "Sun Yat-sen University South Entrance", "old_name": "", "proposed:public_transport": "", "subway": "yes", "public_transport": "stop_position", "ref": "10-08", "operator": "广州地铁集团有限公司" }, "geometry": { "type": "Point", "coordinates": [ 113.290971, 23.0920051 ] } },
{ "type": "Feature", "properties": { "full_id": "n7787549393", "osm_id": "7787549393", "osm_type": "node", "railway": "stop", "construction": "", "name": "Donghu", "name:zh": "东湖", "alt_name": "", "construction:railway": "", "name:en": "Donghu", "old_name": "", "proposed:public_transport": "", "subway": "yes", "public_transport": "stop_position", "ref": "10-10", "operator": "广州地铁集团有限公司" }, "geometry": { "type": "Point", "coordinates": [ 113.2836384, 23.1182293 ] } },
{ "type": "Feature", "properties": { "full_id": "n7787549503", "osm_id": "7787549503", "osm_type": "node", "railway": "stop", "construction": "", "name": "Dongxiaonan", "name:zh": "东晓南", "alt_name": "", "construction:railway": "", "name:en": "Dongxiaonan", "old_name": "", "proposed:public_transport": "", "subway": "yes", "public_transport": "stop_position", "ref": "10-06", "operator": "广州地铁集团有限公司" }, "geometry": { "type": "Point", "coordinates": [ 113.287785, 23.0735208 ] } },
{ "type": "Feature", "properties": { "full_id": "n7787549495", "osm_id": "7787549495", "osm_type": "node", "railway": "stop", "construction": "", "name": "Wufeng", "name:zh": "五凤", "alt_name": "", "construction:railway": "", "name:en": "Wufeng", "old_name": "", "proposed:public_transport": "", "subway": "yes", "public_transport": "stop_position", "ref": "10-07", "operator": "广州地铁集团有限公司" }, "geometry": { "type": "Point", "coordinates": [ 113.2902081, 23.0847383 ] } },
{ "type": "Feature", "properties": { "full_id": "n7787549285", "osm_id": "7787549285", "osm_type": "node", "railway": "stop", "construction": "", "name": "Guangzhou Middle Ave", "name:zh": "广州大道中", "alt_name": "", "construction:railway": "", "name:en": "Guangzhou Dadaozhong", "old_name": "", "proposed:public_transport": "", "subway": "yes", "public_transport": "stop_position", "ref": "10-13", "operator": "广州地铁集团有限公司" }, "geometry": { "type": "Point", "coordinates": [ 113.3104832, 23.1290151 ] } },
{ "type": "Feature", "properties": { "full_id": "n7787547240", "osm_id": "7787547240", "osm_type": "node", "railway": "stop", "construction": "", "name": "Tianhe Road", "name:zh": "天河路", "alt_name": "", "construction:railway": "", "name:en": "Tianhe Lu", "old_name": "", "proposed:public_transport": "", "subway": "yes", "public_transport": "stop_position", "ref": "10-14", "operator": "广州地铁集团有限公司" }, "geometry": { "type": "Point", "coordinates": [ 113.3178423, 23.13619 ] } },
{ "type": "Feature", "properties": { "full_id": "n7787549380", "osm_id": "7787549380", "osm_type": "node", "railway": "stop", "construction": "", "name": "Shuqian Road", "name:zh": "署前路", "alt_name": "", "construction:railway": "", "name:en": "Shuqian Lu", "old_name": "", "proposed:public_transport": "", "subway": "yes", "public_transport": "stop_position", "ref": "10-11", "operator": "广州地铁集团有限公司" }, "geometry": { "type": "Point", "coordinates": [ 113.2904969, 23.12383 ] } },
{ "type": "Feature", "properties": { "full_id": "n7787549364", "osm_id": "7787549364", "osm_type": "node", "railway": "stop", "construction": "", "name": "Siyou New Road", "name:zh": "寺右新马路", "alt_name": "", "construction:railway": "", "name:en": "Siyou Xinmalu", "old_name": "", "proposed:public_transport": "", "subway": "yes", "public_transport": "stop_position", "ref": "10-12", "operator": "广州地铁集团有限公司" }, "geometry": { "type": "Point", "coordinates": [ 113.3033532, 23.1223096 ] } },
{ "type": "Feature", "properties": { "full_id": null, "osm_id": null, "osm_type": null, "railway": null, "construction": null, "name": "Gangding", "name:zh": null, "alt_name": null, "construction:railway": null, "name:en": null, "old_name": null, "proposed:public_transport": null, "subway": null, "public_transport": null, "ref": null, "operator": null }, "geometry": { "type": "Point", "coordinates": [ 113.33413373822674, 23.137447282938862 ] } },
{ "type": "Feature", "properties": { "full_id": null, "osm_id": null, "osm_type": null, "railway": null, "construction": null, "name": "South China Normal University", "name:zh": "South China Normal University", "alt_name": null, "construction:railway": null, "name:en": null, "old_name": null, "proposed:public_transport": null, "subway": null, "public_transport": null, "ref": null, "operator": null }, "geometry": { "type": "Point", "coordinates": [ 113.340062960832896, 23.143048161757019 ] } },
{ "type": "Feature", "properties": { "full_id": null, "osm_id": null, "osm_type": null, "railway": null, "construction": null, "name": "Wushan", "name:zh": null, "alt_name": null, "construction:railway": null, "name:en": null, "old_name": null, "proposed:public_transport": null, "subway": null, "public_transport": null, "ref": null, "operator": null }, "geometry": { "type": "Point", "coordinates": [ 113.346509681800526, 23.155493105112321 ] } },
{ "type": "Feature", "properties": { "full_id": null, "osm_id": null, "osm_type": null, "railway": null, "construction": null, "name": "Tianhe Coach Terminal Station", "name:zh": null, "alt_name": null, "construction:railway": null, "name:en": null, "old_name": null, "proposed:public_transport": null, "subway": null, "public_transport": null, "ref": null, "operator": null }, "geometry": { "type": "Point", "coordinates": [ 113.338509276097014, 23.173077342540367 ] } },
{ "type": "Feature", "properties": { "full_id": null, "osm_id": null, "osm_type": null, "railway": null, "construction": null, "name": "Shipaiqiao", "name:zh": null, "alt_name": null, "construction:railway": null, "name:en": null, "old_name": null, "proposed:public_transport": null, "subway": null, "public_transport": null, "ref": null, "operator": null }, "geometry": { "type": "Point", "coordinates": [ 113.326512831321608, 23.135807943301756 ] } }
]
}
