{
"type": "FeatureCollection",
"name": "guangzhou-line-13-phase-1-stops",
"crs": { "type": "name", "properties": { "name": "urn:ogc:def:crs:OGC:1.3:CRS84" } },
"features": [
{ "type": "Feature", "properties": { "full_id": "n5377439136", "osm_id": "5377439136", "osm_type": "node", "name": "Xiayuan", "name:en": "Xiayuan", "name:zh": "夏园", "operator": "广州地铁集团有限公司", "public_transport": "stop_position", "railway": "stop", "ref": "13-05", "start_date": "2017-12-28", "station": "", "subway": "yes", "barrier": "", "access": "", "description": "", "service": "", "construction:railway": "", "construction": "", "construction:public_transport": "", "layer": "" }, "geometry": { "type": "Point", "coordinates": [ 113.513223, 23.0857309 ] } },
{ "type": "Feature", "properties": { "full_id": "n5226637814", "osm_id": "5226637814", "osm_type": "node", "name": "Xintang", "name:en": "Xintang", "name:zh": "新塘", "operator": "广州地铁集团有限公司", "public_transport": "stop_position", "railway": "stop", "ref": "13-09", "start_date": "2017-12-28", "station": "", "subway": "yes", "barrier": "", "access": "", "description": "", "service": "", "construction:railway": "", "construction": "", "construction:public_transport": "", "layer": "" }, "geometry": { "type": "Point", "coordinates": [ 113.5990196, 23.1347148 ] } },
{ "type": "Feature", "properties": { "full_id": "n5217944447", "osm_id": "5217944447", "osm_type": "node", "name": "Baijiang", "name:en": "Baijiang", "name:zh": "白江", "operator": "广州地铁集团有限公司", "public_transport": "stop_position", "railway": "stop", "ref": "13-08", "start_date": "2017-12-28", "station": "", "subway": "yes", "barrier": "", "access": "", "description": "", "service": "", "construction:railway": "", "construction": "", "construction:public_transport": "", "layer": "" }, "geometry": { "type": "Point", "coordinates": [ 113.5906389, 23.1261578 ] } },
{ "type": "Feature", "properties": { "full_id": "n5363773458", "osm_id": "5363773458", "osm_type": "node", "name": "Shacun", "name:en": "Shacun", "name:zh": "沙村", "operator": "广州地铁集团有限公司", "public_transport": "stop_position", "railway": "stop", "ref": "13-07", "start_date": "2017-12-28", "station": "", "subway": "yes", "barrier": "", "access": "", "description": "", "service": "", "construction:railway": "", "construction": "", "construction:public_transport": "", "layer": "" }, "geometry": { "type": "Point", "coordinates": [ 113.5648759, 23.1133792 ] } },
{ "type": "Feature", "properties": { "full_id": "n5244446437", "osm_id": "5244446437", "osm_type": "node", "name": "Yufengwei", "name:en": "Yufengwei", "name:zh": "裕丰围", "operator": "广州地铁集团有限公司", "public_transport": "stop_position", "railway": "stop", "ref": "13-02", "start_date": "2017-12-28", "station": "", "subway": "yes", "barrier": "", "access": "", "description": "", "service": "", "construction:railway": "", "construction": "", "construction:public_transport": "", "layer": "" }, "geometry": { "type": "Point", "coordinates": [ 113.4487968, 23.0975864 ] } },
{ "type": "Feature", "properties": { "full_id": "n5244416945", "osm_id": "5244416945", "osm_type": "node", "name": "Shuanggang", "name:en": "Shuanggang", "name:zh": "双岗", "operator": "广州地铁集团有限公司", "public_transport": "stop_position", "railway": "stop", "ref": "13-03", "start_date": "2017-12-28", "station": "", "subway": "yes", "barrier": "", "access": "", "description": "", "service": "", "construction:railway": "", "construction": "", "construction:public_transport": "", "layer": "" }, "geometry": { "type": "Point", "coordinates": [ 113.4685985, 23.0970854 ] } },
{ "type": "Feature", "properties": { "full_id": "n5244482931", "osm_id": "5244482931", "osm_type": "node", "name": "Yuzhu", "name:en": "Yuzhu", "name:zh": "鱼珠", "operator": "广州地铁集团有限公司", "public_transport": "stop_position", "railway": "stop", "ref": "13-01", "start_date": "2017-12-28", "station": "", "subway": "yes", "barrier": "", "access": "", "description": "", "service": "", "construction:railway": "", "construction": "", "construction:public_transport": "", "layer": "" }, "geometry": { "type": "Point", "coordinates": [ 113.4267716, 23.1024745 ] } },
{ "type": "Feature", "properties": { "full_id": "n5244240249", "osm_id": "5244240249", "osm_type": "node", "name": "Nanhai God Temple", "name:en": "Nanhai God Temple", "name:zh": "南海神庙", "operator": "广州地铁集团有限公司", "public_transport": "stop_position", "railway": "stop", "ref": "13-04", "start_date": "2017-12-28", "station": "", "subway": "yes", "barrier": "", "access": "", "description": "", "service": "", "construction:railway": "", "construction": "", "construction:public_transport": "", "layer": "" }, "geometry": { "type": "Point", "coordinates": [ 113.4923363, 23.0858075 ] } },
{ "type": "Feature", "properties": { "full_id": "n5243664812", "osm_id": "5243664812", "osm_type": "node", "name": "Nangang", "name:en": "Nangang", "name:zh": "南岗", "operator": "广州地铁集团有限公司", "public_transport": "stop_position", "railway": "stop", "ref": "13-06", "start_date": "2017-12-28", "station": "", "subway": "yes", "barrier": "", "access": "", "description": "", "service": "", "construction:railway": "", "construction": "", "construction:public_transport": "", "layer": "" }, "geometry": { "type": "Point", "coordinates": [ 113.5358724, 23.0975374 ] } },
{ "type": "Feature", "properties": { "full_id": "n5230570819", "osm_id": "5230570819", "osm_type": "node", "name": "Xinsha", "name:en": "Xinsha", "name:zh": "新沙", "operator": "广州地铁集团有限公司", "public_transport": "stop_position", "railway": "stop", "ref": "13-11", "start_date": "2017-12-28", "station": "", "subway": "yes", "barrier": "", "access": "", "description": "", "service": "", "construction:railway": "", "construction": "", "construction:public_transport": "", "layer": "" }, "geometry": { "type": "Point", "coordinates": [ 113.6447347, 23.1396617 ] } },
{ "type": "Feature", "properties": { "full_id": "n5230570817", "osm_id": "5230570817", "osm_type": "node", "name": "Yufengwei", "name:en": "Yufengwei", "name:zh": "官湖", "operator": "广州地铁集团有限公司", "public_transport": "stop_position", "railway": "stop", "ref": "13-10", "start_date": "2017-12-28", "station": "", "subway": "yes", "barrier": "", "access": "", "description": "", "service": "", "construction:railway": "", "construction": "", "construction:public_transport": "", "layer": "" }, "geometry": { "type": "Point", "coordinates": [ 113.631424, 23.1402871 ] } }
]
}
