{
"type": "FeatureCollection",
"name": "lucknow-line-1-stops",
"crs": { "type": "name", "properties": { "name": "urn:ogc:def:crs:OGC:1.3:CRS84" } },
"features": [
{ "type": "Feature", "properties": { "full_id": "n4977535798", "osm_id": "4977535798", "osm_type": "node", "name": "KD Singh Babu Stadium", "railway": "station", "ref": "", "wikidata": "", "wikipedia": "", "name:de": "", "name:ur": "", "public_transport": "station", "train": "", "network": "Lucknow Metro", "operator": "LMRC", "addr:city": "", "ele": "", "access": "", "entrance": "", "disused:railway": "", "name:hi": "केडी सिंह बाबू स्टेडियम", "crossing:barrier": "", "station": "subway", "subway": "yes", "name:ja": "", "noexit": "", "description": "", "alt_name": "" }, "geometry": { "type": "Point", "coordinates": [ 80.9368471, 26.8539423 ] } },
{ "type": "Feature", "properties": { "full_id": "n8001538669", "osm_id": "8001538669", "osm_type": "node", "name": "Chaudhary Charan Singh International Airport", "railway": "station", "ref": "", "wikidata": "Q20861591", "wikipedia": "en:Chaudhary Charan Singh International Airport metro station", "name:de": "", "name:ur": "", "public_transport": "station", "train": "", "network": "Lucknow Metro", "operator": "LMRC", "addr:city": "", "ele": "", "access": "", "entrance": "", "disused:railway": "", "name:hi": "चौधरी चरण सिंह अंतरराष्ट्रीय हवाई अड्डा", "crossing:barrier": "", "station": "subway", "subway": "yes", "name:ja": "", "noexit": "", "description": "", "alt_name": "CCS Airport" }, "geometry": { "type": "Point", "coordinates": [ 80.8836391, 26.7662824 ] } },
{ "type": "Feature", "properties": { "full_id": "n4244207745", "osm_id": "4244207745", "osm_type": "node", "name": "Sachivalaya", "railway": "station", "ref": "", "wikidata": "", "wikipedia": "", "name:de": "", "name:ur": "", "public_transport": "station", "train": "", "network": "Lucknow Metro", "operator": "LMRC", "addr:city": "", "ele": "", "access": "", "entrance": "", "disused:railway": "", "name:hi": "सचिवालय", "crossing:barrier": "", "station": "subway", "subway": "yes", "name:ja": "", "noexit": "", "description": "", "alt_name": "" }, "geometry": { "type": "Point", "coordinates": [ 80.9399056, 26.8415965 ] } },
{ "type": "Feature", "properties": { "full_id": "n4244207703", "osm_id": "4244207703", "osm_type": "node", "name": "Durgapuri", "railway": "station", "ref": "DGPI", "wikidata": "", "wikipedia": "", "name:de": "", "name:ur": "", "public_transport": "station", "train": "", "network": "Lucknow Metro", "operator": "LMRC", "addr:city": "", "ele": "", "access": "", "entrance": "", "disused:railway": "", "name:hi": "दुर्गापुरी", "crossing:barrier": "", "station": "subway", "subway": "yes", "name:ja": "", "noexit": "", "description": "", "alt_name": "" }, "geometry": { "type": "Point", "coordinates": [ 80.9154077, 26.8320029 ] } },
{ "type": "Feature", "properties": { "full_id": "n4244207702", "osm_id": "4244207702", "osm_type": "node", "name": "Charbagh Railway Station", "railway": "station", "ref": "", "wikidata": "", "wikipedia": "", "name:de": "", "name:ur": "لکھنؤ چارباغ اسٹیشن", "public_transport": "station", "train": "", "network": "Lucknow Metro", "operator": "LMRC", "addr:city": "", "ele": "", "access": "", "entrance": "", "disused:railway": "", "name:hi": "चारबाग़ रेलवे स्टेशन", "crossing:barrier": "", "station": "subway", "subway": "yes", "name:ja": "", "noexit": "", "description": "", "alt_name": "" }, "geometry": { "type": "Point", "coordinates": [ 80.9231133, 26.8324023 ] } },
{ "type": "Feature", "properties": { "full_id": "n4170031601", "osm_id": "4170031601", "osm_type": "node", "name": "Lucknow Junction", "railway": "station", "ref": "LJN", "wikidata": "Q17151999", "wikipedia": "en:Lucknow Junction railway station", "name:de": "Lakhnau Junction", "name:ur": "لکھنؤ جنکشن", "public_transport": "station", "train": "yes", "network": "", "operator": "", "addr:city": "Lucknow", "ele": "126", "access": "", "entrance": "", "disused:railway": "", "name:hi": "", "crossing:barrier": "", "station": "", "subway": "", "name:ja": "", "noexit": "", "description": "", "alt_name": "" }, "geometry": { "type": "Point", "coordinates": [ 80.9222977, 26.8315101 ] } },
{ "type": "Feature", "properties": { "full_id": "n3997322776", "osm_id": "3997322776", "osm_type": "node", "name": "Singar Nagar", "railway": "station", "ref": "", "wikidata": "", "wikipedia": "", "name:de": "", "name:ur": "", "public_transport": "station", "train": "", "network": "Lucknow Metro", "operator": "LMRC", "addr:city": "", "ele": "", "access": "", "entrance": "", "disused:railway": "", "name:hi": "सिंगार नगर", "crossing:barrier": "", "station": "subway", "subway": "yes", "name:ja": "", "noexit": "", "description": "", "alt_name": "" }, "geometry": { "type": "Point", "coordinates": [ 80.8964272, 26.8030998 ] } },
{ "type": "Feature", "properties": { "full_id": "n3997322403", "osm_id": "3997322403", "osm_type": "node", "name": "Mawaiya", "railway": "station", "ref": "", "wikidata": "", "wikipedia": "", "name:de": "", "name:ur": "", "public_transport": "station", "train": "", "network": "Lucknow Metro", "operator": "LMRC", "addr:city": "", "ele": "", "access": "", "entrance": "", "disused:railway": "", "name:hi": "मवईया", "crossing:barrier": "", "station": "subway", "subway": "yes", "name:ja": "", "noexit": "", "description": "", "alt_name": "" }, "geometry": { "type": "Point", "coordinates": [ 80.9098575, 26.8253101 ] } },
{ "type": "Feature", "properties": { "full_id": "n8006089162", "osm_id": "8006089162", "osm_type": "node", "name": "Amausi", "railway": "station", "ref": "", "wikidata": "Q17049249", "wikipedia": "en:Amausi metro station", "name:de": "", "name:ur": "", "public_transport": "station", "train": "", "network": "Lucknow Metro", "operator": "LMRC", "addr:city": "", "ele": "", "access": "", "entrance": "", "disused:railway": "", "name:hi": "अमौसी", "crossing:barrier": "", "station": "subway", "subway": "yes", "name:ja": "", "noexit": "", "description": "", "alt_name": "" }, "geometry": { "type": "Point", "coordinates": [ 80.8786976, 26.7713636 ] } },
{ "type": "Feature", "properties": { "full_id": "n8006089161", "osm_id": "8006089161", "osm_type": "node", "name": "Transport Nagar", "railway": "station", "ref": "", "wikidata": "Q17123999", "wikipedia": "en:Transport Nagar metro station", "name:de": "", "name:ur": "", "public_transport": "station", "train": "", "network": "Lucknow Metro", "operator": "LMRC", "addr:city": "", "ele": "", "access": "", "entrance": "", "disused:railway": "", "name:hi": "ट्रांसपोर्ट नगर", "crossing:barrier": "", "station": "subway", "subway": "yes", "name:ja": "", "noexit": "", "description": "", "alt_name": "" }, "geometry": { "type": "Point", "coordinates": [ 80.8826512, 26.777877 ] } },
{ "type": "Feature", "properties": { "full_id": "n6444506695", "osm_id": "6444506695", "osm_type": "node", "name": "IT College", "railway": "station", "ref": "", "wikidata": "", "wikipedia": "", "name:de": "", "name:ur": "", "public_transport": "station", "train": "", "network": "Lucknow Metro", "operator": "LMRC", "addr:city": "", "ele": "", "access": "", "entrance": "", "disused:railway": "", "name:hi": "आईटी कॉलेज", "crossing:barrier": "", "station": "subway", "subway": "yes", "name:ja": "", "noexit": "", "description": "", "alt_name": "" }, "geometry": { "type": "Point", "coordinates": [ 80.945608, 26.8710043 ] } },
{ "type": "Feature", "properties": { "full_id": "n3997322402", "osm_id": "3997322402", "osm_type": "node", "name": "Krishna Nagar", "railway": "station", "ref": "", "wikidata": "", "wikipedia": "", "name:de": "", "name:ur": "", "public_transport": "station", "train": "", "network": "Lucknow Metro", "operator": "LMRC", "addr:city": "", "ele": "", "access": "", "entrance": "", "disused:railway": "", "name:hi": "कृष्णा नगर", "crossing:barrier": "", "station": "subway", "subway": "yes", "name:ja": "", "noexit": "", "description": "", "alt_name": "" }, "geometry": { "type": "Point", "coordinates": [ 80.891762, 26.794391 ] } },
{ "type": "Feature", "properties": { "full_id": "n6444506071", "osm_id": "6444506071", "osm_type": "node", "name": "Munshipulia", "railway": "station", "ref": "", "wikidata": "", "wikipedia": "", "name:de": "", "name:ur": "", "public_transport": "station", "train": "", "network": "Lucknow Metro", "operator": "LMRC", "addr:city": "", "ele": "", "access": "", "entrance": "", "disused:railway": "", "name:hi": "मुंशीपुलिया", "crossing:barrier": "", "station": "subway", "subway": "yes", "name:ja": "", "noexit": "", "description": "", "alt_name": "" }, "geometry": { "type": "Point", "coordinates": [ 80.9958565, 26.8879043 ] } },
{ "type": "Feature", "properties": { "full_id": "n3997322401", "osm_id": "3997322401", "osm_type": "node", "name": "Alambagh", "railway": "station", "ref": "", "wikidata": "Q17049199", "wikipedia": "", "name:de": "", "name:ur": "", "public_transport": "station", "train": "", "network": "Lucknow Metro", "operator": "LMRC", "addr:city": "", "ele": "", "access": "", "entrance": "", "disused:railway": "", "name:hi": "आलमबाग़", "crossing:barrier": "", "station": "subway", "subway": "yes", "name:ja": "", "noexit": "", "description": "", "alt_name": "" }, "geometry": { "type": "Point", "coordinates": [ 80.9025123, 26.8140101 ] } },
{ "type": "Feature", "properties": { "full_id": "n3997322400", "osm_id": "3997322400", "osm_type": "node", "name": "Alambagh Bus Station", "railway": "station", "ref": "", "wikidata": "Q18109514", "wikipedia": "en:Alambagh ISBT metro station", "name:de": "", "name:ur": "", "public_transport": "station", "train": "", "network": "Lucknow Metro", "operator": "LMRC", "addr:city": "", "ele": "", "access": "", "entrance": "", "disused:railway": "", "name:hi": "आलमबाग बस स्टेशन", "crossing:barrier": "", "station": "subway", "subway": "yes", "name:ja": "", "noexit": "", "description": "", "alt_name": "" }, "geometry": { "type": "Point", "coordinates": [ 80.9072927, 26.8184732 ] } },
{ "type": "Feature", "properties": { "full_id": "n6445132137", "osm_id": "6445132137", "osm_type": "node", "name": "Hussainganj", "railway": "station", "ref": "", "wikidata": "", "wikipedia": "", "name:de": "", "name:ur": "", "public_transport": "station", "train": "", "network": "Lucknow Metro", "operator": "LMRC", "addr:city": "", "ele": "", "access": "", "entrance": "", "disused:railway": "", "name:hi": "हुसैनगंज", "crossing:barrier": "", "station": "subway", "subway": "yes", "name:ja": "", "noexit": "", "description": "", "alt_name": "" }, "geometry": { "type": "Point", "coordinates": [ 80.93433, 26.8384284 ] } },
{ "type": "Feature", "properties": { "full_id": "n6445132136", "osm_id": "6445132136", "osm_type": "node", "name": "Hazratganj", "railway": "station", "ref": "", "wikidata": "", "wikipedia": "", "name:de": "", "name:ur": "", "public_transport": "station", "train": "", "network": "Lucknow Metro", "operator": "LMRC", "addr:city": "", "ele": "", "access": "", "entrance": "", "disused:railway": "", "name:hi": "हज़रतगंज", "crossing:barrier": "", "station": "subway", "subway": "yes", "name:ja": "", "noexit": "", "description": "", "alt_name": "" }, "geometry": { "type": "Point", "coordinates": [ 80.9416143, 26.8500472 ] } },
{ "type": "Feature", "properties": { "full_id": "n6445132135", "osm_id": "6445132135", "osm_type": "node", "name": "Bhootnath Market", "railway": "station", "ref": "", "wikidata": "", "wikipedia": "", "name:de": "", "name:ur": "", "public_transport": "station", "train": "", "network": "Lucknow Metro", "operator": "LMRC", "addr:city": "", "ele": "", "access": "", "entrance": "", "disused:railway": "", "name:hi": "भूतनाथ मार्केट", "crossing:barrier": "", "station": "subway", "subway": "yes", "name:ja": "", "noexit": "", "description": "", "alt_name": "" }, "geometry": { "type": "Point", "coordinates": [ 80.9823065, 26.87221 ] } },
{ "type": "Feature", "properties": { "full_id": "n4977536038", "osm_id": "4977536038", "osm_type": "node", "name": "Indira Nagar", "railway": "station", "ref": "", "wikidata": "", "wikipedia": "", "name:de": "", "name:ur": "", "public_transport": "station", "train": "", "network": "Lucknow Metro", "operator": "LMRC", "addr:city": "", "ele": "", "access": "", "entrance": "", "disused:railway": "", "name:hi": "इंदिरा नगर", "crossing:barrier": "", "station": "subway", "subway": "yes", "name:ja": "", "noexit": "", "description": "", "alt_name": "" }, "geometry": { "type": "Point", "coordinates": [ 80.9909072, 26.8727258 ] } },
{ "type": "Feature", "properties": { "full_id": "n4977535820", "osm_id": "4977535820", "osm_type": "node", "name": "Badshah Nagar", "railway": "station", "ref": "", "wikidata": "", "wikipedia": "", "name:de": "", "name:ur": "", "public_transport": "station", "train": "", "network": "Lucknow Metro", "operator": "LMRC", "addr:city": "", "ele": "", "access": "", "entrance": "", "disused:railway": "", "name:hi": "बादशाह नगर", "crossing:barrier": "", "station": "subway", "subway": "yes", "name:ja": "", "noexit": "", "description": "", "alt_name": "" }, "geometry": { "type": "Point", "coordinates": [ 80.9610675, 26.8706788 ] } },
{ "type": "Feature", "properties": { "full_id": "n4977535811", "osm_id": "4977535811", "osm_type": "node", "name": "Lekhraj Market", "railway": "station", "ref": "", "wikidata": "", "wikipedia": "", "name:de": "", "name:ur": "", "public_transport": "station", "train": "", "network": "Lucknow Metro", "operator": "LMRC", "addr:city": "", "ele": "", "access": "", "entrance": "", "disused:railway": "", "name:hi": "लेखराज मार्केट", "crossing:barrier": "", "station": "subway", "subway": "yes", "name:ja": "", "noexit": "", "description": "", "alt_name": "" }, "geometry": { "type": "Point", "coordinates": [ 80.9694534, 26.8700699 ] } },
{ "type": "Feature", "properties": { "full_id": "n4977535810", "osm_id": "4977535810", "osm_type": "node", "name": "Lucknow University", "railway": "station", "ref": "", "wikidata": "", "wikipedia": "", "name:de": "", "name:ur": "", "public_transport": "station", "train": "", "network": "Lucknow Metro", "operator": "LMRC", "addr:city": "", "ele": "", "access": "", "entrance": "", "disused:railway": "", "name:hi": "लखनऊ विश्वविद्यालय", "crossing:barrier": "", "station": "subway", "subway": "yes", "name:ja": "", "noexit": "", "description": "", "alt_name": "" }, "geometry": { "type": "Point", "coordinates": [ 80.9395636, 26.8654923 ] } }
]
}
