{
"type": "FeatureCollection",
"name": "mexicocity-line-12-stops",
"crs": { "type": "name", "properties": { "name": "urn:ogc:def:crs:OGC:1.3:CRS84" } },
"features": [
{ "type": "Feature", "properties": { "full_id": "n2081866459", "osm_id": "2081866459", "osm_type": "node", "name": "Insurgentes Sur", "network": "STC Metro", "opening_hours": "Mo-Fr 05:00-24:00; Sa 06:00-24:00; Su 07:00-24:00", "operator": "Sistema de Transporte Colectivo", "public_transport": "station", "railway": "station", "station": "subway", "subway": "yes", "wikidata": "Q5918521", "wikipedia": "es:Insurgentes Sur (estación)", "bus": "", "highway": "", "wheelchair": "", "wheelchair:description": "", "start_date": "", "description": "", "train": "", "internet_access": "", "amenity": "" }, "geometry": { "type": "Point", "coordinates": [ -99.1788054, 19.3737011 ] } },
{ "type": "Feature", "properties": { "full_id": "n2081866461", "osm_id": "2081866461", "osm_type": "node", "name": "Culhuacán", "network": "STC Metro", "opening_hours": "Mo-Fr 05:00-24:00; Sa 06:00-24:00; Su 07:00-24:00", "operator": "Sistema de Transporte Colectivo", "public_transport": "station", "railway": "station", "station": "subway", "subway": "yes", "wikidata": "Q5794406", "wikipedia": "es:Culhuacán (estación)", "bus": "", "highway": "", "wheelchair": "", "wheelchair:description": "", "start_date": "", "description": "", "train": "", "internet_access": "", "amenity": "" }, "geometry": { "type": "Point", "coordinates": [ -99.1089421, 19.336909 ] } },
{ "type": "Feature", "properties": { "full_id": "n2081866448", "osm_id": "2081866448", "osm_type": "node", "name": "Atlalilco", "network": "STC Metro", "opening_hours": "", "operator": "", "public_transport": "stop_position", "railway": "stop", "station": "", "subway": "yes", "wikidata": "Q6824487", "wikipedia": "es:Atlalilco (estación)", "bus": "", "highway": "", "wheelchair": "", "wheelchair:description": "", "start_date": "", "description": "", "train": "", "internet_access": "", "amenity": "" }, "geometry": { "type": "Point", "coordinates": [ -99.10624, 19.3527911 ] } },
{ "type": "Feature", "properties": { "full_id": "n2081866451", "osm_id": "2081866451", "osm_type": "node", "name": "Zapata", "network": "", "opening_hours": "", "operator": "", "public_transport": "stop_position", "railway": "", "station": "", "subway": "yes", "wikidata": "", "wikipedia": "", "bus": "", "highway": "", "wheelchair": "", "wheelchair:description": "", "start_date": "", "description": "", "train": "", "internet_access": "", "amenity": "" }, "geometry": { "type": "Point", "coordinates": [ -99.1648555, 19.3706471 ] } },
{ "type": "Feature", "properties": { "full_id": "n2081866454", "osm_id": "2081866454", "osm_type": "node", "name": "Mixcoac", "network": "STC Metro", "opening_hours": "", "operator": "", "public_transport": "stop_position", "railway": "stop", "station": "", "subway": "yes", "wikidata": "Q6824627", "wikipedia": "es:Mixcoac (estación)", "bus": "", "highway": "", "wheelchair": "", "wheelchair:description": "", "start_date": "", "description": "", "train": "", "internet_access": "", "amenity": "" }, "geometry": { "type": "Point", "coordinates": [ -99.1868167, 19.3757519 ] } },
{ "type": "Feature", "properties": { "full_id": "n2081866456", "osm_id": "2081866456", "osm_type": "node", "name": "Mexicaltzingo", "network": "STC Metro", "opening_hours": "Mo-Fr 05:00-24:00; Sa 06:00-24:00; Su 07:00-24:00", "operator": "Sistema de Transporte Colectivo", "public_transport": "station", "railway": "station", "station": "subway", "subway": "yes", "wikidata": "Q6012160", "wikipedia": "es:Mexicaltzingo (estación)", "bus": "", "highway": "", "wheelchair": "", "wheelchair:description": "", "start_date": "", "description": "", "train": "", "internet_access": "", "amenity": "" }, "geometry": { "type": "Point", "coordinates": [ -99.1226831, 19.3576908 ] } },
{ "type": "Feature", "properties": { "full_id": "n2081866441", "osm_id": "2081866441", "osm_type": "node", "name": "Eje Central", "network": "STC Metro", "opening_hours": "Mo-Fr 05:00-24:00; Sa 06:00-24:00; Su 07:00-24:00", "operator": "Sistema de Transporte Colectivo", "public_transport": "station", "railway": "station", "station": "subway", "subway": "yes", "wikidata": "Q5644140", "wikipedia": "es:Eje central (estación)", "bus": "", "highway": "", "wheelchair": "yes", "wheelchair:description": "", "start_date": "", "description": "", "train": "", "internet_access": "", "amenity": "" }, "geometry": { "type": "Point", "coordinates": [ -99.1514823, 19.3613667 ] } },
{ "type": "Feature", "properties": { "full_id": "n2081866443", "osm_id": "2081866443", "osm_type": "node", "name": "Hospital 20 de Noviembre", "network": "STC Metro", "opening_hours": "Mo-Fr 05:00-24:00; Sa 06:00-24:00; Su 07:00-24:00", "operator": "Sistema de Transporte Colectivo", "public_transport": "station", "railway": "station", "station": "subway", "subway": "yes", "wikidata": "Q5902535", "wikipedia": "es:Hospital 20 de Noviembre (estación)", "bus": "", "highway": "", "wheelchair": "", "wheelchair:description": "", "start_date": "", "description": "", "train": "", "internet_access": "", "amenity": "" }, "geometry": { "type": "Point", "coordinates": [ -99.1707565, 19.371946 ] } },
{ "type": "Feature", "properties": { "full_id": "n2081866445", "osm_id": "2081866445", "osm_type": "node", "name": "Lomas Estrella", "network": "STC Metro", "opening_hours": "Mo-Fr 05:00-24:00; Sa 06:00-24:00; Su 07:00-24:00", "operator": "Sistema de Transporte Colectivo", "public_transport": "station", "railway": "station", "station": "subway", "subway": "yes", "wikidata": "Q5978599", "wikipedia": "es:Lomas Estrella (estación)", "bus": "", "highway": "", "wheelchair": "", "wheelchair:description": "", "start_date": "", "description": "", "train": "", "internet_access": "", "amenity": "" }, "geometry": { "type": "Point", "coordinates": [ -99.0957291, 19.3221301 ] } },
{ "type": "Feature", "properties": { "full_id": "n2081866446", "osm_id": "2081866446", "osm_type": "node", "name": "Calle 11", "network": "STC Metro", "opening_hours": "Mo-Fr 05:00-24:00; Sa 06:00-24:00; Su 07:00-24:00", "operator": "Sistema de Transporte Colectivo", "public_transport": "station", "railway": "station", "station": "subway", "subway": "yes", "wikidata": "Q5740298", "wikipedia": "es:Calle 11 (estación)", "bus": "", "highway": "", "wheelchair": "", "wheelchair:description": "", "start_date": "", "description": "", "train": "", "internet_access": "", "amenity": "" }, "geometry": { "type": "Point", "coordinates": [ -99.0858884, 19.3204582 ] } },
{ "type": "Feature", "properties": { "full_id": "n1991237943", "osm_id": "1991237943", "osm_type": "node", "name": "Tlaltenco", "network": "STC Metro", "opening_hours": "Mo-Fr 05:00-24:00; Sa 06:00-24:00; Su 07:00-24:00", "operator": "Sistema de Transporte Colectivo", "public_transport": "station", "railway": "station", "station": "subway", "subway": "yes", "wikidata": "Q2883637", "wikipedia": "es:Tlaltenco (estación)", "bus": "", "highway": "", "wheelchair": "", "wheelchair:description": "", "start_date": "", "description": "", "train": "", "internet_access": "", "amenity": "" }, "geometry": { "type": "Point", "coordinates": [ -99.0240321, 19.2943878 ] } },
{ "type": "Feature", "properties": { "full_id": "n1991238183", "osm_id": "1991238183", "osm_type": "node", "name": "Nopalera", "network": "STC Metro", "opening_hours": "Mo-Fr 05:00-24:00; Sa 06:00-24:00; Su 07:00-24:00", "operator": "Sistema de Transporte Colectivo", "public_transport": "station", "railway": "station", "station": "subway", "subway": "yes", "wikidata": "Q6044683", "wikipedia": "es:Nopalera (estación)", "bus": "", "highway": "", "wheelchair": "", "wheelchair:description": "", "start_date": "", "description": "", "train": "", "internet_access": "", "amenity": "" }, "geometry": { "type": "Point", "coordinates": [ -99.0459431, 19.2999142 ] } },
{ "type": "Feature", "properties": { "full_id": "n1991257161", "osm_id": "1991257161", "osm_type": "node", "name": "Zapotitlán", "network": "STC Metro", "opening_hours": "Mo-Fr 05:00-24:00; Sa 06:00-24:00; Su 07:00-24:00", "operator": "Sistema de Transporte Colectivo", "public_transport": "station", "railway": "station", "station": "subway", "subway": "yes", "wikidata": "Q9097529", "wikipedia": "es:Zapotitlán (estación)", "bus": "", "highway": "", "wheelchair": "", "wheelchair:description": "", "start_date": "", "description": "", "train": "", "internet_access": "", "amenity": "" }, "geometry": { "type": "Point", "coordinates": [ -99.0342155, 19.2966284 ] } },
{ "type": "Feature", "properties": { "full_id": "n2081866438", "osm_id": "2081866438", "osm_type": "node", "name": "Ermita", "network": "STC Metro", "opening_hours": "", "operator": "", "public_transport": "stop_position", "railway": "stop", "station": "", "subway": "yes", "wikidata": "Q5256668", "wikipedia": "es:Ermita (estación)", "bus": "", "highway": "", "wheelchair": "yes", "wheelchair:description": "", "start_date": "", "description": "", "train": "", "internet_access": "", "amenity": "" }, "geometry": { "type": "Point", "coordinates": [ -99.1413421, 19.3597478 ] } },
{ "type": "Feature", "properties": { "full_id": "n1991237764", "osm_id": "1991237764", "osm_type": "node", "name": "Tláhuac", "network": "STC Metro", "opening_hours": "Mo-Fr 05:00-24:00; Sa 06:00-24:00; Su 07:00-24:00", "operator": "Sistema de Transporte Colectivo", "public_transport": "stop_position", "railway": "station", "station": "subway", "subway": "yes", "wikidata": "Q6824735", "wikipedia": "es:Tláhuac (estación)", "bus": "", "highway": "", "wheelchair": "", "wheelchair:description": "", "start_date": "", "description": "", "train": "", "internet_access": "", "amenity": "" }, "geometry": { "type": "Point", "coordinates": [ -99.0142447, 19.2863506 ] } },
{ "type": "Feature", "properties": { "full_id": "n2663332307", "osm_id": "2663332307", "osm_type": "node", "name": "Olivos", "network": "STC Metro", "opening_hours": "Mo-Fr 05:00-24:00; Sa 06:00-24:00; Su 07:00-24:00", "operator": "Sistema de Transporte Colectivo", "public_transport": "station", "railway": "station", "station": "subway", "subway": "yes", "wikidata": "Q6050104", "wikipedia": "es:Olivos (estación)", "bus": "", "highway": "", "wheelchair": "", "wheelchair:description": "", "start_date": "", "description": "", "train": "", "internet_access": "", "amenity": "" }, "geometry": { "type": "Point", "coordinates": [ -99.059559, 19.304307 ] } },
{ "type": "Feature", "properties": { "full_id": "n2663332308", "osm_id": "2663332308", "osm_type": "node", "name": "Tezonco", "network": "STC Metro", "opening_hours": "Mo-Fr 05:00-24:00; Sa 06:00-24:00; Su 07:00-24:00", "operator": "Sistema de Transporte Colectivo", "public_transport": "station", "railway": "station", "station": "subway", "subway": "yes", "wikidata": "Q6143783", "wikipedia": "es:Tezonco (estación)", "bus": "", "highway": "", "wheelchair": "", "wheelchair:description": "", "start_date": "", "description": "", "train": "", "internet_access": "", "amenity": "" }, "geometry": { "type": "Point", "coordinates": [ -99.0652285, 19.3062224 ] } },
{ "type": "Feature", "properties": { "full_id": "n2663332311", "osm_id": "2663332311", "osm_type": "node", "name": "Periférico Oriente", "network": "STC Metro", "opening_hours": "", "operator": "", "public_transport": "stop_position", "railway": "stop", "station": "", "subway": "yes", "wikidata": "", "wikipedia": "", "bus": "", "highway": "", "wheelchair": "", "wheelchair:description": "", "start_date": "", "description": "", "train": "", "internet_access": "", "amenity": "" }, "geometry": { "type": "Point", "coordinates": [ -99.0745429, 19.317609 ] } },
{ "type": "Feature", "properties": { "full_id": "n2663332312", "osm_id": "2663332312", "osm_type": "node", "name": "San Andrés Tomatlán", "network": "STC Metro", "opening_hours": "Mo-Fr 05:00-24:00; Sa 06:00-24:00; Su 07:00-24:00", "operator": "Sistema de Transporte Colectivo", "public_transport": "station", "railway": "station", "station": "subway", "subway": "yes", "wikidata": "Q6118305", "wikipedia": "es:San Andrés Tomatlán (estación)", "bus": "", "highway": "", "wheelchair": "", "wheelchair:description": "", "start_date": "", "description": "", "train": "", "internet_access": "", "amenity": "" }, "geometry": { "type": "Point", "coordinates": [ -99.104439, 19.3281071 ] } },
{ "type": "Feature", "properties": { "full_id": "n4262943382", "osm_id": "4262943382", "osm_type": "node", "name": "Parque de los Venados", "network": "STC Metro", "opening_hours": "Mo-Fr 05:00-24:00; Sa 06:00-24:00; Su 07:00-24:00", "operator": "Sistema de Transporte Colectivo", "public_transport": "station", "railway": "station", "station": "subway", "subway": "yes", "wikidata": "Q6062821", "wikipedia": "es:Parque de los venados (estación)", "bus": "", "highway": "", "wheelchair": "", "wheelchair:description": "", "start_date": "", "description": "", "train": "", "internet_access": "", "amenity": "" }, "geometry": { "type": "Point", "coordinates": [ -99.1587782, 19.3706491 ] } }
]
}
