{
"type": "FeatureCollection",
"name": "prague-line-c-to-letnany-complete-line",
"crs": { "type": "name", "properties": { "name": "urn:ogc:def:crs:OGC:1.3:CRS84" } },
"features": [
{ "type": "Feature", "properties": { "full_id": "w668566835", "osm_id": "668566835", "osm_type": "way", "electrified": "rail", "frequency": "0", "gauge": "1435", "layer": "-2", "maxspeed": "", "oneway": "yes", "railway": "subway", "railway:track_ref": "", "service": "", "tunnel": "yes", "voltage": "750", "colour": "red", "level": "", "name": "Metro C", "name:be": "лінія Ц", "name:de": "U-Bahn C", "name:en": "Subway C", "name:ru": "Линия Ц", "operator": "cz:DPP", "passenger_lines": "", "bridge": "", "bridge:structure": "", "covered": "", "location": "", "usage": "", "note:cs": "", "railway:preferred_direction": "", "ref": "", "wikidata": "", "wikipedia": "", "name:cs": "", "incline": "" }, "geometry": { "type": "LineString", "coordinates": [ [ 14.4305302, 50.0724526 ], [ 14.4305505, 50.0723097 ], [ 14.4305625, 50.0721664 ], [ 14.4305661, 50.0720229 ], [ 14.4305613, 50.0718794 ], [ 14.430545, 50.0717113 ], [ 14.4305172, 50.0715438 ], [ 14.430478, 50.0713773 ] ] } },
{ "type": "Feature", "properties": { "full_id": "w566450043", "osm_id": "566450043", "osm_type": "way", "electrified": "rail", "frequency": "0", "gauge": "1435", "layer": "1", "maxspeed": "60", "oneway": "yes", "railway": "subway", "railway:track_ref": "", "service": "", "tunnel": "", "voltage": "750", "colour": "red", "level": "", "name": "Metro C", "name:be": "лінія Ц", "name:de": "U-Bahn C", "name:en": "Subway C", "name:ru": "Линия Ц", "operator": "cz:DPP", "passenger_lines": "1", "bridge": "yes", "bridge:structure": "beam", "covered": "", "location": "", "usage": "", "note:cs": "tubus metra v mostovce", "railway:preferred_direction": "", "ref": "", "wikidata": "", "wikipedia": "", "name:cs": "", "incline": "" }, "geometry": { "type": "LineString", "coordinates": [ [ 14.4305411, 50.0633856 ], [ 14.4305328, 50.0636004 ] ] } },
{ "type": "Feature", "properties": { "full_id": "w668560913", "osm_id": "668560913", "osm_type": "way", "electrified": "rail", "frequency": "0", "gauge": "1435", "layer": "-2", "maxspeed": "", "oneway": "yes", "railway": "subway", "railway:track_ref": "", "service": "", "tunnel": "yes", "voltage": "750", "colour": "red", "level": "-2", "name": "Metro C", "name:be": "лінія Ц", "name:de": "U-Bahn C", "name:en": "Subway C", "name:ru": "Линия Ц", "operator": "cz:DPP", "passenger_lines": "", "bridge": "", "bridge:structure": "", "covered": "", "location": "", "usage": "", "note:cs": "", "railway:preferred_direction": "", "ref": "", "wikidata": "", "wikipedia": "", "name:cs": "Metro C", "incline": "" }, "geometry": { "type": "LineString", "coordinates": [ [ 14.4303244, 50.0747946 ], [ 14.4301787, 50.0757556 ], [ 14.4299816, 50.0763962 ], [ 14.4297326, 50.0770163 ], [ 14.429617, 50.0774874 ], [ 14.4296105, 50.0779817 ], [ 14.4297321, 50.0784242 ], [ 14.4299495, 50.0788605 ], [ 14.4303313, 50.0794352 ], [ 14.4306303, 50.0797668 ] ] } },
{ "type": "Feature", "properties": { "full_id": "w566445815", "osm_id": "566445815", "osm_type": "way", "electrified": "rail", "frequency": "0", "gauge": "1435", "layer": "-3", "maxspeed": "60", "oneway": "yes", "railway": "subway", "railway:track_ref": "", "service": "", "tunnel": "yes", "voltage": "750", "colour": "red", "level": "", "name": "Metro C", "name:be": "лінія Ц", "name:de": "U-Bahn C", "name:en": "Subway C", "name:ru": "Линия Ц", "operator": "cz:DPP", "passenger_lines": "", "bridge": "", "bridge:structure": "", "covered": "", "location": "", "usage": "", "note:cs": "", "railway:preferred_direction": "", "ref": "", "wikidata": "", "wikipedia": "", "name:cs": "", "incline": "" }, "geometry": { "type": "LineString", "coordinates": [ [ 14.5281213, 50.0310332 ], [ 14.5263262, 50.0308122 ] ] } },
{ "type": "Feature", "properties": { "full_id": "w668560911", "osm_id": "668560911", "osm_type": "way", "electrified": "rail", "frequency": "0", "gauge": "1435", "layer": "-2", "maxspeed": "", "oneway": "yes", "railway": "subway", "railway:track_ref": "", "service": "", "tunnel": "yes", "voltage": "750", "colour": "red", "level": "-2", "name": "Metro C", "name:be": "лінія Ц", "name:de": "U-Bahn C", "name:en": "Subway C", "name:ru": "Линия Ц", "operator": "cz:DPP", "passenger_lines": "", "bridge": "", "bridge:structure": "", "covered": "", "location": "", "usage": "", "note:cs": "", "railway:preferred_direction": "", "ref": "", "wikidata": "", "wikipedia": "", "name:cs": "", "incline": "" }, "geometry": { "type": "LineString", "coordinates": [ [ 14.4306486, 50.0728747 ], [ 14.4304791, 50.073863 ] ] } },
{ "type": "Feature", "properties": { "full_id": "w566445814", "osm_id": "566445814", "osm_type": "way", "electrified": "rail", "frequency": "0", "gauge": "1435", "layer": "-2", "maxspeed": "", "oneway": "yes", "railway": "subway", "railway:track_ref": "", "service": "", "tunnel": "yes", "voltage": "750", "colour": "red", "level": "", "name": "Metro C", "name:be": "лінія Ц", "name:de": "U-Bahn C", "name:en": "Subway C", "name:ru": "Линия Ц", "operator": "cz:DPP", "passenger_lines": "", "bridge": "", "bridge:structure": "", "covered": "", "location": "", "usage": "", "note:cs": "", "railway:preferred_direction": "", "ref": "", "wikidata": "", "wikipedia": "", "name:cs": "", "incline": "" }, "geometry": { "type": "LineString", "coordinates": [ [ 14.5098797, 50.0279415 ], [ 14.5115814, 50.0281205 ], [ 14.513806, 50.0283573 ], [ 14.5214047, 50.0298282 ], [ 14.5246379, 50.0304124 ], [ 14.5263569, 50.0306882 ] ] } },
{ "type": "Feature", "properties": { "full_id": "w668560910", "osm_id": "668560910", "osm_type": "way", "electrified": "rail", "frequency": "0", "gauge": "1435", "layer": "-2", "maxspeed": "", "oneway": "yes", "railway": "subway", "railway:track_ref": "", "service": "", "tunnel": "yes", "voltage": "750", "colour": "red", "level": "-2", "name": "Metro C", "name:be": "лінія Ц", "name:de": "U-Bahn C", "name:en": "Subway C", "name:ru": "Линия Ц", "operator": "cz:DPP", "passenger_lines": "", "bridge": "", "bridge:structure": "", "covered": "", "location": "", "usage": "", "note:cs": "", "railway:preferred_direction": "", "ref": "", "wikidata": "", "wikipedia": "", "name:cs": "", "incline": "" }, "geometry": { "type": "LineString", "coordinates": [ [ 14.430711, 50.0724668 ], [ 14.4306486, 50.0728747 ] ] } },
{ "type": "Feature", "properties": { "full_id": "w566445813", "osm_id": "566445813", "osm_type": "way", "electrified": "rail", "frequency": "0", "gauge": "1435", "layer": "-2", "maxspeed": "60", "oneway": "yes", "railway": "subway", "railway:track_ref": "", "service": "", "tunnel": "yes", "voltage": "750", "colour": "red", "level": "", "name": "Metro C", "name:be": "лінія Ц", "name:de": "U-Bahn C", "name:en": "Subway C", "name:ru": "Линия Ц", "operator": "cz:DPP", "passenger_lines": "", "bridge": "", "bridge:structure": "", "covered": "", "location": "", "usage": "", "note:cs": "", "railway:preferred_direction": "", "ref": "", "wikidata": "", "wikipedia": "", "name:cs": "", "incline": "" }, "geometry": { "type": "LineString", "coordinates": [ [ 14.5082796, 50.0277473 ], [ 14.5098797, 50.0279415 ] ] } },
{ "type": "Feature", "properties": { "full_id": "w668566839", "osm_id": "668566839", "osm_type": "way", "electrified": "rail", "frequency": "0", "gauge": "1435", "layer": "-2", "maxspeed": "", "oneway": "yes", "railway": "subway", "railway:track_ref": "", "service": "", "tunnel": "yes", "voltage": "750", "colour": "red", "level": "-2", "name": "Metro C", "name:be": "лінія Ц", "name:de": "U-Bahn C", "name:en": "Subway C", "name:ru": "Линия Ц", "operator": "cz:DPP", "passenger_lines": "", "bridge": "", "bridge:structure": "", "covered": "", "location": "", "usage": "", "note:cs": "", "railway:preferred_direction": "", "ref": "", "wikidata": "", "wikipedia": "", "name:cs": "", "incline": "" }, "geometry": { "type": "LineString", "coordinates": [ [ 14.4302957, 50.0738711 ], [ 14.4302993, 50.0738495 ], [ 14.4304334, 50.0730222 ] ] } },
{ "type": "Feature", "properties": { "full_id": "w566456662", "osm_id": "566456662", "osm_type": "way", "electrified": "rail", "frequency": "0", "gauge": "1435", "layer": "-2", "maxspeed": "60", "oneway": "yes", "railway": "subway", "railway:track_ref": "", "service": "", "tunnel": "yes", "voltage": "750", "colour": "red", "level": "-2", "name": "Metro C", "name:be": "лінія Ц", "name:de": "U-Bahn C", "name:en": "Subway C", "name:ru": "Линия Ц", "operator": "cz:DPP", "passenger_lines": "", "bridge": "", "bridge:structure": "", "covered": "", "location": "", "usage": "", "note:cs": "", "railway:preferred_direction": "", "ref": "", "wikidata": "", "wikipedia": "", "name:cs": "", "incline": "" }, "geometry": { "type": "LineString", "coordinates": [ [ 14.5163989, 50.1242203 ], [ 14.516428, 50.1247869 ], [ 14.5164478, 50.1251735 ] ] } },
{ "type": "Feature", "properties": { "full_id": "w668566838", "osm_id": "668566838", "osm_type": "way", "electrified": "rail", "frequency": "0", "gauge": "1435", "layer": "-2", "maxspeed": "", "oneway": "yes", "railway": "subway", "railway:track_ref": "", "service": "", "tunnel": "yes", "voltage": "750", "colour": "red", "level": "-2", "name": "Metro C", "name:be": "лінія Ц", "name:de": "U-Bahn C", "name:en": "Subway C", "name:ru": "Линия Ц", "operator": "cz:DPP", "passenger_lines": "", "bridge": "", "bridge:structure": "", "covered": "", "location": "", "usage": "", "note:cs": "", "railway:preferred_direction": "", "ref": "", "wikidata": "", "wikipedia": "", "name:cs": "", "incline": "" }, "geometry": { "type": "LineString", "coordinates": [ [ 14.4302247, 50.0699619 ], [ 14.4302901, 50.0682498 ] ] } },
{ "type": "Feature", "properties": { "full_id": "w566456661", "osm_id": "566456661", "osm_type": "way", "electrified": "rail", "frequency": "0", "gauge": "1435", "layer": "-2", "maxspeed": "40", "oneway": "yes", "railway": "subway", "railway:track_ref": "", "service": "siding", "tunnel": "yes", "voltage": "750", "colour": "red", "level": "-2", "name": "Metro C", "name:be": "лінія Ц", "name:de": "U-Bahn C", "name:en": "Subway C", "name:ru": "Линия Ц", "operator": "cz:DPP", "passenger_lines": "", "bridge": "", "bridge:structure": "", "covered": "", "location": "", "usage": "", "note:cs": "", "railway:preferred_direction": "", "ref": "", "wikidata": "", "wikipedia": "", "name:cs": "", "incline": "" }, "geometry": { "type": "LineString", "coordinates": [ [ 14.5164565, 50.1253294 ], [ 14.5164675, 50.1257183 ], [ 14.5165447, 50.1277696 ] ] } },
{ "type": "Feature", "properties": { "full_id": "w668566837", "osm_id": "668566837", "osm_type": "way", "electrified": "rail", "frequency": "0", "gauge": "1435", "layer": "-2", "maxspeed": "", "oneway": "yes", "railway": "subway", "railway:track_ref": "", "service": "", "tunnel": "yes", "voltage": "750", "colour": "red", "level": "-2", "name": "Metro C", "name:be": "лінія Ц", "name:de": "U-Bahn C", "name:en": "Subway C", "name:ru": "Линия Ц", "operator": "cz:DPP", "passenger_lines": "", "bridge": "", "bridge:structure": "", "covered": "", "location": "", "usage": "", "note:cs": "", "railway:preferred_direction": "", "ref": "", "wikidata": "", "wikipedia": "", "name:cs": "", "incline": "" }, "geometry": { "type": "LineString", "coordinates": [ [ 14.4302991, 50.0707504 ], [ 14.4302762, 50.0706433 ], [ 14.4302573, 50.0705359 ], [ 14.4302424, 50.0704283 ], [ 14.4302281, 50.070273 ], [ 14.4302222, 50.0701175 ], [ 14.4302247, 50.0699619 ] ] } },
{ "type": "Feature", "properties": { "full_id": "w566456660", "osm_id": "566456660", "osm_type": "way", "electrified": "rail", "frequency": "0", "gauge": "1435", "layer": "-3", "maxspeed": "60", "oneway": "yes", "railway": "subway", "railway:track_ref": "", "service": "", "tunnel": "yes", "voltage": "750", "colour": "red", "level": "-4", "name": "Metro C", "name:be": "лінія Ц", "name:de": "U-Bahn C", "name:en": "Subway C", "name:ru": "Линия Ц", "operator": "cz:DPP", "passenger_lines": "2", "bridge": "", "bridge:structure": "", "covered": "", "location": "", "usage": "", "note:cs": "", "railway:preferred_direction": "", "ref": "", "wikidata": "", "wikipedia": "", "name:cs": "", "incline": "" }, "geometry": { "type": "LineString", "coordinates": [ [ 14.5160073, 50.1251705 ], [ 14.5159736, 50.1241997 ] ] } },
{ "type": "Feature", "properties": { "full_id": "w668566836", "osm_id": "668566836", "osm_type": "way", "electrified": "rail", "frequency": "0", "gauge": "1435", "layer": "-2", "maxspeed": "", "oneway": "yes", "railway": "subway", "railway:track_ref": "", "service": "", "tunnel": "yes", "voltage": "750", "colour": "red", "level": "-2", "name": "Metro C", "name:be": "лінія Ц", "name:de": "U-Bahn C", "name:en": "Subway C", "name:ru": "Линия Ц", "operator": "cz:DPP", "passenger_lines": "", "bridge": "", "bridge:structure": "", "covered": "", "location": "", "usage": "", "note:cs": "", "railway:preferred_direction": "", "ref": "", "wikidata": "", "wikipedia": "", "name:cs": "", "incline": "" }, "geometry": { "type": "LineString", "coordinates": [ [ 14.430478, 50.0713773 ], [ 14.4302991, 50.0707504 ] ] } },
{ "type": "Feature", "properties": { "full_id": "w566450044", "osm_id": "566450044", "osm_type": "way", "electrified": "rail", "frequency": "0", "gauge": "1435", "layer": "-2", "maxspeed": "", "oneway": "yes", "railway": "subway", "railway:track_ref": "", "service": "", "tunnel": "yes", "voltage": "750", "colour": "red", "level": "", "name": "Metro C", "name:be": "лінія Ц", "name:de": "U-Bahn C", "name:en": "Subway C", "name:ru": "Линия Ц", "operator": "cz:DPP", "passenger_lines": "", "bridge": "", "bridge:structure": "", "covered": "", "location": "", "usage": "", "note:cs": "", "railway:preferred_direction": "", "ref": "", "wikidata": "", "wikipedia": "", "name:cs": "", "incline": "" }, "geometry": { "type": "LineString", "coordinates": [ [ 14.4423781, 50.0483679 ], [ 14.4460881, 50.0462146 ], [ 14.4472951, 50.0452277 ], [ 14.4479823, 50.0448129 ], [ 14.448196, 50.0446829 ] ] } },
{ "type": "Feature", "properties": { "full_id": "w668365018", "osm_id": "668365018", "osm_type": "way", "electrified": "rail", "frequency": "0", "gauge": "1435", "layer": "-2", "maxspeed": "", "oneway": "yes", "railway": "subway", "railway:track_ref": "", "service": "", "tunnel": "yes", "voltage": "750", "colour": "red", "level": "", "name": "Metro C", "name:be": "лінія Ц", "name:de": "U-Bahn C", "name:en": "Subway C", "name:ru": "Линия Ц", "operator": "cz:DPP", "passenger_lines": "", "bridge": "", "bridge:structure": "", "covered": "", "location": "", "usage": "", "note:cs": "", "railway:preferred_direction": "", "ref": "", "wikidata": "", "wikipedia": "", "name:cs": "", "incline": "" }, "geometry": { "type": "LineString", "coordinates": [ [ 14.4315918, 50.0579671 ], [ 14.4314235, 50.0580765 ], [ 14.4312641, 50.0581914 ], [ 14.4311141, 50.0583114 ], [ 14.430974, 50.0584362 ], [ 14.430844, 50.0585655 ], [ 14.4307245, 50.0586988 ], [ 14.4306159, 50.0588359 ], [ 14.4305184, 50.0589765 ], [ 14.4304322, 50.05912 ], [ 14.4303539, 50.0592744 ], [ 14.4302888, 50.0594312 ], [ 14.430237, 50.0595901 ], [ 14.4301986, 50.0597505 ], [ 14.4301739, 50.059912 ], [ 14.4301629, 50.0600742 ], [ 14.4301655, 50.0602365 ], [ 14.4301819, 50.0603984 ], [ 14.4302102, 50.0605594 ] ] } },
{ "type": "Feature", "properties": { "full_id": "w566445808", "osm_id": "566445808", "osm_type": "way", "electrified": "rail", "frequency": "0", "gauge": "1435", "layer": "-3", "maxspeed": "", "oneway": "yes", "railway": "subway", "railway:track_ref": "", "service": "", "tunnel": "yes", "voltage": "750", "colour": "red", "level": "", "name": "Metro C", "name:be": "лінія Ц", "name:de": "U-Bahn C", "name:en": "Subway C", "name:ru": "Линия Ц", "operator": "cz:DPP", "passenger_lines": "", "bridge": "", "bridge:structure": "", "covered": "", "location": "", "usage": "", "note:cs": "", "railway:preferred_direction": "", "ref": "", "wikidata": "", "wikipedia": "", "name:cs": "", "incline": "" }, "geometry": { "type": "LineString", "coordinates": [ [ 14.4764198, 50.0378081 ], [ 14.4750622, 50.0382373 ], [ 14.4714943, 50.0393793 ], [ 14.4698492, 50.0399195 ], [ 14.4685187, 50.0403626 ] ] } },
{ "type": "Feature", "properties": { "full_id": "w668365017", "osm_id": "668365017", "osm_type": "way", "electrified": "rail", "frequency": "0", "gauge": "1435", "layer": "-1", "maxspeed": "", "oneway": "yes", "railway": "subway", "railway:track_ref": "", "service": "", "tunnel": "yes", "voltage": "750", "colour": "red", "level": "", "name": "Metro C", "name:be": "лінія Ц", "name:de": "U-Bahn C", "name:en": "Subway C", "name:ru": "Линия Ц", "operator": "cz:DPP", "passenger_lines": "", "bridge": "", "bridge:structure": "", "covered": "", "location": "", "usage": "", "note:cs": "", "railway:preferred_direction": "", "ref": "", "wikidata": "", "wikipedia": "", "name:cs": "", "incline": "" }, "geometry": { "type": "LineString", "coordinates": [ [ 14.4302102, 50.0605594 ], [ 14.4304713, 50.0618011 ] ] } },
{ "type": "Feature", "properties": { "full_id": "w566445807", "osm_id": "566445807", "osm_type": "way", "electrified": "rail", "frequency": "0", "gauge": "1435", "layer": "-3", "maxspeed": "60", "oneway": "yes", "railway": "subway", "railway:track_ref": "", "service": "", "tunnel": "yes", "voltage": "750", "colour": "red", "level": "", "name": "Metro C", "name:be": "лінія Ц", "name:de": "U-Bahn C", "name:en": "Subway C", "name:ru": "Линия Ц", "operator": "cz:DPP", "passenger_lines": "", "bridge": "", "bridge:structure": "", "covered": "", "location": "", "usage": "", "note:cs": "", "railway:preferred_direction": "", "ref": "", "wikidata": "", "wikipedia": "", "name:cs": "", "incline": "" }, "geometry": { "type": "LineString", "coordinates": [ [ 14.477709, 50.0373751 ], [ 14.4764198, 50.0378081 ] ] } },
{ "type": "Feature", "properties": { "full_id": "w668365016", "osm_id": "668365016", "osm_type": "way", "electrified": "rail", "frequency": "0", "gauge": "1435", "layer": "-1", "maxspeed": "", "oneway": "yes", "railway": "subway", "railway:track_ref": "", "service": "", "tunnel": "yes", "voltage": "750", "colour": "red", "level": "", "name": "Metro C", "name:be": "лінія Ц", "name:de": "U-Bahn C", "name:en": "Subway C", "name:ru": "Линия Ц", "operator": "cz:DPP", "passenger_lines": "", "bridge": "", "bridge:structure": "", "covered": "", "location": "", "usage": "", "note:cs": "", "railway:preferred_direction": "", "ref": "", "wikidata": "", "wikipedia": "", "name:cs": "", "incline": "" }, "geometry": { "type": "LineString", "coordinates": [ [ 14.4304713, 50.0618011 ], [ 14.4304978, 50.061939 ], [ 14.4305238, 50.0620773 ], [ 14.4305451, 50.062216 ], [ 14.4305592, 50.0623461 ], [ 14.4305676, 50.0624764 ], [ 14.430571, 50.0626068 ] ] } },
{ "type": "Feature", "properties": { "full_id": "w668365014", "osm_id": "668365014", "osm_type": "way", "electrified": "rail", "frequency": "0", "gauge": "1435", "layer": "-1", "maxspeed": "", "oneway": "yes", "railway": "subway", "railway:track_ref": "", "service": "", "tunnel": "yes", "voltage": "750", "colour": "red", "level": "", "name": "Metro C", "name:be": "лінія Ц", "name:de": "U-Bahn C", "name:en": "Subway C", "name:ru": "Линия Ц", "operator": "cz:DPP", "passenger_lines": "", "bridge": "", "bridge:structure": "", "covered": "", "location": "", "usage": "", "note:cs": "", "railway:preferred_direction": "", "ref": "", "wikidata": "", "wikipedia": "", "name:cs": "", "incline": "" }, "geometry": { "type": "LineString", "coordinates": [ [ 14.4304124, 50.0619405 ], [ 14.4300283, 50.060574 ] ] } },
{ "type": "Feature", "properties": { "full_id": "w566445806", "osm_id": "566445806", "osm_type": "way", "electrified": "rail", "frequency": "0", "gauge": "1435", "layer": "-3", "maxspeed": "60", "oneway": "yes", "railway": "subway", "railway:track_ref": "", "service": "", "tunnel": "yes", "voltage": "750", "colour": "red", "level": "", "name": "Metro C", "name:be": "лінія Ц", "name:de": "U-Bahn C", "name:en": "Subway C", "name:ru": "Линия Ц", "operator": "cz:DPP", "passenger_lines": "", "bridge": "", "bridge:structure": "", "covered": "", "location": "", "usage": "", "note:cs": "", "railway:preferred_direction": "", "ref": "", "wikidata": "", "wikipedia": "", "name:cs": "", "incline": "" }, "geometry": { "type": "LineString", "coordinates": [ [ 14.5098446, 50.0279963 ], [ 14.5082608, 50.0278174 ] ] } },
{ "type": "Feature", "properties": { "full_id": "w668560909", "osm_id": "668560909", "osm_type": "way", "electrified": "rail", "frequency": "0", "gauge": "1435", "layer": "-2", "maxspeed": "60", "oneway": "yes", "railway": "subway", "railway:track_ref": "", "service": "", "tunnel": "yes", "voltage": "750", "colour": "red", "level": "-2", "name": "Metro C", "name:be": "лінія Ц", "name:de": "U-Bahn C", "name:en": "Subway C", "name:ru": "Линия Ц", "operator": "cz:DPP", "passenger_lines": "", "bridge": "", "bridge:structure": "", "covered": "", "location": "", "usage": "", "note:cs": "", "railway:preferred_direction": "", "ref": "", "wikidata": "", "wikipedia": "", "name:cs": "Metro C", "incline": "" }, "geometry": { "type": "LineString", "coordinates": [ [ 14.4304791, 50.073863 ], [ 14.4303244, 50.0747946 ] ] } },
{ "type": "Feature", "properties": { "full_id": "w566216988", "osm_id": "566216988", "osm_type": "way", "electrified": "rail", "frequency": "0", "gauge": "1435", "layer": "-2", "maxspeed": "40", "oneway": "yes", "railway": "subway", "railway:track_ref": "", "service": "siding", "tunnel": "yes", "voltage": "750", "colour": "", "level": "", "name": "Metro C", "name:be": "", "name:de": "U-Bahn C", "name:en": "", "name:ru": "", "operator": "", "passenger_lines": "", "bridge": "", "bridge:structure": "", "covered": "", "location": "", "usage": "", "note:cs": "", "railway:preferred_direction": "", "ref": "", "wikidata": "", "wikipedia": "", "name:cs": "", "incline": "" }, "geometry": { "type": "LineString", "coordinates": [ [ 14.5281429, 50.0309308 ], [ 14.5283822, 50.0309571 ] ] } },
{ "type": "Feature", "properties": { "full_id": "w668365021", "osm_id": "668365021", "osm_type": "way", "electrified": "rail", "frequency": "0", "gauge": "1435", "layer": "-1", "maxspeed": "60", "oneway": "yes", "railway": "subway", "railway:track_ref": "", "service": "", "tunnel": "yes", "voltage": "750", "colour": "red", "level": "", "name": "Metro C", "name:be": "лінія Ц", "name:de": "U-Bahn C", "name:en": "Subway C", "name:ru": "Линия Ц", "operator": "cz:DPP", "passenger_lines": "", "bridge": "", "bridge:structure": "", "covered": "", "location": "", "usage": "", "note:cs": "", "railway:preferred_direction": "", "ref": "", "wikidata": "", "wikipedia": "", "name:cs": "", "incline": "" }, "geometry": { "type": "LineString", "coordinates": [ [ 14.4305063, 50.0626814 ], [ 14.4305091, 50.0626059 ] ] } },
{ "type": "Feature", "properties": { "full_id": "w566445812", "osm_id": "566445812", "osm_type": "way", "electrified": "rail", "frequency": "0", "gauge": "1435", "layer": "-3", "maxspeed": "", "oneway": "yes", "railway": "subway", "railway:track_ref": "", "service": "", "tunnel": "yes", "voltage": "750", "colour": "red", "level": "", "name": "Metro C", "name:be": "лінія Ц", "name:de": "U-Bahn C", "name:en": "Subway C", "name:ru": "Линия Ц", "operator": "cz:DPP", "passenger_lines": "", "bridge": "", "bridge:structure": "", "covered": "", "location": "", "usage": "", "note:cs": "", "railway:preferred_direction": "", "ref": "", "wikidata": "", "wikipedia": "", "name:cs": "", "incline": "" }, "geometry": { "type": "LineString", "coordinates": [ [ 14.5263262, 50.0308122 ], [ 14.5245892, 50.0305224 ], [ 14.5212803, 50.0299249 ], [ 14.5137627, 50.0284524 ], [ 14.5115558, 50.0282149 ], [ 14.5098446, 50.0279963 ] ] } },
{ "type": "Feature", "properties": { "full_id": "w668365020", "osm_id": "668365020", "osm_type": "way", "electrified": "rail", "frequency": "0", "gauge": "1435", "layer": "-1", "maxspeed": "60", "oneway": "yes", "railway": "subway", "railway:track_ref": "", "service": "", "tunnel": "yes", "voltage": "750", "colour": "red", "level": "-1", "name": "Metro C", "name:be": "лінія Ц", "name:de": "U-Bahn C", "name:en": "Subway C", "name:ru": "Линия Ц", "operator": "cz:DPP", "passenger_lines": "", "bridge": "", "bridge:structure": "", "covered": "", "location": "", "usage": "", "note:cs": "", "railway:preferred_direction": "", "ref": "", "wikidata": "", "wikipedia": "", "name:cs": "", "incline": "" }, "geometry": { "type": "LineString", "coordinates": [ [ 14.430571, 50.0626068 ], [ 14.4305681, 50.0626825 ], [ 14.4305411, 50.0633856 ] ] } },
{ "type": "Feature", "properties": { "full_id": "w566445811", "osm_id": "566445811", "osm_type": "way", "electrified": "rail", "frequency": "0", "gauge": "1435", "layer": "-2", "maxspeed": "", "oneway": "yes", "railway": "subway", "railway:track_ref": "", "service": "", "tunnel": "yes", "voltage": "750", "colour": "red", "level": "", "name": "Metro C", "name:be": "лінія Ц", "name:de": "U-Bahn C", "name:en": "Subway C", "name:ru": "Линия Ц", "operator": "cz:DPP", "passenger_lines": "", "bridge": "", "bridge:structure": "", "covered": "", "location": "", "usage": "", "note:cs": "", "railway:preferred_direction": "", "ref": "", "wikidata": "", "wikipedia": "", "name:cs": "", "incline": "" }, "geometry": { "type": "LineString", "coordinates": [ [ 14.491612, 50.0312921 ], [ 14.4928402, 50.0306349 ], [ 14.4929953, 50.0305561 ], [ 14.4939371, 50.0301156 ], [ 14.4950486, 50.0297633 ], [ 14.4993787, 50.0284096 ], [ 14.5014139, 50.027779 ], [ 14.5025974, 50.0275009 ], [ 14.5035115, 50.0273835 ], [ 14.5042777, 50.0273455 ], [ 14.5051963, 50.0273755 ], [ 14.5066893, 50.0275598 ], [ 14.5082796, 50.0277473 ] ] } },
{ "type": "Feature", "properties": { "full_id": "w668365019", "osm_id": "668365019", "osm_type": "way", "electrified": "rail", "frequency": "0", "gauge": "1435", "layer": "-2", "maxspeed": "", "oneway": "yes", "railway": "subway", "railway:track_ref": "", "service": "", "tunnel": "yes", "voltage": "750", "colour": "red", "level": "", "name": "Metro C", "name:be": "лінія Ц", "name:de": "U-Bahn C", "name:en": "Subway C", "name:ru": "Линия Ц", "operator": "cz:DPP", "passenger_lines": "", "bridge": "", "bridge:structure": "", "covered": "", "location": "", "usage": "", "note:cs": "", "railway:preferred_direction": "", "ref": "", "wikidata": "", "wikipedia": "", "name:cs": "", "incline": "" }, "geometry": { "type": "LineString", "coordinates": [ [ 14.4328636, 50.0572053 ], [ 14.4328496, 50.0572137 ], [ 14.4320927, 50.0576671 ], [ 14.4315918, 50.0579671 ] ] } },
{ "type": "Feature", "properties": { "full_id": "w566445810", "osm_id": "566445810", "osm_type": "way", "electrified": "rail", "frequency": "0", "gauge": "1435", "layer": "-3", "maxspeed": "", "oneway": "yes", "railway": "subway", "railway:track_ref": "", "service": "", "tunnel": "yes", "voltage": "750", "colour": "red", "level": "", "name": "Metro C", "name:be": "лінія Ц", "name:de": "U-Bahn C", "name:en": "Subway C", "name:ru": "Линия Ц", "operator": "cz:DPP", "passenger_lines": "", "bridge": "", "bridge:structure": "", "covered": "", "location": "", "usage": "", "note:cs": "", "railway:preferred_direction": "", "ref": "", "wikidata": "", "wikipedia": "", "name:cs": "", "incline": "" }, "geometry": { "type": "LineString", "coordinates": [ [ 14.4905805, 50.0319217 ], [ 14.4899546, 50.0322283 ], [ 14.4871672, 50.0335934 ], [ 14.4834345, 50.0354389 ], [ 14.4818213, 50.0360137 ], [ 14.4784246, 50.0371382 ], [ 14.477709, 50.0373751 ] ] } },
{ "type": "Feature", "properties": { "full_id": "w668348859", "osm_id": "668348859", "osm_type": "way", "electrified": "rail", "frequency": "0", "gauge": "1435", "layer": "-2", "maxspeed": "", "oneway": "yes", "railway": "subway", "railway:track_ref": "", "service": "", "tunnel": "yes", "voltage": "750", "colour": "red", "level": "", "name": "Metro C", "name:be": "лінія Ц", "name:de": "U-Bahn C", "name:en": "Subway C", "name:ru": "Линия Ц", "operator": "cz:DPP", "passenger_lines": "", "bridge": "", "bridge:structure": "", "covered": "", "location": "", "usage": "", "note:cs": "", "railway:preferred_direction": "", "ref": "", "wikidata": "", "wikipedia": "", "name:cs": "", "incline": "" }, "geometry": { "type": "LineString", "coordinates": [ [ 14.4394383, 50.0514545 ], [ 14.4384469, 50.0527439 ] ] } },
{ "type": "Feature", "properties": { "full_id": "w566445809", "osm_id": "566445809", "osm_type": "way", "electrified": "rail", "frequency": "0", "gauge": "1435", "layer": "-2", "maxspeed": "60", "oneway": "yes", "railway": "subway", "railway:track_ref": "", "service": "", "tunnel": "yes", "voltage": "750", "colour": "red", "level": "", "name": "Metro C", "name:be": "лінія Ц", "name:de": "U-Bahn C", "name:en": "Subway C", "name:ru": "Линия Ц", "operator": "cz:DPP", "passenger_lines": "", "bridge": "", "bridge:structure": "", "covered": "", "location": "", "usage": "", "note:cs": "", "railway:preferred_direction": "", "ref": "", "wikidata": "", "wikipedia": "", "name:cs": "", "incline": "" }, "geometry": { "type": "LineString", "coordinates": [ [ 14.4904864, 50.0318844 ], [ 14.491612, 50.0312921 ] ] } },
{ "type": "Feature", "properties": { "full_id": "w668348858", "osm_id": "668348858", "osm_type": "way", "electrified": "rail", "frequency": "0", "gauge": "1435", "layer": "-2", "maxspeed": "", "oneway": "yes", "railway": "subway", "railway:track_ref": "", "service": "", "tunnel": "yes", "voltage": "750", "colour": "red", "level": "-2", "name": "Metro C", "name:be": "лінія Ц", "name:de": "U-Bahn C", "name:en": "Subway C", "name:ru": "Линия Ц", "operator": "cz:DPP", "passenger_lines": "", "bridge": "", "bridge:structure": "", "covered": "", "location": "", "usage": "", "note:cs": "", "railway:preferred_direction": "", "ref": "", "wikidata": "", "wikipedia": "", "name:cs": "", "incline": "" }, "geometry": { "type": "LineString", "coordinates": [ [ 14.4377304, 50.0535228 ], [ 14.4356233, 50.0554643 ] ] } },
{ "type": "Feature", "properties": { "full_id": "w566157411", "osm_id": "566157411", "osm_type": "way", "electrified": "rail", "frequency": "0", "gauge": "1435", "layer": "-2", "maxspeed": "", "oneway": "yes", "railway": "subway", "railway:track_ref": "", "service": "", "tunnel": "yes", "voltage": "750", "colour": "red", "level": "-2", "name": "Metro C", "name:be": "лінія Ц", "name:de": "U-Bahn C", "name:en": "Subway C", "name:ru": "Линия Ц", "operator": "cz:DPP", "passenger_lines": "", "bridge": "", "bridge:structure": "", "covered": "", "location": "", "usage": "", "note:cs": "", "railway:preferred_direction": "", "ref": "", "wikidata": "", "wikipedia": "", "name:cs": "", "incline": "" }, "geometry": { "type": "LineString", "coordinates": [ [ 14.4303541, 50.0682518 ], [ 14.430305, 50.0695223 ] ] } },
{ "type": "Feature", "properties": { "full_id": "w668348857", "osm_id": "668348857", "osm_type": "way", "electrified": "rail", "frequency": "0", "gauge": "1435", "layer": "-2", "maxspeed": "", "oneway": "yes", "railway": "subway", "railway:track_ref": "", "service": "", "tunnel": "yes", "voltage": "750", "colour": "red", "level": "-2", "name": "Metro C", "name:be": "лінія Ц", "name:de": "U-Bahn C", "name:en": "Subway C", "name:ru": "Линия Ц", "operator": "cz:DPP", "passenger_lines": "", "bridge": "", "bridge:structure": "", "covered": "", "location": "", "usage": "", "note:cs": "", "railway:preferred_direction": "", "ref": "", "wikidata": "", "wikipedia": "", "name:cs": "", "incline": "" }, "geometry": { "type": "LineString", "coordinates": [ [ 14.4384469, 50.0527439 ], [ 14.4383388, 50.0528781 ], [ 14.4382259, 50.0530108 ], [ 14.4381085, 50.0531418 ], [ 14.4379869, 50.0532706 ], [ 14.4378608, 50.0533976 ], [ 14.4377304, 50.0535228 ] ] } },
{ "type": "Feature", "properties": { "full_id": "w566157410", "osm_id": "566157410", "osm_type": "way", "electrified": "rail", "frequency": "0", "gauge": "1435", "layer": "-2", "maxspeed": "", "oneway": "yes", "railway": "subway", "railway:track_ref": "", "service": "", "tunnel": "yes", "voltage": "750", "colour": "red", "level": "-2", "name": "Metro C", "name:be": "лінія Ц", "name:de": "U-Bahn C", "name:en": "Subway C", "name:ru": "Линия Ц", "operator": "cz:DPP", "passenger_lines": "", "bridge": "", "bridge:structure": "", "covered": "", "location": "", "usage": "", "note:cs": "", "railway:preferred_direction": "", "ref": "", "wikidata": "", "wikipedia": "", "name:cs": "", "incline": "" }, "geometry": { "type": "LineString", "coordinates": [ [ 14.43465, 50.0841768 ], [ 14.4348532, 50.0844171 ], [ 14.4351193, 50.0846992 ] ] } },
{ "type": "Feature", "properties": { "full_id": "w668348855", "osm_id": "668348855", "osm_type": "way", "electrified": "rail", "frequency": "0", "gauge": "1435", "layer": "-2", "maxspeed": "", "oneway": "yes", "railway": "subway", "railway:track_ref": "", "service": "", "tunnel": "yes", "voltage": "750", "colour": "red", "level": "", "name": "Metro C", "name:be": "лінія Ц", "name:de": "U-Bahn C", "name:en": "Subway C", "name:ru": "Линия Ц", "operator": "cz:DPP", "passenger_lines": "", "bridge": "", "bridge:structure": "", "covered": "", "location": "", "usage": "", "note:cs": "", "railway:preferred_direction": "", "ref": "", "wikidata": "", "wikipedia": "", "name:cs": "", "incline": "" }, "geometry": { "type": "LineString", "coordinates": [ [ 14.4354727, 50.0553976 ], [ 14.437584, 50.0534521 ] ] } },
{ "type": "Feature", "properties": { "full_id": "w566157409", "osm_id": "566157409", "osm_type": "way", "electrified": "rail", "frequency": "0", "gauge": "1435", "layer": "-2", "maxspeed": "", "oneway": "yes", "railway": "subway", "railway:track_ref": "", "service": "", "tunnel": "yes", "voltage": "750", "colour": "red", "level": "-2", "name": "Metro C", "name:be": "лінія Ц", "name:de": "U-Bahn C", "name:en": "Subway C", "name:ru": "Линия Ц", "operator": "cz:DPP", "passenger_lines": "", "bridge": "", "bridge:structure": "", "covered": "", "location": "", "usage": "", "note:cs": "", "railway:preferred_direction": "", "ref": "", "wikidata": "", "wikipedia": "", "name:cs": "", "incline": "" }, "geometry": { "type": "LineString", "coordinates": [ [ 14.4344555, 50.0839029 ], [ 14.43465, 50.0841768 ] ] } },
{ "type": "Feature", "properties": { "full_id": "w668365013", "osm_id": "668365013", "osm_type": "way", "electrified": "rail", "frequency": "0", "gauge": "1435", "layer": "-1", "maxspeed": "", "oneway": "yes", "railway": "subway", "railway:track_ref": "", "service": "", "tunnel": "yes", "voltage": "750", "colour": "red", "level": "", "name": "Metro C", "name:be": "лінія Ц", "name:de": "U-Bahn C", "name:en": "Subway C", "name:ru": "Линия Ц", "operator": "cz:DPP", "passenger_lines": "", "bridge": "", "bridge:structure": "", "covered": "", "location": "", "usage": "", "note:cs": "", "railway:preferred_direction": "", "ref": "", "wikidata": "", "wikipedia": "", "name:cs": "", "incline": "" }, "geometry": { "type": "LineString", "coordinates": [ [ 14.4305091, 50.0626059 ], [ 14.4305068, 50.0624997 ], [ 14.4304995, 50.0623936 ], [ 14.4304873, 50.0622877 ], [ 14.4304683, 50.0621715 ], [ 14.4304433, 50.0620557 ], [ 14.4304124, 50.0619405 ] ] } },
{ "type": "Feature", "properties": { "full_id": "w566157408", "osm_id": "566157408", "osm_type": "way", "electrified": "rail", "frequency": "0", "gauge": "1435", "layer": "-2", "maxspeed": "60", "oneway": "yes", "railway": "subway", "railway:track_ref": "", "service": "", "tunnel": "yes", "voltage": "750", "colour": "red", "level": "-2", "name": "Metro C", "name:be": "лінія Ц", "name:de": "U-Bahn C", "name:en": "Subway C", "name:ru": "Линия Ц", "operator": "cz:DPP", "passenger_lines": "", "bridge": "", "bridge:structure": "", "covered": "", "location": "", "usage": "", "note:cs": "", "railway:preferred_direction": "", "ref": "", "wikidata": "", "wikipedia": "", "name:cs": "", "incline": "" }, "geometry": { "type": "LineString", "coordinates": [ [ 14.4338467, 50.0830731 ], [ 14.4344555, 50.0839029 ] ] } },
{ "type": "Feature", "properties": { "full_id": "w668365012", "osm_id": "668365012", "osm_type": "way", "electrified": "rail", "frequency": "0", "gauge": "1435", "layer": "-2", "maxspeed": "", "oneway": "yes", "railway": "subway", "railway:track_ref": "", "service": "", "tunnel": "yes", "voltage": "750", "colour": "red", "level": "", "name": "Metro C", "name:be": "лінія Ц", "name:de": "U-Bahn C", "name:en": "Subway C", "name:ru": "Линия Ц", "operator": "cz:DPP", "passenger_lines": "", "bridge": "", "bridge:structure": "", "covered": "", "location": "", "usage": "", "note:cs": "", "railway:preferred_direction": "", "ref": "", "wikidata": "", "wikipedia": "", "name:cs": "", "incline": "" }, "geometry": { "type": "LineString", "coordinates": [ [ 14.4300283, 50.060574 ], [ 14.4299979, 50.0604078 ], [ 14.4299815, 50.0602407 ], [ 14.429979, 50.0600733 ], [ 14.4299905, 50.0599061 ], [ 14.430016, 50.0597395 ], [ 14.4300554, 50.059574 ], [ 14.4301085, 50.0594101 ], [ 14.4301753, 50.0592482 ], [ 14.4302555, 50.059089 ], [ 14.4303448, 50.058939 ], [ 14.4304459, 50.0587922 ], [ 14.4305588, 50.0586489 ], [ 14.4306829, 50.0585096 ], [ 14.4308181, 50.0583745 ], [ 14.4309639, 50.0582441 ], [ 14.4311199, 50.0581187 ], [ 14.4312858, 50.0579985 ], [ 14.4314611, 50.0578841 ] ] } },
{ "type": "Feature", "properties": { "full_id": "w566162015", "osm_id": "566162015", "osm_type": "way", "electrified": "rail", "frequency": "0", "gauge": "1435", "layer": "-3", "maxspeed": "", "oneway": "yes", "railway": "subway", "railway:track_ref": "", "service": "", "tunnel": "yes", "voltage": "750", "colour": "red", "level": "-4", "name": "Metro C", "name:be": "лінія Ц", "name:de": "U-Bahn C", "name:en": "Subway C", "name:ru": "Линия Ц", "operator": "cz:DPP", "passenger_lines": "2", "bridge": "", "bridge:structure": "", "covered": "", "location": "", "usage": "", "note:cs": "", "railway:preferred_direction": "", "ref": "", "wikidata": "", "wikipedia": "", "name:cs": "", "incline": "" }, "geometry": { "type": "LineString", "coordinates": [ [ 14.4372706, 50.0870467 ], [ 14.4369313, 50.0865397 ], [ 14.4364791, 50.0860464 ], [ 14.4354478, 50.0850914 ], [ 14.4352842, 50.0849468 ], [ 14.4350621, 50.0847193 ], [ 14.4348006, 50.0844448 ], [ 14.4345894, 50.08419 ], [ 14.4343912, 50.0839216 ] ] } },
{ "type": "Feature", "properties": { "full_id": "w668348861", "osm_id": "668348861", "osm_type": "way", "electrified": "rail", "frequency": "0", "gauge": "1435", "layer": "-2", "maxspeed": "", "oneway": "yes", "railway": "subway", "railway:track_ref": "", "service": "", "tunnel": "yes", "voltage": "750", "colour": "red", "level": "", "name": "Metro C", "name:be": "лінія Ц", "name:de": "U-Bahn C", "name:en": "Subway C", "name:ru": "Линия Ц", "operator": "cz:DPP", "passenger_lines": "", "bridge": "", "bridge:structure": "", "covered": "", "location": "", "usage": "", "note:cs": "", "railway:preferred_direction": "", "ref": "", "wikidata": "", "wikipedia": "", "name:cs": "", "incline": "" }, "geometry": { "type": "LineString", "coordinates": [ [ 14.4356233, 50.0554643 ], [ 14.4355318, 50.0555473 ], [ 14.4354352, 50.0556279 ], [ 14.4353338, 50.055706 ], [ 14.4352368, 50.0557753 ], [ 14.435136, 50.0558422 ], [ 14.4350315, 50.0559068 ] ] } },
{ "type": "Feature", "properties": { "full_id": "w566162014", "osm_id": "566162014", "osm_type": "way", "electrified": "rail", "frequency": "0", "gauge": "1435", "layer": "-3", "maxspeed": "60", "oneway": "yes", "railway": "subway", "railway:track_ref": "", "service": "", "tunnel": "yes", "voltage": "750", "colour": "red", "level": "-4", "name": "Metro C", "name:be": "лінія Ц", "name:de": "U-Bahn C", "name:en": "Subway C", "name:ru": "Линия Ц", "operator": "cz:DPP", "passenger_lines": "2", "bridge": "", "bridge:structure": "", "covered": "", "location": "", "usage": "", "note:cs": "", "railway:preferred_direction": "", "ref": "", "wikidata": "", "wikipedia": "", "name:cs": "", "incline": "" }, "geometry": { "type": "LineString", "coordinates": [ [ 14.4343912, 50.0839216 ], [ 14.4337756, 50.0830936 ] ] } },
{ "type": "Feature", "properties": { "full_id": "w668348860", "osm_id": "668348860", "osm_type": "way", "electrified": "rail", "frequency": "0", "gauge": "1435", "layer": "-2", "maxspeed": "", "oneway": "yes", "railway": "subway", "railway:track_ref": "", "service": "", "tunnel": "yes", "voltage": "750", "colour": "red", "level": "", "name": "Metro C", "name:be": "лінія Ц", "name:de": "U-Bahn C", "name:en": "Subway C", "name:ru": "Линия Ц", "operator": "cz:DPP", "passenger_lines": "", "bridge": "", "bridge:structure": "", "covered": "", "location": "", "usage": "", "note:cs": "", "railway:preferred_direction": "", "ref": "", "wikidata": "", "wikipedia": "", "name:cs": "", "incline": "" }, "geometry": { "type": "LineString", "coordinates": [ [ 14.4350315, 50.0559068 ], [ 14.4339077, 50.0565799 ] ] } },
{ "type": "Feature", "properties": { "full_id": "w566161417", "osm_id": "566161417", "osm_type": "way", "electrified": "rail", "frequency": "0", "gauge": "1435", "layer": "1", "maxspeed": "", "oneway": "yes", "railway": "subway", "railway:track_ref": "", "service": "", "tunnel": "", "voltage": "750", "colour": "red", "level": "", "name": "Metro C", "name:be": "лінія Ц", "name:de": "U-Bahn C", "name:en": "Subway C", "name:ru": "Линия Ц", "operator": "cz:DPP", "passenger_lines": "1", "bridge": "yes", "bridge:structure": "beam", "covered": "yes", "location": "", "usage": "", "note:cs": "tubus metra v mostovce", "railway:preferred_direction": "", "ref": "", "wikidata": "", "wikipedia": "", "name:cs": "", "incline": "" }, "geometry": { "type": "LineString", "coordinates": [ [ 14.4305328, 50.0636004 ], [ 14.4305327, 50.0636027 ], [ 14.4303664, 50.0679265 ], [ 14.4303541, 50.0682518 ] ] } },
{ "type": "Feature", "properties": { "full_id": "w668345928", "osm_id": "668345928", "osm_type": "way", "electrified": "rail", "frequency": "0", "gauge": "1435", "layer": "-2", "maxspeed": "", "oneway": "yes", "railway": "subway", "railway:track_ref": "", "service": "", "tunnel": "yes", "voltage": "750", "colour": "red", "level": "", "name": "Metro C", "name:be": "лінія Ц", "name:de": "U-Bahn C", "name:en": "Subway C", "name:ru": "Линия Ц", "operator": "cz:DPP", "passenger_lines": "", "bridge": "", "bridge:structure": "", "covered": "", "location": "", "usage": "", "note:cs": "", "railway:preferred_direction": "", "ref": "", "wikidata": "", "wikipedia": "", "name:cs": "", "incline": "" }, "geometry": { "type": "LineString", "coordinates": [ [ 14.4474345, 50.0453207 ], [ 14.4462222, 50.0463059 ] ] } },
{ "type": "Feature", "properties": { "full_id": "w566161416", "osm_id": "566161416", "osm_type": "way", "electrified": "rail", "frequency": "0", "gauge": "1435", "layer": "-1", "maxspeed": "60", "oneway": "yes", "railway": "subway", "railway:track_ref": "", "service": "", "tunnel": "yes", "voltage": "750", "colour": "red", "level": "-1", "name": "Metro C", "name:be": "лінія Ц", "name:de": "U-Bahn C", "name:en": "Subway C", "name:ru": "Линия Ц", "operator": "cz:DPP", "passenger_lines": "", "bridge": "", "bridge:structure": "", "covered": "", "location": "", "usage": "", "note:cs": "", "railway:preferred_direction": "", "ref": "", "wikidata": "", "wikipedia": "", "name:cs": "", "incline": "" }, "geometry": { "type": "LineString", "coordinates": [ [ 14.4304791, 50.0633846 ], [ 14.4305063, 50.0626814 ] ] } },
{ "type": "Feature", "properties": { "full_id": "w668345927", "osm_id": "668345927", "osm_type": "way", "electrified": "rail", "frequency": "0", "gauge": "1435", "layer": "-2", "maxspeed": "", "oneway": "yes", "railway": "subway", "railway:track_ref": "", "service": "", "tunnel": "yes", "voltage": "750", "colour": "red", "level": "", "name": "Metro C", "name:be": "лінія Ц", "name:de": "U-Bahn C", "name:en": "Subway C", "name:ru": "Линия Ц", "operator": "cz:DPP", "passenger_lines": "", "bridge": "", "bridge:structure": "", "covered": "", "location": "", "usage": "", "note:cs": "", "railway:preferred_direction": "", "ref": "", "wikidata": "", "wikipedia": "", "name:cs": "", "incline": "" }, "geometry": { "type": "LineString", "coordinates": [ [ 14.4462222, 50.0463059 ], [ 14.4424189, 50.0484658 ] ] } },
{ "type": "Feature", "properties": { "full_id": "w668345926", "osm_id": "668345926", "osm_type": "way", "electrified": "rail", "frequency": "0", "gauge": "1435", "layer": "-2", "maxspeed": "60", "oneway": "yes", "railway": "subway", "railway:track_ref": "", "service": "", "tunnel": "yes", "voltage": "750", "colour": "red", "level": "", "name": "Metro C", "name:be": "лінія Ц", "name:de": "U-Bahn C", "name:en": "Subway C", "name:ru": "Линия Ц", "operator": "cz:DPP", "passenger_lines": "", "bridge": "", "bridge:structure": "", "covered": "", "location": "", "usage": "", "note:cs": "", "railway:preferred_direction": "", "ref": "", "wikidata": "", "wikipedia": "", "name:cs": "", "incline": "" }, "geometry": { "type": "LineString", "coordinates": [ [ 14.4392636, 50.0514185 ], [ 14.4398992, 50.0505978 ] ] } },
{ "type": "Feature", "properties": { "full_id": "w4190876", "osm_id": "4190876", "osm_type": "way", "electrified": "rail", "frequency": "0", "gauge": "1435", "layer": "-3", "maxspeed": "", "oneway": "yes", "railway": "subway", "railway:track_ref": "", "service": "", "tunnel": "yes", "voltage": "750", "colour": "red", "level": "-4", "name": "Metro C", "name:be": "лінія Ц", "name:de": "U-Bahn C", "name:en": "Subway C", "name:ru": "Линия Ц", "operator": "cz:DPP", "passenger_lines": "2", "bridge": "", "bridge:structure": "", "covered": "", "location": "", "usage": "", "note:cs": "", "railway:preferred_direction": "", "ref": "", "wikidata": "", "wikipedia": "", "name:cs": "", "incline": "" }, "geometry": { "type": "LineString", "coordinates": [ [ 14.4534004, 50.123916 ], [ 14.4524185, 50.1236458 ], [ 14.4515844, 50.1234771 ], [ 14.4508747, 50.1233664 ], [ 14.4485393, 50.1231553 ], [ 14.4441096, 50.1230592 ], [ 14.4427257, 50.1229015 ], [ 14.4415284, 50.1226856 ], [ 14.4401663, 50.1222958 ], [ 14.4389473, 50.1217994 ], [ 14.4376133, 50.1209332 ], [ 14.4368324, 50.1203473 ], [ 14.4363366, 50.1198639 ], [ 14.4358665, 50.1192795 ], [ 14.4355759, 50.1188127 ], [ 14.435267, 50.1181477 ], [ 14.4351392, 50.1174886 ], [ 14.435109, 50.1167036 ], [ 14.4352056, 50.1153748 ], [ 14.4356537, 50.1139406 ], [ 14.4360566, 50.1132579 ], [ 14.4363786, 50.1127911 ], [ 14.4368891, 50.1121955 ], [ 14.4375405, 50.111536 ], [ 14.4384705, 50.1107157 ], [ 14.4388283, 50.1104026 ], [ 14.4392522, 50.1099339 ], [ 14.4394013, 50.1097585 ], [ 14.4395403, 50.1095902 ], [ 14.4396461, 50.1094611 ] ] } },
{ "type": "Feature", "properties": { "full_id": "w668345925", "osm_id": "668345925", "osm_type": "way", "electrified": "rail", "frequency": "0", "gauge": "1435", "layer": "-2", "maxspeed": "", "oneway": "yes", "railway": "subway", "railway:track_ref": "", "service": "", "tunnel": "yes", "voltage": "750", "colour": "red", "level": "", "name": "Metro C", "name:be": "лінія Ц", "name:de": "U-Bahn C", "name:en": "Subway C", "name:ru": "Линия Ц", "operator": "cz:DPP", "passenger_lines": "", "bridge": "", "bridge:structure": "", "covered": "", "location": "", "usage": "", "note:cs": "", "railway:preferred_direction": "", "ref": "", "wikidata": "", "wikipedia": "", "name:cs": "", "incline": "" }, "geometry": { "type": "LineString", "coordinates": [ [ 14.4399862, 50.0504878 ], [ 14.4403763, 50.0499763 ], [ 14.4405566, 50.0497414 ], [ 14.4407424, 50.0495354 ], [ 14.4409195, 50.0493459 ], [ 14.4411606, 50.0491412 ], [ 14.4414318, 50.0489325 ], [ 14.4418179, 50.0486673 ], [ 14.4423781, 50.0483679 ] ] } },
{ "type": "Feature", "properties": { "full_id": "w566148114", "osm_id": "566148114", "osm_type": "way", "electrified": "rail", "frequency": "0", "gauge": "1435", "layer": "-2", "maxspeed": "", "oneway": "yes", "railway": "subway", "railway:track_ref": "", "service": "", "tunnel": "yes", "voltage": "750", "colour": "red", "level": "-2", "name": "Metro C", "name:be": "лінія Ц", "name:de": "U-Bahn C", "name:en": "Subway C", "name:ru": "Линия Ц", "operator": "cz:DPP", "passenger_lines": "", "bridge": "", "bridge:structure": "", "covered": "", "location": "", "usage": "", "note:cs": "", "railway:preferred_direction": "", "ref": "", "wikidata": "", "wikipedia": "", "name:cs": "", "incline": "" }, "geometry": { "type": "LineString", "coordinates": [ [ 14.4673305, 50.1263757 ], [ 14.4685134, 50.1264499 ] ] } },
{ "type": "Feature", "properties": { "full_id": "w668348851", "osm_id": "668348851", "osm_type": "way", "electrified": "rail", "frequency": "0", "gauge": "1435", "layer": "-2", "maxspeed": "", "oneway": "yes", "railway": "subway", "railway:track_ref": "", "service": "", "tunnel": "yes", "voltage": "750", "colour": "red", "level": "-2", "name": "Metro C", "name:be": "лінія Ц", "name:de": "U-Bahn C", "name:en": "Subway C", "name:ru": "Линия Ц", "operator": "cz:DPP", "passenger_lines": "", "bridge": "", "bridge:structure": "", "covered": "", "location": "", "usage": "", "note:cs": "", "railway:preferred_direction": "", "ref": "", "wikidata": "", "wikipedia": "", "name:cs": "", "incline": "" }, "geometry": { "type": "LineString", "coordinates": [ [ 14.434906, 50.0558239 ], [ 14.4350497, 50.0557321 ], [ 14.4351862, 50.0556358 ], [ 14.4352864, 50.0555588 ], [ 14.4353819, 50.0554793 ], [ 14.4354727, 50.0553976 ] ] } },
{ "type": "Feature", "properties": { "full_id": "w566148121", "osm_id": "566148121", "osm_type": "way", "electrified": "rail", "frequency": "0", "gauge": "1435", "layer": "-3", "maxspeed": "", "oneway": "yes", "railway": "subway", "railway:track_ref": "", "service": "", "tunnel": "yes", "voltage": "750", "colour": "red", "level": "", "name": "Metro C", "name:be": "лінія Ц", "name:de": "U-Bahn C", "name:en": "Subway C", "name:ru": "Линия Ц", "operator": "cz:DPP", "passenger_lines": "", "bridge": "", "bridge:structure": "", "covered": "", "location": "", "usage": "", "note:cs": "", "railway:preferred_direction": "", "ref": "", "wikidata": "", "wikipedia": "", "name:cs": "", "incline": "" }, "geometry": { "type": "LineString", "coordinates": [ [ 14.4891643, 50.1265147 ], [ 14.4878916, 50.1274388 ], [ 14.487098, 50.127816 ], [ 14.4861273, 50.1282142 ], [ 14.4853809, 50.1284376 ], [ 14.4851028, 50.1285332 ], [ 14.4847436, 50.1286283 ], [ 14.4839209, 50.1287891 ], [ 14.483374, 50.1288537 ], [ 14.4826917, 50.1288747 ], [ 14.4812787, 50.128835 ], [ 14.4743026, 50.1272139 ], [ 14.4720225, 50.1268533 ], [ 14.4712041, 50.1267513 ], [ 14.4703241, 50.1266647 ], [ 14.4701939, 50.126654 ] ] } },
{ "type": "Feature", "properties": { "full_id": "w668348849", "osm_id": "668348849", "osm_type": "way", "electrified": "rail", "frequency": "0", "gauge": "1435", "layer": "-2", "maxspeed": "", "oneway": "yes", "railway": "subway", "railway:track_ref": "", "service": "", "tunnel": "yes", "voltage": "750", "colour": "red", "level": "", "name": "Metro C", "name:be": "лінія Ц", "name:de": "U-Bahn C", "name:en": "Subway C", "name:ru": "Линия Ц", "operator": "cz:DPP", "passenger_lines": "", "bridge": "", "bridge:structure": "", "covered": "", "location": "", "usage": "", "note:cs": "", "railway:preferred_direction": "", "ref": "", "wikidata": "", "wikipedia": "", "name:cs": "", "incline": "" }, "geometry": { "type": "LineString", "coordinates": [ [ 14.4382796, 50.052689 ], [ 14.4392636, 50.0514185 ] ] } },
{ "type": "Feature", "properties": { "full_id": "w668348848", "osm_id": "668348848", "osm_type": "way", "electrified": "rail", "frequency": "0", "gauge": "1435", "layer": "-2", "maxspeed": "", "oneway": "yes", "railway": "subway", "railway:track_ref": "", "service": "", "tunnel": "yes", "voltage": "750", "colour": "red", "level": "", "name": "Metro C", "name:be": "лінія Ц", "name:de": "U-Bahn C", "name:en": "Subway C", "name:ru": "Линия Ц", "operator": "cz:DPP", "passenger_lines": "", "bridge": "", "bridge:structure": "", "covered": "", "location": "", "usage": "", "note:cs": "", "railway:preferred_direction": "", "ref": "", "wikidata": "", "wikipedia": "", "name:cs": "", "incline": "" }, "geometry": { "type": "LineString", "coordinates": [ [ 14.437584, 50.0534521 ], [ 14.4377632, 50.0532753 ], [ 14.4379342, 50.0530953 ], [ 14.4380539, 50.0529615 ], [ 14.4381691, 50.052826 ], [ 14.4382796, 50.052689 ] ] } },
{ "type": "Feature", "properties": { "full_id": "w566148120", "osm_id": "566148120", "osm_type": "way", "electrified": "rail", "frequency": "0", "gauge": "1435", "layer": "-3", "maxspeed": "60", "oneway": "yes", "railway": "subway", "railway:track_ref": "", "service": "", "tunnel": "yes", "voltage": "750", "colour": "red", "level": "-4", "name": "Metro C", "name:be": "лінія Ц", "name:de": "U-Bahn C", "name:en": "Subway C", "name:ru": "Линия Ц", "operator": "cz:DPP", "passenger_lines": "2", "bridge": "", "bridge:structure": "", "covered": "", "location": "", "usage": "", "note:cs": "", "railway:preferred_direction": "", "ref": "", "wikidata": "", "wikipedia": "", "name:cs": "", "incline": "" }, "geometry": { "type": "LineString", "coordinates": [ [ 14.4701939, 50.126654 ], [ 14.4699257, 50.1266321 ], [ 14.4696373, 50.1266087 ], [ 14.4693028, 50.1265802 ], [ 14.4687921, 50.1265365 ] ] } },
{ "type": "Feature", "properties": { "full_id": "w668345929", "osm_id": "668345929", "osm_type": "way", "electrified": "rail", "frequency": "0", "gauge": "1435", "layer": "-2", "maxspeed": "", "oneway": "yes", "railway": "subway", "railway:track_ref": "", "service": "", "tunnel": "yes", "voltage": "750", "colour": "red", "level": "-2", "name": "Metro C", "name:be": "лінія Ц", "name:de": "U-Bahn C", "name:en": "Subway C", "name:ru": "Линия Ц", "operator": "cz:DPP", "passenger_lines": "", "bridge": "", "bridge:structure": "", "covered": "", "location": "", "usage": "", "note:cs": "", "railway:preferred_direction": "", "ref": "", "wikidata": "", "wikipedia": "", "name:cs": "", "incline": "" }, "geometry": { "type": "LineString", "coordinates": [ [ 14.4483011, 50.0447806 ], [ 14.4481074, 50.0448972 ], [ 14.4474345, 50.0453207 ] ] } },
{ "type": "Feature", "properties": { "full_id": "w566148119", "osm_id": "566148119", "osm_type": "way", "electrified": "rail", "frequency": "0", "gauge": "1435", "layer": "-2", "maxspeed": "", "oneway": "yes", "railway": "subway", "railway:track_ref": "", "service": "", "tunnel": "yes", "voltage": "750", "colour": "red", "level": "-2", "name": "Metro C", "name:be": "лінія Ц", "name:de": "U-Bahn C", "name:en": "Subway C", "name:ru": "Линия Ц", "operator": "cz:DPP", "passenger_lines": "", "bridge": "", "bridge:structure": "", "covered": "", "location": "", "usage": "", "note:cs": "", "railway:preferred_direction": "", "ref": "", "wikidata": "", "wikipedia": "", "name:cs": "", "incline": "" }, "geometry": { "type": "LineString", "coordinates": [ [ 14.4995637, 50.1184585 ], [ 14.5003173, 50.1178946 ], [ 14.5008025, 50.1176458 ], [ 14.5013924, 50.1174106 ], [ 14.5025485, 50.1170405 ], [ 14.5036601, 50.1168055 ], [ 14.5054295, 50.1166772 ], [ 14.507181, 50.1168615 ], [ 14.5091524, 50.1174279 ], [ 14.5118172, 50.1185944 ], [ 14.5132079, 50.119274 ], [ 14.5139296, 50.1197126 ], [ 14.5146964, 50.120279 ], [ 14.5153992, 50.1210309 ], [ 14.5159593, 50.1220045 ], [ 14.5161697, 50.1225708 ], [ 14.5162675, 50.1230696 ], [ 14.5163534, 50.1235029 ], [ 14.5163989, 50.1242203 ] ] } },
{ "type": "Feature", "properties": { "full_id": "w566148118", "osm_id": "566148118", "osm_type": "way", "electrified": "rail", "frequency": "0", "gauge": "1435", "layer": "-2", "maxspeed": "60", "oneway": "yes", "railway": "subway", "railway:track_ref": "", "service": "", "tunnel": "yes", "voltage": "750", "colour": "red", "level": "-2", "name": "Metro C", "name:be": "лінія Ц", "name:de": "U-Bahn C", "name:en": "Subway C", "name:ru": "Линия Ц", "operator": "cz:DPP", "passenger_lines": "", "bridge": "", "bridge:structure": "", "covered": "", "location": "", "usage": "", "note:cs": "", "railway:preferred_direction": "", "ref": "", "wikidata": "", "wikipedia": "", "name:cs": "", "incline": "" }, "geometry": { "type": "LineString", "coordinates": [ [ 14.4687943, 50.1264705 ], [ 14.4694875, 50.1265285 ], [ 14.4702074, 50.1265815 ] ] } },
{ "type": "Feature", "properties": { "full_id": "w577181682", "osm_id": "577181682", "osm_type": "way", "electrified": "rail", "frequency": "0", "gauge": "1435", "layer": "-3", "maxspeed": "40", "oneway": "yes", "railway": "subway", "railway:track_ref": "", "service": "siding", "tunnel": "yes", "voltage": "750", "colour": "red", "level": "-4", "name": "Metro C", "name:be": "лінія Ц", "name:de": "U-Bahn C", "name:en": "Subway C", "name:ru": "Линия Ц", "operator": "cz:DPP", "passenger_lines": "", "bridge": "", "bridge:structure": "", "covered": "", "location": "", "usage": "", "note:cs": "", "railway:preferred_direction": "", "ref": "", "wikidata": "", "wikipedia": "", "name:cs": "", "incline": "" }, "geometry": { "type": "LineString", "coordinates": [ [ 14.5160114, 50.1253394 ], [ 14.5160073, 50.1251705 ] ] } },
{ "type": "Feature", "properties": { "full_id": "w577181678", "osm_id": "577181678", "osm_type": "way", "electrified": "rail", "frequency": "0", "gauge": "1435", "layer": "-2", "maxspeed": "40", "oneway": "yes", "railway": "subway", "railway:track_ref": "", "service": "siding", "tunnel": "yes", "voltage": "750", "colour": "red", "level": "-2", "name": "Metro C", "name:be": "лінія Ц", "name:de": "U-Bahn C", "name:en": "Subway C", "name:ru": "Линия Ц", "operator": "cz:DPP", "passenger_lines": "", "bridge": "", "bridge:structure": "", "covered": "", "location": "", "usage": "", "note:cs": "", "railway:preferred_direction": "", "ref": "", "wikidata": "", "wikipedia": "", "name:cs": "", "incline": "" }, "geometry": { "type": "LineString", "coordinates": [ [ 14.5164478, 50.1251735 ], [ 14.5164565, 50.1253294 ] ] } },
{ "type": "Feature", "properties": { "full_id": "w14435390", "osm_id": "14435390", "osm_type": "way", "electrified": "rail", "frequency": "0", "gauge": "1435", "layer": "1", "maxspeed": "", "oneway": "yes", "railway": "subway", "railway:track_ref": "", "service": "", "tunnel": "", "voltage": "750", "colour": "red", "level": "", "name": "Metro C", "name:be": "лінія Ц", "name:de": "U-Bahn C", "name:en": "Subway C", "name:ru": "Линия Ц", "operator": "cz:DPP", "passenger_lines": "2", "bridge": "yes", "bridge:structure": "beam", "covered": "yes", "location": "", "usage": "", "note:cs": "tubus metra v mostovce", "railway:preferred_direction": "", "ref": "", "wikidata": "", "wikipedia": "", "name:cs": "", "incline": "" }, "geometry": { "type": "LineString", "coordinates": [ [ 14.4302901, 50.0682498 ], [ 14.4303035, 50.0679252 ], [ 14.4304704, 50.0636101 ] ] } },
{ "type": "Feature", "properties": { "full_id": "w14435388", "osm_id": "14435388", "osm_type": "way", "electrified": "rail", "frequency": "0", "gauge": "1435", "layer": "-2", "maxspeed": "", "oneway": "yes", "railway": "subway", "railway:track_ref": "", "service": "", "tunnel": "yes", "voltage": "750", "colour": "red", "level": "", "name": "Metro C", "name:be": "лінія Ц", "name:de": "U-Bahn C", "name:en": "Subway C", "name:ru": "Линия Ц", "operator": "cz:DPP", "passenger_lines": "", "bridge": "", "bridge:structure": "", "covered": "", "location": "", "usage": "", "note:cs": "", "railway:preferred_direction": "", "ref": "", "wikidata": "", "wikipedia": "", "name:cs": "", "incline": "" }, "geometry": { "type": "LineString", "coordinates": [ [ 14.4337841, 50.0564948 ], [ 14.4338514, 50.0564546 ], [ 14.4340759, 50.0563203 ], [ 14.4341712, 50.0562633 ], [ 14.434906, 50.0558239 ] ] } },
{ "type": "Feature", "properties": { "full_id": "w569033129", "osm_id": "569033129", "osm_type": "way", "electrified": "rail", "frequency": "0", "gauge": "1435", "layer": "-2", "maxspeed": "40", "oneway": "", "railway": "subway", "railway:track_ref": "", "service": "siding", "tunnel": "yes", "voltage": "750", "colour": "", "level": "", "name": "Metro C", "name:be": "", "name:de": "U-Bahn C", "name:en": "", "name:ru": "", "operator": "", "passenger_lines": "", "bridge": "", "bridge:structure": "", "covered": "", "location": "", "usage": "", "note:cs": "", "railway:preferred_direction": "", "ref": "", "wikidata": "", "wikipedia": "", "name:cs": "", "incline": "" }, "geometry": { "type": "LineString", "coordinates": [ [ 14.5283822, 50.0309571 ], [ 14.5323492, 50.0314065 ] ] } },
{ "type": "Feature", "properties": { "full_id": "w668566843", "osm_id": "668566843", "osm_type": "way", "electrified": "rail", "frequency": "0", "gauge": "1435", "layer": "-2", "maxspeed": "", "oneway": "yes", "railway": "subway", "railway:track_ref": "", "service": "", "tunnel": "yes", "voltage": "750", "colour": "red", "level": "-2", "name": "Metro C", "name:be": "лінія Ц", "name:de": "U-Bahn C", "name:en": "Subway C", "name:ru": "Линия Ц", "operator": "cz:DPP", "passenger_lines": "", "bridge": "", "bridge:structure": "", "covered": "", "location": "", "usage": "", "note:cs": "", "railway:preferred_direction": "", "ref": "", "wikidata": "", "wikipedia": "", "name:cs": "", "incline": "" }, "geometry": { "type": "LineString", "coordinates": [ [ 14.4304249, 50.0705915 ], [ 14.4306583, 50.0713608 ] ] } },
{ "type": "Feature", "properties": { "full_id": "w668566842", "osm_id": "668566842", "osm_type": "way", "electrified": "rail", "frequency": "0", "gauge": "1435", "layer": "-2", "maxspeed": "", "oneway": "yes", "railway": "subway", "railway:track_ref": "", "service": "", "tunnel": "yes", "voltage": "750", "colour": "red", "level": "", "name": "Metro C", "name:be": "лінія Ц", "name:de": "U-Bahn C", "name:en": "Subway C", "name:ru": "Линия Ц", "operator": "cz:DPP", "passenger_lines": "", "bridge": "", "bridge:structure": "", "covered": "", "location": "", "usage": "", "note:cs": "", "railway:preferred_direction": "", "ref": "", "wikidata": "", "wikipedia": "", "name:cs": "", "incline": "" }, "geometry": { "type": "LineString", "coordinates": [ [ 14.4306583, 50.0713608 ], [ 14.4306891, 50.0714881 ], [ 14.4307134, 50.071616 ], [ 14.4307313, 50.0717444 ], [ 14.4307427, 50.071873 ], [ 14.4307477, 50.0720217 ], [ 14.4307441, 50.0721703 ], [ 14.4307318, 50.0723187 ], [ 14.430711, 50.0724668 ] ] } },
{ "type": "Feature", "properties": { "full_id": "w566456666", "osm_id": "566456666", "osm_type": "way", "electrified": "rail", "frequency": "0", "gauge": "1435", "layer": "-2", "maxspeed": "", "oneway": "yes", "railway": "subway", "railway:track_ref": "", "service": "", "tunnel": "yes", "voltage": "750", "colour": "red", "level": "-2", "name": "Metro C", "name:be": "лінія Ц", "name:de": "U-Bahn C", "name:en": "Subway C", "name:ru": "Линия Ц", "operator": "cz:DPP", "passenger_lines": "", "bridge": "", "bridge:structure": "", "covered": "", "location": "", "usage": "", "note:cs": "", "railway:preferred_direction": "", "ref": "", "wikidata": "", "wikipedia": "", "name:cs": "", "incline": "" }, "geometry": { "type": "LineString", "coordinates": [ [ 14.4315122, 50.0805053 ], [ 14.4326215, 50.0815351 ], [ 14.4331555, 50.0821322 ], [ 14.4333152, 50.0823341 ], [ 14.4334842, 50.0825642 ], [ 14.4337391, 50.0829208 ], [ 14.4338467, 50.0830731 ] ] } },
{ "type": "Feature", "properties": { "full_id": "w668566841", "osm_id": "668566841", "osm_type": "way", "electrified": "rail", "frequency": "0", "gauge": "1435", "layer": "-2", "maxspeed": "", "oneway": "yes", "railway": "subway", "railway:track_ref": "", "service": "", "tunnel": "yes", "voltage": "750", "colour": "red", "level": "-2", "name": "Metro C", "name:be": "лінія Ц", "name:de": "U-Bahn C", "name:en": "Subway C", "name:ru": "Линия Ц", "operator": "cz:DPP", "passenger_lines": "", "bridge": "", "bridge:structure": "", "covered": "", "location": "", "usage": "", "note:cs": "", "railway:preferred_direction": "", "ref": "", "wikidata": "", "wikipedia": "", "name:cs": "", "incline": "" }, "geometry": { "type": "LineString", "coordinates": [ [ 14.430305, 50.0695223 ], [ 14.4303021, 50.0696689 ], [ 14.4303054, 50.0698156 ], [ 14.4303147, 50.0699621 ], [ 14.4303301, 50.0701084 ], [ 14.4303543, 50.07027 ], [ 14.4303859, 50.0704311 ], [ 14.4304249, 50.0705915 ] ] } },
{ "type": "Feature", "properties": { "full_id": "w566456665", "osm_id": "566456665", "osm_type": "way", "electrified": "rail", "frequency": "0", "gauge": "1435", "layer": "-3", "maxspeed": "", "oneway": "yes", "railway": "subway", "railway:track_ref": "", "service": "", "tunnel": "yes", "voltage": "750", "colour": "red", "level": "", "name": "Metro C", "name:be": "лінія Ц", "name:de": "U-Bahn C", "name:en": "Subway C", "name:ru": "Линия Ц", "operator": "cz:DPP", "passenger_lines": "", "bridge": "", "bridge:structure": "", "covered": "", "location": "", "usage": "", "note:cs": "", "railway:preferred_direction": "", "ref": "", "wikidata": "", "wikipedia": "", "name:cs": "", "incline": "" }, "geometry": { "type": "LineString", "coordinates": [ [ 14.4702074, 50.1265815 ], [ 14.4703362, 50.1265943 ], [ 14.4711389, 50.1266634 ], [ 14.4720507, 50.1267591 ], [ 14.4729711, 50.1268942 ], [ 14.4743201, 50.1271477 ], [ 14.4812906, 50.1288064 ], [ 14.4826822, 50.1288564 ], [ 14.4833727, 50.128833 ], [ 14.4839089, 50.1287664 ], [ 14.4847285, 50.128599 ], [ 14.4860927, 50.128187 ], [ 14.4870668, 50.1277839 ], [ 14.487852, 50.1274105 ], [ 14.4891229, 50.1264936 ] ] } },
{ "type": "Feature", "properties": { "full_id": "w668566840", "osm_id": "668566840", "osm_type": "way", "electrified": "rail", "frequency": "0", "gauge": "1435", "layer": "-2", "maxspeed": "", "oneway": "yes", "railway": "subway", "railway:track_ref": "", "service": "", "tunnel": "yes", "voltage": "750", "colour": "red", "level": "-2", "name": "Metro C", "name:be": "лінія Ц", "name:de": "U-Bahn C", "name:en": "Subway C", "name:ru": "Линия Ц", "operator": "cz:DPP", "passenger_lines": "", "bridge": "", "bridge:structure": "", "covered": "", "location": "", "usage": "", "note:cs": "", "railway:preferred_direction": "", "ref": "", "wikidata": "", "wikipedia": "", "name:cs": "", "incline": "" }, "geometry": { "type": "LineString", "coordinates": [ [ 14.4304334, 50.0730222 ], [ 14.4305302, 50.0724526 ] ] } },
{ "type": "Feature", "properties": { "full_id": "w566456664", "osm_id": "566456664", "osm_type": "way", "electrified": "rail", "frequency": "0", "gauge": "1435", "layer": "-3", "maxspeed": "60", "oneway": "yes", "railway": "subway", "railway:track_ref": "", "service": "", "tunnel": "yes", "voltage": "750", "colour": "red", "level": "-2", "name": "Metro C", "name:be": "лінія Ц", "name:de": "U-Bahn C", "name:en": "Subway C", "name:ru": "Линия Ц", "operator": "cz:DPP", "passenger_lines": "", "bridge": "", "bridge:structure": "", "covered": "", "location": "", "usage": "", "note:cs": "", "railway:preferred_direction": "", "ref": "", "wikidata": "", "wikipedia": "", "name:cs": "", "incline": "" }, "geometry": { "type": "LineString", "coordinates": [ [ 14.4986423, 50.1191544 ], [ 14.4995637, 50.1184585 ] ] } },
{ "type": "Feature", "properties": { "full_id": "w566456663", "osm_id": "566456663", "osm_type": "way", "electrified": "rail", "frequency": "0", "gauge": "1435", "layer": "-3", "maxspeed": "40", "oneway": "yes", "railway": "subway", "railway:track_ref": "", "service": "siding", "tunnel": "yes", "voltage": "750", "colour": "red", "level": "-4", "name": "Metro C", "name:be": "лінія Ц", "name:de": "U-Bahn C", "name:en": "Subway C", "name:ru": "Линия Ц", "operator": "cz:DPP", "passenger_lines": "", "bridge": "", "bridge:structure": "", "covered": "", "location": "", "usage": "", "note:cs": "", "railway:preferred_direction": "", "ref": "", "wikidata": "", "wikipedia": "", "name:cs": "", "incline": "" }, "geometry": { "type": "LineString", "coordinates": [ [ 14.5160925, 50.1277729 ], [ 14.5160114, 50.1253394 ] ] } },
{ "type": "Feature", "properties": { "full_id": "w569033128", "osm_id": "569033128", "osm_type": "way", "electrified": "rail", "frequency": "0", "gauge": "1435", "layer": "-2", "maxspeed": "40", "oneway": "yes", "railway": "subway", "railway:track_ref": "", "service": "siding", "tunnel": "yes", "voltage": "750", "colour": "", "level": "", "name": "Metro C", "name:be": "", "name:de": "U-Bahn C", "name:en": "", "name:ru": "", "operator": "", "passenger_lines": "", "bridge": "", "bridge:structure": "", "covered": "", "location": "", "usage": "", "note:cs": "", "railway:preferred_direction": "", "ref": "", "wikidata": "", "wikipedia": "", "name:cs": "", "incline": "" }, "geometry": { "type": "LineString", "coordinates": [ [ 14.528352, 50.0310576 ], [ 14.5281213, 50.0310332 ] ] } },
{ "type": "Feature", "properties": { "full_id": "w935630991", "osm_id": "935630991", "osm_type": "way", "electrified": "rail", "frequency": "0", "gauge": "1435", "layer": "-2", "maxspeed": "60", "oneway": "yes", "railway": "subway", "railway:track_ref": "", "service": "", "tunnel": "yes", "voltage": "750", "colour": "red", "level": "", "name": "Metro C", "name:be": "лінія Ц", "name:de": "U-Bahn C", "name:en": "Subway C", "name:ru": "Линия Ц", "operator": "cz:DPP", "passenger_lines": "", "bridge": "", "bridge:structure": "", "covered": "", "location": "", "usage": "", "note:cs": "", "railway:preferred_direction": "", "ref": "", "wikidata": "", "wikipedia": "", "name:cs": "", "incline": "" }, "geometry": { "type": "LineString", "coordinates": [ [ 14.4763818, 50.0377592 ], [ 14.4776774, 50.0373385 ] ] } },
{ "type": "Feature", "properties": { "full_id": "w566456667", "osm_id": "566456667", "osm_type": "way", "electrified": "rail", "frequency": "0", "gauge": "1435", "layer": "-3", "maxspeed": "60", "oneway": "yes", "railway": "subway", "railway:track_ref": "", "service": "", "tunnel": "yes", "voltage": "750", "colour": "red", "level": "-2", "name": "Metro C", "name:be": "лінія Ц", "name:de": "U-Bahn C", "name:en": "Subway C", "name:ru": "Линия Ц", "operator": "cz:DPP", "passenger_lines": "", "bridge": "", "bridge:structure": "", "covered": "", "location": "", "usage": "", "note:cs": "", "railway:preferred_direction": "", "ref": "", "wikidata": "", "wikipedia": "", "name:cs": "", "incline": "" }, "geometry": { "type": "LineString", "coordinates": [ [ 14.4306303, 50.0797668 ], [ 14.4315122, 50.0805053 ] ] } },
{ "type": "Feature", "properties": { "full_id": "w935630990", "osm_id": "935630990", "osm_type": "way", "electrified": "rail", "frequency": "0", "gauge": "1435", "layer": "-2", "maxspeed": "", "oneway": "yes", "railway": "subway", "railway:track_ref": "", "service": "", "tunnel": "yes", "voltage": "750", "colour": "red", "level": "", "name": "Metro C", "name:be": "лінія Ц", "name:de": "U-Bahn C", "name:en": "Subway C", "name:ru": "Линия Ц", "operator": "cz:DPP", "passenger_lines": "", "bridge": "", "bridge:structure": "", "covered": "", "location": "", "usage": "", "note:cs": "", "railway:preferred_direction": "", "ref": "", "wikidata": "", "wikipedia": "", "name:cs": "", "incline": "" }, "geometry": { "type": "LineString", "coordinates": [ [ 14.4621116, 50.041353 ], [ 14.4634308, 50.0411508 ], [ 14.4645978, 50.0410017 ], [ 14.4656891, 50.0409297 ], [ 14.46669, 50.0408011 ], [ 14.4675864, 50.0406139 ], [ 14.4684506, 50.0403046 ], [ 14.469793, 50.039848 ], [ 14.4714673, 50.0393034 ], [ 14.4750288, 50.0381446 ], [ 14.4763818, 50.0377592 ] ] } },
{ "type": "Feature", "properties": { "full_id": "w935630989", "osm_id": "935630989", "osm_type": "way", "electrified": "rail", "frequency": "0", "gauge": "1435", "layer": "-2", "maxspeed": "60", "oneway": "yes", "railway": "subway", "railway:track_ref": "", "service": "", "tunnel": "yes", "voltage": "750", "colour": "red", "level": "-2", "name": "Metro C", "name:be": "лінія Ц", "name:de": "U-Bahn C", "name:en": "Subway C", "name:ru": "Линия Ц", "operator": "cz:DPP", "passenger_lines": "", "bridge": "", "bridge:structure": "", "covered": "", "location": "", "usage": "", "note:cs": "", "railway:preferred_direction": "", "ref": "", "wikidata": "", "wikipedia": "", "name:cs": "", "incline": "" }, "geometry": { "type": "LineString", "coordinates": [ [ 14.4585924, 50.0418924 ], [ 14.4599364, 50.0416864 ] ] } },
{ "type": "Feature", "properties": { "full_id": "w935630988", "osm_id": "935630988", "osm_type": "way", "electrified": "rail", "frequency": "0", "gauge": "1435", "layer": "-2", "maxspeed": "", "oneway": "yes", "railway": "subway", "railway:track_ref": "", "service": "", "tunnel": "yes", "voltage": "750", "colour": "red", "level": "-2", "name": "Metro C", "name:be": "лінія Ц", "name:de": "U-Bahn C", "name:en": "Subway C", "name:ru": "Линия Ц", "operator": "cz:DPP", "passenger_lines": "", "bridge": "", "bridge:structure": "", "covered": "", "location": "", "usage": "", "note:cs": "", "railway:preferred_direction": "", "ref": "", "wikidata": "", "wikipedia": "", "name:cs": "", "incline": "" }, "geometry": { "type": "LineString", "coordinates": [ [ 14.4599364, 50.0416864 ], [ 14.460042, 50.0416714 ] ] } },
{ "type": "Feature", "properties": { "full_id": "w935630993", "osm_id": "935630993", "osm_type": "way", "electrified": "rail", "frequency": "0", "gauge": "1435", "layer": "-2", "maxspeed": "60", "oneway": "yes", "railway": "subway", "railway:track_ref": "", "service": "", "tunnel": "yes", "voltage": "750", "colour": "red", "level": "", "name": "Metro C", "name:be": "лінія Ц", "name:de": "U-Bahn C", "name:en": "Subway C", "name:ru": "Линия Ц", "operator": "cz:DPP", "passenger_lines": "", "bridge": "", "bridge:structure": "", "covered": "", "location": "", "usage": "", "note:cs": "", "railway:preferred_direction": "", "ref": "", "wikidata": "", "wikipedia": "", "name:cs": "", "incline": "" }, "geometry": { "type": "LineString", "coordinates": [ [ 14.5263569, 50.0306882 ], [ 14.5281429, 50.0309308 ] ] } },
{ "type": "Feature", "properties": { "full_id": "w935630992", "osm_id": "935630992", "osm_type": "way", "electrified": "rail", "frequency": "0", "gauge": "1435", "layer": "-3", "maxspeed": "60", "oneway": "yes", "railway": "subway", "railway:track_ref": "", "service": "", "tunnel": "yes", "voltage": "750", "colour": "red", "level": "", "name": "Metro C", "name:be": "лінія Ц", "name:de": "U-Bahn C", "name:en": "Subway C", "name:ru": "Линия Ц", "operator": "cz:DPP", "passenger_lines": "", "bridge": "", "bridge:structure": "", "covered": "", "location": "", "usage": "", "note:cs": "", "railway:preferred_direction": "", "ref": "", "wikidata": "", "wikipedia": "", "name:cs": "", "incline": "" }, "geometry": { "type": "LineString", "coordinates": [ [ 14.4916726, 50.0313524 ], [ 14.4905805, 50.0319217 ] ] } },
{ "type": "Feature", "properties": { "full_id": "w935630982", "osm_id": "935630982", "osm_type": "way", "electrified": "rail", "frequency": "0", "gauge": "1435", "layer": "-2", "maxspeed": "60", "oneway": "yes", "railway": "subway", "railway:track_ref": "", "service": "", "tunnel": "yes", "voltage": "750", "colour": "red", "level": "", "name": "Metro C", "name:be": "лінія Ц", "name:de": "U-Bahn C", "name:en": "Subway C", "name:ru": "Линия Ц", "operator": "cz:DPP", "passenger_lines": "", "bridge": "", "bridge:structure": "", "covered": "", "location": "", "usage": "", "note:cs": "", "railway:preferred_direction": "", "ref": "", "wikidata": "", "wikipedia": "", "name:cs": "", "incline": "" }, "geometry": { "type": "LineString", "coordinates": [ [ 14.4327264, 50.0571274 ], [ 14.4337611, 50.0565086 ], [ 14.4337841, 50.0564948 ] ] } },
{ "type": "Feature", "properties": { "full_id": "w935630981", "osm_id": "935630981", "osm_type": "way", "electrified": "rail", "frequency": "0", "gauge": "1435", "layer": "-2", "maxspeed": "60", "oneway": "yes", "railway": "subway", "railway:track_ref": "", "service": "", "tunnel": "yes", "voltage": "750", "colour": "red", "level": "", "name": "Metro C", "name:be": "лінія Ц", "name:de": "U-Bahn C", "name:en": "Subway C", "name:ru": "Линия Ц", "operator": "cz:DPP", "passenger_lines": "", "bridge": "", "bridge:structure": "", "covered": "", "location": "", "usage": "", "note:cs": "", "railway:preferred_direction": "", "ref": "", "wikidata": "", "wikipedia": "", "name:cs": "", "incline": "" }, "geometry": { "type": "LineString", "coordinates": [ [ 14.4339077, 50.0565799 ], [ 14.4328636, 50.0572053 ] ] } },
{ "type": "Feature", "properties": { "full_id": "w935630980", "osm_id": "935630980", "osm_type": "way", "electrified": "rail", "frequency": "0", "gauge": "1435", "layer": "-2", "maxspeed": "", "oneway": "yes", "railway": "subway", "railway:track_ref": "", "service": "", "tunnel": "yes", "voltage": "750", "colour": "red", "level": "", "name": "Metro C", "name:be": "лінія Ц", "name:de": "U-Bahn C", "name:en": "Subway C", "name:ru": "Линия Ц", "operator": "cz:DPP", "passenger_lines": "", "bridge": "", "bridge:structure": "", "covered": "", "location": "", "usage": "", "note:cs": "", "railway:preferred_direction": "", "ref": "", "wikidata": "", "wikipedia": "", "name:cs": "", "incline": "" }, "geometry": { "type": "LineString", "coordinates": [ [ 14.4314611, 50.0578841 ], [ 14.4325854, 50.0572117 ], [ 14.4327264, 50.0571274 ] ] } },
{ "type": "Feature", "properties": { "full_id": "w935630979", "osm_id": "935630979", "osm_type": "way", "electrified": "rail", "frequency": "0", "gauge": "1435", "layer": "1", "maxspeed": "60", "oneway": "yes", "railway": "subway", "railway:track_ref": "", "service": "", "tunnel": "", "voltage": "750", "colour": "red", "level": "", "name": "Metro C", "name:be": "лінія Ц", "name:de": "U-Bahn C", "name:en": "Subway C", "name:ru": "Линия Ц", "operator": "cz:DPP", "passenger_lines": "2", "bridge": "yes", "bridge:structure": "beam", "covered": "yes", "location": "", "usage": "", "note:cs": "tubus metra v mostovce", "railway:preferred_direction": "", "ref": "", "wikidata": "", "wikipedia": "", "name:cs": "", "incline": "" }, "geometry": { "type": "LineString", "coordinates": [ [ 14.4304704, 50.0636101 ], [ 14.4304791, 50.0633846 ] ] } },
{ "type": "Feature", "properties": { "full_id": "w935630987", "osm_id": "935630987", "osm_type": "way", "electrified": "rail", "frequency": "0", "gauge": "1435", "layer": "-2", "maxspeed": "", "oneway": "yes", "railway": "subway", "railway:track_ref": "", "service": "", "tunnel": "yes", "voltage": "750", "colour": "red", "level": "-2", "name": "Metro C", "name:be": "лінія Ц", "name:de": "U-Bahn C", "name:en": "Subway C", "name:ru": "Линия Ц", "operator": "cz:DPP", "passenger_lines": "", "bridge": "", "bridge:structure": "", "covered": "", "location": "", "usage": "", "note:cs": "", "railway:preferred_direction": "", "ref": "", "wikidata": "", "wikipedia": "", "name:cs": "", "incline": "" }, "geometry": { "type": "LineString", "coordinates": [ [ 14.4600887, 50.0417859 ], [ 14.459997, 50.0417997 ] ] } },
{ "type": "Feature", "properties": { "full_id": "w935630985", "osm_id": "935630985", "osm_type": "way", "electrified": "rail", "frequency": "0", "gauge": "1435", "layer": "-2", "maxspeed": "60", "oneway": "yes", "railway": "subway", "railway:track_ref": "", "service": "", "tunnel": "yes", "voltage": "750", "colour": "red", "level": "", "name": "Metro C", "name:be": "лінія Ц", "name:de": "U-Bahn C", "name:en": "Subway C", "name:ru": "Линия Ц", "operator": "cz:DPP", "passenger_lines": "", "bridge": "", "bridge:structure": "", "covered": "", "location": "", "usage": "", "note:cs": "", "railway:preferred_direction": "", "ref": "", "wikidata": "", "wikipedia": "", "name:cs": "", "incline": "" }, "geometry": { "type": "LineString", "coordinates": [ [ 14.448196, 50.0446829 ], [ 14.4492486, 50.0440427 ] ] } },
{ "type": "Feature", "properties": { "full_id": "w488223153", "osm_id": "488223153", "osm_type": "way", "electrified": "rail", "frequency": "0", "gauge": "1435", "layer": "-2", "maxspeed": "", "oneway": "yes", "railway": "subway", "railway:track_ref": "", "service": "", "tunnel": "yes", "voltage": "750", "colour": "red", "level": "-2", "name": "Metro C", "name:be": "лінія Ц", "name:de": "U-Bahn C", "name:en": "Subway C", "name:ru": "Линия Ц", "operator": "cz:DPP", "passenger_lines": "", "bridge": "", "bridge:structure": "", "covered": "", "location": "", "usage": "", "note:cs": "", "railway:preferred_direction": "", "ref": "", "wikidata": "", "wikipedia": "", "name:cs": "", "incline": "" }, "geometry": { "type": "LineString", "coordinates": [ [ 14.4398251, 50.109517 ], [ 14.4397259, 50.1096439 ], [ 14.4395891, 50.1098163 ], [ 14.4391197, 50.1103685 ], [ 14.4388247, 50.1106523 ], [ 14.4385148, 50.1109164 ], [ 14.4376666, 50.1115943 ], [ 14.4369738, 50.1122304 ], [ 14.4364687, 50.112817 ], [ 14.4361352, 50.1132906 ], [ 14.4357398, 50.1139597 ], [ 14.4352919, 50.1153834 ], [ 14.4351847, 50.1167124 ], [ 14.4352252, 50.1174899 ], [ 14.4353467, 50.1181467 ], [ 14.4356373, 50.1188082 ], [ 14.4359184, 50.1192664 ], [ 14.4363925, 50.1198468 ], [ 14.4368773, 50.1203295 ], [ 14.4376465, 50.1208979 ], [ 14.4389813, 50.1217584 ], [ 14.4402358, 50.1222541 ], [ 14.4415559, 50.1226235 ], [ 14.4427594, 50.1228293 ], [ 14.4441597, 50.1229742 ], [ 14.4485479, 50.1230909 ], [ 14.4508903, 50.1233019 ], [ 14.4516088, 50.1234206 ], [ 14.4524511, 50.123602 ], [ 14.4534203, 50.1238883 ] ] } },
{ "type": "Feature", "properties": { "full_id": "w935630984", "osm_id": "935630984", "osm_type": "way", "electrified": "rail", "frequency": "0", "gauge": "1435", "layer": "-2", "maxspeed": "", "oneway": "yes", "railway": "subway", "railway:track_ref": "", "service": "", "tunnel": "yes", "voltage": "750", "colour": "red", "level": "-2", "name": "Metro C", "name:be": "лінія Ц", "name:de": "U-Bahn C", "name:en": "Subway C", "name:ru": "Линия Ц", "operator": "cz:DPP", "passenger_lines": "", "bridge": "", "bridge:structure": "", "covered": "", "location": "", "usage": "", "note:cs": "", "railway:preferred_direction": "", "ref": "", "wikidata": "", "wikipedia": "", "name:cs": "", "incline": "" }, "geometry": { "type": "LineString", "coordinates": [ [ 14.4400987, 50.0505976 ], [ 14.440069, 50.0506342 ] ] } },
{ "type": "Feature", "properties": { "full_id": "w488223148", "osm_id": "488223148", "osm_type": "way", "electrified": "rail", "frequency": "0", "gauge": "1435", "layer": "-2", "maxspeed": "", "oneway": "yes", "railway": "subway", "railway:track_ref": "", "service": "", "tunnel": "yes", "voltage": "750", "colour": "red", "level": "-2", "name": "Metro C", "name:be": "лінія Ц", "name:de": "U-Bahn C", "name:en": "Subway C", "name:ru": "Линия Ц", "operator": "cz:DPP", "passenger_lines": "", "bridge": "", "bridge:structure": "", "covered": "", "location": "", "usage": "", "note:cs": "", "railway:preferred_direction": "", "ref": "", "wikidata": "", "wikipedia": "", "name:cs": "", "incline": "" }, "geometry": { "type": "LineString", "coordinates": [ [ 14.4303747, 50.0797819 ], [ 14.4300921, 50.0794319 ], [ 14.4297956, 50.0788906 ], [ 14.4296003, 50.0784426 ], [ 14.4294761, 50.0779895 ], [ 14.4294212, 50.0774736 ], [ 14.4295566, 50.0769858 ], [ 14.4298063, 50.0763748 ], [ 14.4299907, 50.0757542 ], [ 14.4301436, 50.0747939 ] ] } },
{ "type": "Feature", "properties": { "full_id": "w935630983", "osm_id": "935630983", "osm_type": "way", "electrified": "rail", "frequency": "0", "gauge": "1435", "layer": "-2", "maxspeed": "", "oneway": "yes", "railway": "subway", "railway:track_ref": "", "service": "", "tunnel": "yes", "voltage": "750", "colour": "red", "level": "", "name": "Metro C", "name:be": "лінія Ц", "name:de": "U-Bahn C", "name:en": "Subway C", "name:ru": "Линия Ц", "operator": "cz:DPP", "passenger_lines": "", "bridge": "", "bridge:structure": "", "covered": "", "location": "", "usage": "", "note:cs": "", "railway:preferred_direction": "", "ref": "", "wikidata": "", "wikipedia": "", "name:cs": "", "incline": "" }, "geometry": { "type": "LineString", "coordinates": [ [ 14.4398992, 50.0505978 ], [ 14.4399862, 50.0504878 ] ] } },
{ "type": "Feature", "properties": { "full_id": "w935630974", "osm_id": "935630974", "osm_type": "way", "electrified": "rail", "frequency": "0", "gauge": "1435", "layer": "-2", "maxspeed": "", "oneway": "yes", "railway": "subway", "railway:track_ref": "", "service": "", "tunnel": "yes", "voltage": "750", "colour": "red", "level": "-2", "name": "Metro C", "name:be": "лінія Ц", "name:de": "U-Bahn C", "name:en": "Subway C", "name:ru": "Линия Ц", "operator": "cz:DPP", "passenger_lines": "", "bridge": "", "bridge:structure": "", "covered": "", "location": "", "usage": "", "note:cs": "", "railway:preferred_direction": "", "ref": "", "wikidata": "Q168571", "wikipedia": "cs:C (linka metra v Praze)", "name:cs": "", "incline": "" }, "geometry": { "type": "LineString", "coordinates": [ [ 14.4351193, 50.0846992 ], [ 14.435358, 50.0849217 ], [ 14.4366702, 50.0859996 ], [ 14.4370737, 50.0864439 ], [ 14.4374355, 50.0869915 ], [ 14.4384626, 50.0886243 ], [ 14.4390195, 50.0895226 ], [ 14.4390427, 50.089567 ] ] } },
{ "type": "Feature", "properties": { "full_id": "w935630973", "osm_id": "935630973", "osm_type": "way", "electrified": "rail", "frequency": "0", "gauge": "1435", "layer": "-2", "maxspeed": "60", "oneway": "yes", "railway": "subway", "railway:track_ref": "", "service": "", "tunnel": "yes", "voltage": "750", "colour": "red", "level": "-2", "name": "Metro C", "name:be": "лінія Ц", "name:de": "U-Bahn C", "name:en": "Subway C", "name:ru": "Линия Ц", "operator": "cz:DPP", "passenger_lines": "", "bridge": "", "bridge:structure": "", "covered": "", "location": "", "usage": "", "note:cs": "", "railway:preferred_direction": "", "ref": "", "wikidata": "Q168571", "wikipedia": "cs:C (linka metra v Praze)", "name:cs": "", "incline": "" }, "geometry": { "type": "LineString", "coordinates": [ [ 14.438653, 50.0997186 ], [ 14.4386406, 50.1006351 ], [ 14.4386401, 50.1006667 ] ] } },
{ "type": "Feature", "properties": { "full_id": "w935630972", "osm_id": "935630972", "osm_type": "way", "electrified": "rail", "frequency": "0", "gauge": "1435", "layer": "-3", "maxspeed": "60", "oneway": "yes", "railway": "subway", "railway:track_ref": "", "service": "", "tunnel": "yes", "voltage": "750", "colour": "red", "level": "-4", "name": "Metro C", "name:be": "лінія Ц", "name:de": "U-Bahn C", "name:en": "Subway C", "name:ru": "Линия Ц", "operator": "cz:DPP", "passenger_lines": "2", "bridge": "", "bridge:structure": "", "covered": "", "location": "", "usage": "", "note:cs": "", "railway:preferred_direction": "", "ref": "", "wikidata": "", "wikipedia": "", "name:cs": "", "incline": "" }, "geometry": { "type": "LineString", "coordinates": [ [ 14.4384477, 50.1006658 ], [ 14.4384631, 50.0997535 ], [ 14.4384642, 50.099715 ] ] } },
{ "type": "Feature", "properties": { "full_id": "w935630971", "osm_id": "935630971", "osm_type": "way", "electrified": "rail", "frequency": "0", "gauge": "1435", "layer": "-3", "maxspeed": "", "oneway": "yes", "railway": "subway", "railway:track_ref": "", "service": "", "tunnel": "yes", "voltage": "750", "colour": "red", "level": "-4", "name": "Metro C", "name:be": "лінія Ц", "name:de": "U-Bahn C", "name:en": "Subway C", "name:ru": "Линия Ц", "operator": "cz:DPP", "passenger_lines": "2", "bridge": "", "bridge:structure": "", "covered": "", "location": "", "usage": "", "note:cs": "", "railway:preferred_direction": "", "ref": "", "wikidata": "", "wikipedia": "", "name:cs": "", "incline": "" }, "geometry": { "type": "LineString", "coordinates": [ [ 14.4404102, 50.1085378 ], [ 14.4405144, 50.1084058 ] ] } },
{ "type": "Feature", "properties": { "full_id": "w935630978", "osm_id": "935630978", "osm_type": "way", "electrified": "rail", "frequency": "0", "gauge": "1435", "layer": "-2", "maxspeed": "60", "oneway": "yes", "railway": "subway", "railway:track_ref": "", "service": "", "tunnel": "yes", "voltage": "750", "colour": "red", "level": "-2", "name": "Metro C", "name:be": "лінія Ц", "name:de": "U-Bahn C", "name:en": "Subway C", "name:ru": "Линия Ц", "operator": "cz:DPP", "passenger_lines": "", "bridge": "", "bridge:structure": "", "covered": "", "location": "", "usage": "", "note:cs": "", "railway:preferred_direction": "", "ref": "", "wikidata": "", "wikipedia": "", "name:cs": "", "incline": "" }, "geometry": { "type": "LineString", "coordinates": [ [ 14.4301436, 50.0747939 ], [ 14.4302957, 50.0738711 ] ] } },
{ "type": "Feature", "properties": { "full_id": "w935630977", "osm_id": "935630977", "osm_type": "way", "electrified": "rail", "frequency": "0", "gauge": "1435", "layer": "-2", "maxspeed": "60", "oneway": "yes", "railway": "subway", "railway:track_ref": "", "service": "", "tunnel": "yes", "voltage": "750", "colour": "red", "level": "-2", "name": "Metro C", "name:be": "лінія Ц", "name:de": "U-Bahn C", "name:en": "Subway C", "name:ru": "Линия Ц", "operator": "cz:DPP", "passenger_lines": "", "bridge": "", "bridge:structure": "", "covered": "", "location": "", "usage": "", "note:cs": "", "railway:preferred_direction": "", "ref": "", "wikidata": "Q168571", "wikipedia": "cs:C (linka metra v Praze)", "name:cs": "", "incline": "" }, "geometry": { "type": "LineString", "coordinates": [ [ 14.4390427, 50.089567 ], [ 14.439449, 50.0904474 ] ] } },
{ "type": "Feature", "properties": { "full_id": "w935630976", "osm_id": "935630976", "osm_type": "way", "electrified": "rail", "frequency": "0", "gauge": "1435", "layer": "-2", "maxspeed": "60", "oneway": "yes", "railway": "subway", "railway:track_ref": "", "service": "", "tunnel": "yes", "voltage": "750", "colour": "red", "level": "-2", "name": "Metro C", "name:be": "лінія Ц", "name:de": "U-Bahn C", "name:en": "Subway C", "name:ru": "Линия Ц", "operator": "cz:DPP", "passenger_lines": "", "bridge": "", "bridge:structure": "", "covered": "", "location": "", "usage": "", "note:cs": "", "railway:preferred_direction": "", "ref": "", "wikidata": "Q168571", "wikipedia": "cs:C (linka metra v Praze)", "name:cs": "", "incline": "" }, "geometry": { "type": "LineString", "coordinates": [ [ 14.4393111, 50.0904936 ], [ 14.4388736, 50.0896263 ], [ 14.4388545, 50.0895896 ] ] } },
{ "type": "Feature", "properties": { "full_id": "w935630975", "osm_id": "935630975", "osm_type": "way", "electrified": "rail", "frequency": "0", "gauge": "1435", "layer": "-2", "maxspeed": "", "oneway": "yes", "railway": "subway", "railway:track_ref": "", "service": "", "tunnel": "yes", "voltage": "750", "colour": "red", "level": "-2", "name": "Metro C", "name:be": "лінія Ц", "name:de": "U-Bahn C", "name:en": "Subway C", "name:ru": "Линия Ц", "operator": "cz:DPP", "passenger_lines": "", "bridge": "", "bridge:structure": "", "covered": "", "location": "", "usage": "", "note:cs": "", "railway:preferred_direction": "", "ref": "", "wikidata": "Q168571", "wikipedia": "cs:C (linka metra v Praze)", "name:cs": "", "incline": "" }, "geometry": { "type": "LineString", "coordinates": [ [ 14.4388545, 50.0895896 ], [ 14.4388354, 50.0895528 ], [ 14.438323, 50.0886481 ], [ 14.4372706, 50.0870467 ] ] } },
{ "type": "Feature", "properties": { "full_id": "w488223145", "osm_id": "488223145", "osm_type": "way", "electrified": "rail", "frequency": "0", "gauge": "1435", "layer": "-2", "maxspeed": "", "oneway": "yes", "railway": "subway", "railway:track_ref": "", "service": "", "tunnel": "yes", "voltage": "750", "colour": "red", "level": "-2", "name": "Metro C", "name:be": "лінія Ц", "name:de": "U-Bahn C", "name:en": "Subway C", "name:ru": "Линия Ц", "operator": "cz:DPP", "passenger_lines": "", "bridge": "", "bridge:structure": "", "covered": "", "location": "", "usage": "", "note:cs": "", "railway:preferred_direction": "", "ref": "", "wikidata": "Q168571", "wikipedia": "cs:C (linka metra v Praze)", "name:cs": "", "incline": "" }, "geometry": { "type": "LineString", "coordinates": [ [ 14.4405839, 50.0930946 ], [ 14.4401306, 50.0921407 ], [ 14.4394694, 50.0908073 ], [ 14.4393111, 50.0904936 ] ] } },
{ "type": "Feature", "properties": { "full_id": "w935630966", "osm_id": "935630966", "osm_type": "way", "electrified": "rail", "frequency": "0", "gauge": "1435", "layer": "-3", "maxspeed": "60", "oneway": "yes", "railway": "subway", "railway:track_ref": "", "service": "", "tunnel": "yes", "voltage": "750", "colour": "red", "level": "-3", "name": "Metro C", "name:be": "лінія Ц", "name:de": "U-Bahn C", "name:en": "Subway C", "name:ru": "Линия Ц", "operator": "cz:DPP", "passenger_lines": "", "bridge": "", "bridge:structure": "", "covered": "", "location": "", "usage": "", "note:cs": "", "railway:preferred_direction": "", "ref": "", "wikidata": "", "wikipedia": "", "name:cs": "", "incline": "" }, "geometry": { "type": "LineString", "coordinates": [ [ 14.4900604, 50.1258498 ], [ 14.4891643, 50.1265147 ] ] } },
{ "type": "Feature", "properties": { "full_id": "w935630965", "osm_id": "935630965", "osm_type": "way", "electrified": "rail", "frequency": "0", "gauge": "1435", "layer": "-4", "maxspeed": "60", "oneway": "yes", "railway": "subway", "railway:track_ref": "", "service": "", "tunnel": "yes", "voltage": "750", "colour": "red", "level": "-3", "name": "Metro C", "name:be": "лінія Ц", "name:de": "U-Bahn C", "name:en": "Subway C", "name:ru": "Линия Ц", "operator": "cz:DPP", "passenger_lines": "", "bridge": "", "bridge:structure": "", "covered": "", "location": "", "usage": "", "note:cs": "", "railway:preferred_direction": "", "ref": "", "wikidata": "", "wikipedia": "", "name:cs": "", "incline": "" }, "geometry": { "type": "LineString", "coordinates": [ [ 14.4891229, 50.1264936 ], [ 14.4900155, 50.1258255 ] ] } },
{ "type": "Feature", "properties": { "full_id": "w935630964", "osm_id": "935630964", "osm_type": "way", "electrified": "rail", "frequency": "0", "gauge": "1435", "layer": "-2", "maxspeed": "", "oneway": "yes", "railway": "subway", "railway:track_ref": "", "service": "", "tunnel": "yes", "voltage": "750", "colour": "red", "level": "", "name": "Metro C", "name:be": "лінія Ц", "name:de": "U-Bahn C", "name:en": "Subway C", "name:ru": "Линия Ц", "operator": "cz:DPP", "passenger_lines": "", "bridge": "", "bridge:structure": "", "covered": "", "location": "", "usage": "", "note:cs": "", "railway:preferred_direction": "", "ref": "", "wikidata": "", "wikipedia": "", "name:cs": "", "incline": "" }, "geometry": { "type": "LineString", "coordinates": [ [ 14.4900155, 50.1258255 ], [ 14.4935383, 50.1230779 ], [ 14.4986423, 50.1191544 ] ] } },
{ "type": "Feature", "properties": { "full_id": "w935630963", "osm_id": "935630963", "osm_type": "way", "electrified": "rail", "frequency": "0", "gauge": "1435", "layer": "-3", "maxspeed": "", "oneway": "yes", "railway": "subway", "railway:track_ref": "", "service": "", "tunnel": "yes", "voltage": "750", "colour": "red", "level": "", "name": "Metro C", "name:be": "лінія Ц", "name:de": "U-Bahn C", "name:en": "Subway C", "name:ru": "Линия Ц", "operator": "cz:DPP", "passenger_lines": "", "bridge": "", "bridge:structure": "", "covered": "", "location": "", "usage": "", "note:cs": "", "railway:preferred_direction": "", "ref": "", "wikidata": "", "wikipedia": "", "name:cs": "", "incline": "" }, "geometry": { "type": "LineString", "coordinates": [ [ 14.4987397, 50.1192034 ], [ 14.4935908, 50.1231181 ], [ 14.4900604, 50.1258498 ] ] } },
{ "type": "Feature", "properties": { "full_id": "w935630970", "osm_id": "935630970", "osm_type": "way", "electrified": "rail", "frequency": "0", "gauge": "1435", "layer": "-3", "maxspeed": "60", "oneway": "yes", "railway": "subway", "railway:track_ref": "", "service": "", "tunnel": "yes", "voltage": "750", "colour": "red", "level": "-4", "name": "Metro C", "name:be": "лінія Ц", "name:de": "U-Bahn C", "name:en": "Subway C", "name:ru": "Линия Ц", "operator": "cz:DPP", "passenger_lines": "2", "bridge": "", "bridge:structure": "", "covered": "", "location": "", "usage": "", "note:cs": "", "railway:preferred_direction": "", "ref": "", "wikidata": "", "wikipedia": "", "name:cs": "", "incline": "" }, "geometry": { "type": "LineString", "coordinates": [ [ 14.4550726, 50.1243874 ], [ 14.4534004, 50.123916 ] ] } },
{ "type": "Feature", "properties": { "full_id": "w935630969", "osm_id": "935630969", "osm_type": "way", "electrified": "rail", "frequency": "0", "gauge": "1435", "layer": "-3", "maxspeed": "", "oneway": "yes", "railway": "subway", "railway:track_ref": "", "service": "", "tunnel": "yes", "voltage": "750", "colour": "red", "level": "-4", "name": "Metro C", "name:be": "лінія Ц", "name:de": "U-Bahn C", "name:en": "Subway C", "name:ru": "Линия Ц", "operator": "cz:DPP", "passenger_lines": "2", "bridge": "", "bridge:structure": "", "covered": "", "location": "", "usage": "", "note:cs": "", "railway:preferred_direction": "", "ref": "", "wikidata": "", "wikipedia": "", "name:cs": "", "incline": "" }, "geometry": { "type": "LineString", "coordinates": [ [ 14.4673248, 50.1264358 ], [ 14.4635601, 50.12626 ], [ 14.4612334, 50.1259909 ], [ 14.4587593, 50.1254588 ], [ 14.4586499, 50.1254257 ], [ 14.4562635, 50.124704 ], [ 14.4556661, 50.1245393 ], [ 14.4550726, 50.1243874 ] ] } },
{ "type": "Feature", "properties": { "full_id": "w935630968", "osm_id": "935630968", "osm_type": "way", "electrified": "rail", "frequency": "0", "gauge": "1435", "layer": "-2", "maxspeed": "60", "oneway": "yes", "railway": "subway", "railway:track_ref": "", "service": "", "tunnel": "yes", "voltage": "750", "colour": "red", "level": "-2", "name": "Metro C", "name:be": "лінія Ц", "name:de": "U-Bahn C", "name:en": "Subway C", "name:ru": "Линия Ц", "operator": "cz:DPP", "passenger_lines": "", "bridge": "", "bridge:structure": "", "covered": "", "location": "", "usage": "", "note:cs": "", "railway:preferred_direction": "", "ref": "", "wikidata": "", "wikipedia": "", "name:cs": "", "incline": "" }, "geometry": { "type": "LineString", "coordinates": [ [ 14.4534203, 50.1238883 ], [ 14.4550861, 50.1243709 ] ] } },
{ "type": "Feature", "properties": { "full_id": "w935630967", "osm_id": "935630967", "osm_type": "way", "electrified": "rail", "frequency": "0", "gauge": "1435", "layer": "-2", "maxspeed": "", "oneway": "yes", "railway": "subway", "railway:track_ref": "", "service": "", "tunnel": "yes", "voltage": "750", "colour": "red", "level": "-2", "name": "Metro C", "name:be": "лінія Ц", "name:de": "U-Bahn C", "name:en": "Subway C", "name:ru": "Линия Ц", "operator": "cz:DPP", "passenger_lines": "", "bridge": "", "bridge:structure": "", "covered": "", "location": "", "usage": "", "note:cs": "", "railway:preferred_direction": "", "ref": "", "wikidata": "", "wikipedia": "", "name:cs": "", "incline": "" }, "geometry": { "type": "LineString", "coordinates": [ [ 14.4550861, 50.1243709 ], [ 14.4556739, 50.12452 ], [ 14.4562715, 50.1246854 ], [ 14.4587745, 50.1254282 ], [ 14.4612545, 50.1259686 ], [ 14.46357, 50.1262012 ], [ 14.4673305, 50.1263757 ] ] } },
{ "type": "Feature", "properties": { "full_id": "w668153289", "osm_id": "668153289", "osm_type": "way", "electrified": "rail", "frequency": "0", "gauge": "1435", "layer": "1", "maxspeed": "", "oneway": "yes", "railway": "subway", "railway:track_ref": "", "service": "", "tunnel": "", "voltage": "750", "colour": "red", "level": "", "name": "Metro C", "name:be": "лінія Ц", "name:de": "U-Bahn C", "name:en": "Subway C", "name:ru": "Линия Ц", "operator": "cz:DPP", "passenger_lines": "", "bridge": "yes", "bridge:structure": "beam", "covered": "yes", "location": "", "usage": "", "note:cs": "", "railway:preferred_direction": "", "ref": "", "wikidata": "Q12038737", "wikipedia": "cs:Most metra na Kačerově", "name:cs": "", "incline": "" }, "geometry": { "type": "LineString", "coordinates": [ [ 14.4610186, 50.0415143 ], [ 14.4621116, 50.041353 ] ] } },
{ "type": "Feature", "properties": { "full_id": "w668153285", "osm_id": "668153285", "osm_type": "way", "electrified": "rail", "frequency": "0", "gauge": "1435", "layer": "1", "maxspeed": "", "oneway": "yes", "railway": "subway", "railway:track_ref": "", "service": "", "tunnel": "", "voltage": "750", "colour": "red", "level": "", "name": "Metro C", "name:be": "лінія Ц", "name:de": "U-Bahn C", "name:en": "Subway C", "name:ru": "Линия Ц", "operator": "cz:DPP", "passenger_lines": "", "bridge": "yes", "bridge:structure": "beam", "covered": "yes", "location": "", "usage": "", "note:cs": "", "railway:preferred_direction": "", "ref": "", "wikidata": "Q12038737", "wikipedia": "cs:Most metra na Kačerově", "name:cs": "", "incline": "" }, "geometry": { "type": "LineString", "coordinates": [ [ 14.462157, 50.041476 ], [ 14.4610657, 50.041636 ] ] } },
{ "type": "Feature", "properties": { "full_id": "w668343293", "osm_id": "668343293", "osm_type": "way", "electrified": "rail", "frequency": "0", "gauge": "1435", "layer": "-2", "maxspeed": "", "oneway": "yes", "railway": "subway", "railway:track_ref": "", "service": "", "tunnel": "yes", "voltage": "750", "colour": "red", "level": "", "name": "Metro C", "name:be": "лінія Ц", "name:de": "U-Bahn C", "name:en": "Subway C", "name:ru": "Линия Ц", "operator": "cz:DPP", "passenger_lines": "", "bridge": "", "bridge:structure": "", "covered": "", "location": "", "usage": "", "note:cs": "", "railway:preferred_direction": "", "ref": "", "wikidata": "", "wikipedia": "", "name:cs": "", "incline": "" }, "geometry": { "type": "LineString", "coordinates": [ [ 14.4424189, 50.0484658 ], [ 14.441995, 50.0487379 ], [ 14.4416275, 50.048998 ], [ 14.4412843, 50.0493011 ], [ 14.4410656, 50.0495293 ], [ 14.4409168, 50.0496938 ], [ 14.440623, 50.050005 ] ] } },
{ "type": "Feature", "properties": { "full_id": "w668343292", "osm_id": "668343292", "osm_type": "way", "electrified": "rail", "frequency": "0", "gauge": "1435", "layer": "-2", "maxspeed": "", "oneway": "yes", "railway": "subway", "railway:track_ref": "", "service": "", "tunnel": "yes", "voltage": "750", "colour": "red", "level": "", "name": "Metro C", "name:be": "лінія Ц", "name:de": "U-Bahn C", "name:en": "Subway C", "name:ru": "Линия Ц", "operator": "cz:DPP", "passenger_lines": "", "bridge": "", "bridge:structure": "", "covered": "", "location": "", "usage": "", "note:cs": "", "railway:preferred_direction": "", "ref": "", "wikidata": "", "wikipedia": "", "name:cs": "", "incline": "" }, "geometry": { "type": "LineString", "coordinates": [ [ 14.440623, 50.050005 ], [ 14.4403937, 50.0502604 ], [ 14.4401966, 50.0504826 ], [ 14.4400987, 50.0505976 ] ] } },
{ "type": "Feature", "properties": { "full_id": "w566148113", "osm_id": "566148113", "osm_type": "way", "electrified": "rail", "frequency": "0", "gauge": "1435", "layer": "-2", "maxspeed": "", "oneway": "yes", "railway": "subway", "railway:track_ref": "", "service": "", "tunnel": "yes", "voltage": "750", "colour": "red", "level": "-2", "name": "Metro C", "name:be": "лінія Ц", "name:de": "U-Bahn C", "name:en": "Subway C", "name:ru": "Линия Ц", "operator": "cz:DPP", "passenger_lines": "", "bridge": "", "bridge:structure": "", "covered": "", "location": "", "usage": "", "note:cs": "", "railway:preferred_direction": "", "ref": "", "wikidata": "", "wikipedia": "", "name:cs": "", "incline": "" }, "geometry": { "type": "LineString", "coordinates": [ [ 14.4685134, 50.1264499 ], [ 14.4687943, 50.1264705 ] ] } },
{ "type": "Feature", "properties": { "full_id": "w668343291", "osm_id": "668343291", "osm_type": "way", "electrified": "rail", "frequency": "0", "gauge": "1435", "layer": "-2", "maxspeed": "60", "oneway": "yes", "railway": "subway", "railway:track_ref": "", "service": "", "tunnel": "yes", "voltage": "750", "colour": "red", "level": "-2", "name": "Metro C", "name:be": "лінія Ц", "name:de": "U-Bahn C", "name:en": "Subway C", "name:ru": "Линия Ц", "operator": "cz:DPP", "passenger_lines": "", "bridge": "", "bridge:structure": "", "covered": "", "location": "", "usage": "", "note:cs": "", "railway:preferred_direction": "", "ref": "", "wikidata": "", "wikipedia": "", "name:cs": "", "incline": "" }, "geometry": { "type": "LineString", "coordinates": [ [ 14.4494134, 50.0441038 ], [ 14.4483011, 50.0447806 ] ] } },
{ "type": "Feature", "properties": { "full_id": "w668343290", "osm_id": "668343290", "osm_type": "way", "electrified": "rail", "frequency": "0", "gauge": "1435", "layer": "-2", "maxspeed": "60", "oneway": "yes", "railway": "subway", "railway:track_ref": "", "service": "", "tunnel": "yes", "voltage": "750", "colour": "red", "level": "-2", "name": "Metro C", "name:be": "лінія Ц", "name:de": "U-Bahn C", "name:en": "Subway C", "name:ru": "Линия Ц", "operator": "cz:DPP", "passenger_lines": "", "bridge": "", "bridge:structure": "", "covered": "", "location": "", "usage": "", "note:cs": "", "railway:preferred_direction": "", "ref": "", "wikidata": "", "wikipedia": "", "name:cs": "", "incline": "" }, "geometry": { "type": "LineString", "coordinates": [ [ 14.440069, 50.0506342 ], [ 14.4394383, 50.0514545 ] ] } },
{ "type": "Feature", "properties": { "full_id": "w566148111", "osm_id": "566148111", "osm_type": "way", "electrified": "rail", "frequency": "0", "gauge": "1435", "layer": "-3", "maxspeed": "", "oneway": "yes", "railway": "subway", "railway:track_ref": "", "service": "", "tunnel": "yes", "voltage": "750", "colour": "red", "level": "-4", "name": "Metro C", "name:be": "лінія Ц", "name:de": "U-Bahn C", "name:en": "Subway C", "name:ru": "Линия Ц", "operator": "cz:DPP", "passenger_lines": "2", "bridge": "", "bridge:structure": "", "covered": "", "location": "", "usage": "", "note:cs": "", "railway:preferred_direction": "", "ref": "", "wikidata": "", "wikipedia": "", "name:cs": "", "incline": "" }, "geometry": { "type": "LineString", "coordinates": [ [ 14.4687921, 50.1265365 ], [ 14.4685022, 50.1265133 ] ] } },
{ "type": "Feature", "properties": { "full_id": "w668144257", "osm_id": "668144257", "osm_type": "way", "electrified": "rail", "frequency": "0", "gauge": "1435", "layer": "-2", "maxspeed": "", "oneway": "yes", "railway": "subway", "railway:track_ref": "", "service": "", "tunnel": "yes", "voltage": "750", "colour": "red", "level": "-2", "name": "Metro C", "name:be": "лінія Ц", "name:de": "U-Bahn C", "name:en": "Subway C", "name:ru": "Линия Ц", "operator": "cz:DPP", "passenger_lines": "", "bridge": "", "bridge:structure": "", "covered": "", "location": "", "usage": "", "note:cs": "", "railway:preferred_direction": "", "ref": "", "wikidata": "", "wikipedia": "", "name:cs": "", "incline": "" }, "geometry": { "type": "LineString", "coordinates": [ [ 14.4497232, 50.0439153 ], [ 14.4494134, 50.0441038 ] ] } },
{ "type": "Feature", "properties": { "full_id": "w566148110", "osm_id": "566148110", "osm_type": "way", "electrified": "rail", "frequency": "0", "gauge": "1435", "layer": "-3", "maxspeed": "", "oneway": "yes", "railway": "subway", "railway:track_ref": "", "service": "", "tunnel": "yes", "voltage": "750", "colour": "red", "level": "-4", "name": "Metro C", "name:be": "лінія Ц", "name:de": "U-Bahn C", "name:en": "Subway C", "name:ru": "Линия Ц", "operator": "cz:DPP", "passenger_lines": "2", "bridge": "", "bridge:structure": "", "covered": "", "location": "", "usage": "", "note:cs": "", "railway:preferred_direction": "", "ref": "", "wikidata": "", "wikipedia": "", "name:cs": "", "incline": "" }, "geometry": { "type": "LineString", "coordinates": [ [ 14.4685022, 50.1265133 ], [ 14.4673248, 50.1264358 ] ] } },
{ "type": "Feature", "properties": { "full_id": "w668144256", "osm_id": "668144256", "osm_type": "way", "electrified": "rail", "frequency": "0", "gauge": "1435", "layer": "-2", "maxspeed": "", "oneway": "yes", "railway": "subway", "railway:track_ref": "", "service": "", "tunnel": "yes", "voltage": "750", "colour": "red", "level": "-2", "name": "Metro C", "name:be": "лінія Ц", "name:de": "U-Bahn C", "name:en": "Subway C", "name:ru": "Линия Ц", "operator": "cz:DPP", "passenger_lines": "", "bridge": "", "bridge:structure": "", "covered": "", "location": "", "usage": "", "note:cs": "", "railway:preferred_direction": "", "ref": "", "wikidata": "", "wikipedia": "", "name:cs": "", "incline": "" }, "geometry": { "type": "LineString", "coordinates": [ [ 14.4525809, 50.042935 ], [ 14.4523083, 50.0429785 ], [ 14.4520391, 50.0430301 ], [ 14.451774, 50.0430897 ], [ 14.4515134, 50.043157 ], [ 14.4512579, 50.043232 ], [ 14.4509893, 50.0432964 ], [ 14.4507548, 50.0433726 ], [ 14.4505129, 50.0434766 ], [ 14.4502987, 50.0435904 ], [ 14.4501237, 50.0436912 ], [ 14.4499196, 50.0438004 ], [ 14.4497232, 50.0439153 ] ] } },
{ "type": "Feature", "properties": { "full_id": "w565573857", "osm_id": "565573857", "osm_type": "way", "electrified": "rail", "frequency": "0", "gauge": "1435", "layer": "-3", "maxspeed": "", "oneway": "yes", "railway": "subway", "railway:track_ref": "", "service": "", "tunnel": "yes", "voltage": "750", "colour": "red", "level": "-4", "name": "Metro C", "name:be": "лінія Ц", "name:de": "U-Bahn C", "name:en": "Subway C", "name:ru": "Линия Ц", "operator": "cz:DPP", "passenger_lines": "2", "bridge": "", "bridge:structure": "", "covered": "", "location": "", "usage": "", "note:cs": "", "railway:preferred_direction": "", "ref": "", "wikidata": "", "wikipedia": "", "name:cs": "", "incline": "" }, "geometry": { "type": "LineString", "coordinates": [ [ 14.4402648, 50.1043484 ], [ 14.4394684, 50.1034531 ] ] } },
{ "type": "Feature", "properties": { "full_id": "w668144261", "osm_id": "668144261", "osm_type": "way", "electrified": "rail", "frequency": "0", "gauge": "1435", "layer": "-2", "maxspeed": "", "oneway": "yes", "railway": "subway", "railway:track_ref": "", "service": "", "tunnel": "yes", "voltage": "750", "colour": "red", "level": "-2", "name": "Metro C", "name:be": "лінія Ц", "name:de": "U-Bahn C", "name:en": "Subway C", "name:ru": "Линия Ц", "operator": "cz:DPP", "passenger_lines": "", "bridge": "", "bridge:structure": "", "covered": "", "location": "", "usage": "", "note:cs": "", "railway:preferred_direction": "", "ref": "", "wikidata": "", "wikipedia": "", "name:cs": "", "incline": "" }, "geometry": { "type": "LineString", "coordinates": [ [ 14.4525397, 50.0428201 ], [ 14.4585924, 50.0418924 ] ] } },
{ "type": "Feature", "properties": { "full_id": "w668144260", "osm_id": "668144260", "osm_type": "way", "electrified": "rail", "frequency": "0", "gauge": "1435", "layer": "-2", "maxspeed": "", "oneway": "yes", "railway": "subway", "railway:track_ref": "", "service": "", "tunnel": "yes", "voltage": "750", "colour": "red", "level": "-2", "name": "Metro C", "name:be": "лінія Ц", "name:de": "U-Bahn C", "name:en": "Subway C", "name:ru": "Линия Ц", "operator": "cz:DPP", "passenger_lines": "", "bridge": "", "bridge:structure": "", "covered": "", "location": "", "usage": "", "note:cs": "", "railway:preferred_direction": "", "ref": "", "wikidata": "", "wikipedia": "", "name:cs": "", "incline": "" }, "geometry": { "type": "LineString", "coordinates": [ [ 14.4492486, 50.0440427 ], [ 14.449589, 50.0438357 ] ] } },
{ "type": "Feature", "properties": { "full_id": "w668144259", "osm_id": "668144259", "osm_type": "way", "electrified": "rail", "frequency": "0", "gauge": "1435", "layer": "-2", "maxspeed": "", "oneway": "yes", "railway": "subway", "railway:track_ref": "", "service": "", "tunnel": "yes", "voltage": "750", "colour": "red", "level": "-2", "name": "Metro C", "name:be": "лінія Ц", "name:de": "U-Bahn C", "name:en": "Subway C", "name:ru": "Линия Ц", "operator": "cz:DPP", "passenger_lines": "", "bridge": "", "bridge:structure": "", "covered": "", "location": "", "usage": "", "note:cs": "", "railway:preferred_direction": "", "ref": "", "wikidata": "", "wikipedia": "", "name:cs": "", "incline": "" }, "geometry": { "type": "LineString", "coordinates": [ [ 14.449589, 50.0438357 ], [ 14.4497917, 50.0437147 ], [ 14.4500029, 50.0435997 ], [ 14.450222, 50.0434911 ], [ 14.4504312, 50.043389 ], [ 14.4506621, 50.0432902 ], [ 14.4509223, 50.0432052 ], [ 14.4511419, 50.0431323 ], [ 14.451366, 50.0430651 ], [ 14.4515941, 50.0430039 ], [ 14.4518259, 50.0429487 ], [ 14.4520611, 50.0428996 ], [ 14.4522991, 50.0428567 ], [ 14.4525397, 50.0428201 ] ] } },
{ "type": "Feature", "properties": { "full_id": "w668144258", "osm_id": "668144258", "osm_type": "way", "electrified": "rail", "frequency": "0", "gauge": "1435", "layer": "-2", "maxspeed": "", "oneway": "yes", "railway": "subway", "railway:track_ref": "", "service": "", "tunnel": "yes", "voltage": "750", "colour": "red", "level": "-2", "name": "Metro C", "name:be": "лінія Ц", "name:de": "U-Bahn C", "name:en": "Subway C", "name:ru": "Линия Ц", "operator": "cz:DPP", "passenger_lines": "", "bridge": "", "bridge:structure": "", "covered": "", "location": "", "usage": "", "note:cs": "", "railway:preferred_direction": "", "ref": "", "wikidata": "", "wikipedia": "", "name:cs": "", "incline": "" }, "geometry": { "type": "LineString", "coordinates": [ [ 14.458658, 50.0420049 ], [ 14.4525809, 50.042935 ] ] } },
{ "type": "Feature", "properties": { "full_id": "w565573858", "osm_id": "565573858", "osm_type": "way", "electrified": "rail", "frequency": "0", "gauge": "1435", "layer": "-3", "maxspeed": "", "oneway": "yes", "railway": "subway", "railway:track_ref": "", "service": "", "tunnel": "yes", "voltage": "750", "colour": "red", "level": "-4", "name": "Metro C", "name:be": "лінія Ц", "name:de": "U-Bahn C", "name:en": "Subway C", "name:ru": "Линия Ц", "operator": "cz:DPP", "passenger_lines": "2", "bridge": "", "bridge:structure": "", "covered": "", "location": "", "usage": "", "note:cs": "", "railway:preferred_direction": "", "ref": "", "wikidata": "", "wikipedia": "", "name:cs": "", "incline": "" }, "geometry": { "type": "LineString", "coordinates": [ [ 14.4384642, 50.099715 ], [ 14.4385425, 50.0989957 ], [ 14.4387582, 50.0980515 ], [ 14.439082, 50.0974656 ], [ 14.4398936, 50.0963066 ], [ 14.4403702, 50.0954773 ], [ 14.4405547, 50.0950707 ], [ 14.4407009, 50.0946743 ], [ 14.4407643, 50.0940783 ], [ 14.4407317, 50.0935926 ], [ 14.4405839, 50.0930946 ] ] } },
{ "type": "Feature", "properties": { "full_id": "w655750649", "osm_id": "655750649", "osm_type": "way", "electrified": "rail", "frequency": "0", "gauge": "1435", "layer": "-2", "maxspeed": "", "oneway": "yes", "railway": "subway", "railway:track_ref": "", "service": "", "tunnel": "yes", "voltage": "750", "colour": "red", "level": "-2", "name": "Metro C", "name:be": "лінія Ц", "name:de": "U-Bahn C", "name:en": "Subway C", "name:ru": "Линия Ц", "operator": "cz:DPP", "passenger_lines": "", "bridge": "", "bridge:structure": "", "covered": "", "location": "", "usage": "", "note:cs": "", "railway:preferred_direction": "", "ref": "", "wikidata": "", "wikipedia": "", "name:cs": "", "incline": "" }, "geometry": { "type": "LineString", "coordinates": [ [ 14.4406995, 50.1084626 ], [ 14.4405869, 50.1085982 ] ] } },
{ "type": "Feature", "properties": { "full_id": "w655750648", "osm_id": "655750648", "osm_type": "way", "electrified": "rail", "frequency": "0", "gauge": "1435", "layer": "-2", "maxspeed": "", "oneway": "yes", "railway": "subway", "railway:track_ref": "", "service": "", "tunnel": "yes", "voltage": "750", "colour": "red", "level": "-2", "name": "Metro C", "name:be": "лінія Ц", "name:de": "U-Bahn C", "name:en": "Subway C", "name:ru": "Линия Ц", "operator": "cz:DPP", "passenger_lines": "", "bridge": "", "bridge:structure": "", "covered": "", "location": "", "usage": "", "note:cs": "", "railway:preferred_direction": "", "ref": "", "wikidata": "", "wikipedia": "", "name:cs": "", "incline": "" }, "geometry": { "type": "LineString", "coordinates": [ [ 14.4396417, 50.1033969 ], [ 14.4404356, 50.1042876 ] ] } },
{ "type": "Feature", "properties": { "full_id": "w655750647", "osm_id": "655750647", "osm_type": "way", "electrified": "rail", "frequency": "0", "gauge": "1435", "layer": "-2", "maxspeed": "", "oneway": "yes", "railway": "subway", "railway:track_ref": "", "service": "", "tunnel": "yes", "voltage": "750", "colour": "red", "level": "-2", "name": "Metro C", "name:be": "лінія Ц", "name:de": "U-Bahn C", "name:en": "Subway C", "name:ru": "Линия Ц", "operator": "cz:DPP", "passenger_lines": "", "bridge": "", "bridge:structure": "", "covered": "", "location": "", "usage": "", "note:cs": "", "railway:preferred_direction": "", "ref": "", "wikidata": "", "wikipedia": "", "name:cs": "", "incline": "" }, "geometry": { "type": "LineString", "coordinates": [ [ 14.4386364, 50.1009906 ], [ 14.4386407, 50.1011826 ], [ 14.4386572, 50.1013743 ], [ 14.4386859, 50.1015654 ], [ 14.4387268, 50.1017556 ], [ 14.4387796, 50.1019446 ], [ 14.4388445, 50.102132 ], [ 14.4389212, 50.1023176 ], [ 14.4390117, 50.102505 ], [ 14.4391143, 50.1026898 ], [ 14.4392288, 50.1028717 ], [ 14.439355, 50.1030504 ], [ 14.4394927, 50.1032256 ], [ 14.4396417, 50.1033969 ] ] } },
{ "type": "Feature", "properties": { "full_id": "w655750645", "osm_id": "655750645", "osm_type": "way", "electrified": "rail", "frequency": "0", "gauge": "1435", "layer": "-2", "maxspeed": "", "oneway": "yes", "railway": "subway", "railway:track_ref": "", "service": "", "tunnel": "yes", "voltage": "750", "colour": "red", "level": "-2", "name": "Metro C", "name:be": "лінія Ц", "name:de": "U-Bahn C", "name:en": "Subway C", "name:ru": "Линия Ц", "operator": "cz:DPP", "passenger_lines": "", "bridge": "", "bridge:structure": "", "covered": "", "location": "", "usage": "", "note:cs": "", "railway:preferred_direction": "", "ref": "", "wikidata": "", "wikipedia": "", "name:cs": "", "incline": "" }, "geometry": { "type": "LineString", "coordinates": [ [ 14.4404356, 50.1042876 ], [ 14.4405844, 50.1044621 ], [ 14.4407211, 50.1046406 ], [ 14.4408453, 50.1048228 ], [ 14.4409569, 50.1050084 ], [ 14.4410556, 50.1051969 ], [ 14.4411413, 50.1053881 ], [ 14.4412137, 50.1055814 ], [ 14.4412728, 50.1057767 ], [ 14.4413183, 50.1059734 ], [ 14.4413503, 50.1061712 ], [ 14.4413686, 50.1063698 ], [ 14.4413733, 50.1065658 ], [ 14.4413647, 50.1067618 ], [ 14.4413428, 50.1069574 ], [ 14.4413077, 50.1071521 ], [ 14.4412593, 50.1073457 ], [ 14.4411979, 50.1075378 ], [ 14.4411235, 50.107728 ], [ 14.4410363, 50.1079159 ], [ 14.4409365, 50.1081012 ], [ 14.4408241, 50.1082835 ], [ 14.4406995, 50.1084626 ] ] } },
{ "type": "Feature", "properties": { "full_id": "w655750653", "osm_id": "655750653", "osm_type": "way", "electrified": "rail", "frequency": "0", "gauge": "1435", "layer": "-3", "maxspeed": "", "oneway": "yes", "railway": "subway", "railway:track_ref": "", "service": "", "tunnel": "yes", "voltage": "750", "colour": "red", "level": "-4", "name": "Metro C", "name:be": "лінія Ц", "name:de": "U-Bahn C", "name:en": "Subway C", "name:ru": "Линия Ц", "operator": "cz:DPP", "passenger_lines": "2", "bridge": "", "bridge:structure": "", "covered": "", "location": "", "usage": "", "note:cs": "", "railway:preferred_direction": "", "ref": "", "wikidata": "", "wikipedia": "", "name:cs": "", "incline": "" }, "geometry": { "type": "LineString", "coordinates": [ [ 14.4384386, 50.1009888 ], [ 14.4384477, 50.1006658 ] ] } },
{ "type": "Feature", "properties": { "full_id": "w655750652", "osm_id": "655750652", "osm_type": "way", "electrified": "rail", "frequency": "0", "gauge": "1435", "layer": "-3", "maxspeed": "60", "oneway": "yes", "railway": "subway", "railway:track_ref": "", "service": "", "tunnel": "yes", "voltage": "750", "colour": "red", "level": "-4", "name": "Metro C", "name:be": "лінія Ц", "name:de": "U-Bahn C", "name:en": "Subway C", "name:ru": "Линия Ц", "operator": "cz:DPP", "passenger_lines": "2", "bridge": "", "bridge:structure": "", "covered": "", "location": "", "usage": "", "note:cs": "", "railway:preferred_direction": "", "ref": "", "wikidata": "", "wikipedia": "", "name:cs": "", "incline": "" }, "geometry": { "type": "LineString", "coordinates": [ [ 14.4396802, 50.1094198 ], [ 14.4403882, 50.1085643 ], [ 14.4404102, 50.1085378 ] ] } },
{ "type": "Feature", "properties": { "full_id": "w316964775", "osm_id": "316964775", "osm_type": "way", "electrified": "rail", "frequency": "0", "gauge": "1435", "layer": "-2", "maxspeed": "", "oneway": "yes", "railway": "subway", "railway:track_ref": "", "service": "", "tunnel": "yes", "voltage": "750", "colour": "red", "level": "", "name": "Metro C", "name:be": "лінія Ц", "name:de": "U-Bahn C", "name:en": "Subway C", "name:ru": "Линия Ц", "operator": "cz:DPP", "passenger_lines": "", "bridge": "", "bridge:structure": "", "covered": "", "location": "", "usage": "", "note:cs": "", "railway:preferred_direction": "", "ref": "", "wikidata": "", "wikipedia": "", "name:cs": "", "incline": "" }, "geometry": { "type": "LineString", "coordinates": [ [ 14.460042, 50.0416714 ], [ 14.4610186, 50.0415143 ] ] } },
{ "type": "Feature", "properties": { "full_id": "w655750651", "osm_id": "655750651", "osm_type": "way", "electrified": "rail", "frequency": "0", "gauge": "1435", "layer": "-3", "maxspeed": "", "oneway": "yes", "railway": "subway", "railway:track_ref": "", "service": "", "tunnel": "yes", "voltage": "750", "colour": "red", "level": "-4", "name": "Metro C", "name:be": "лінія Ц", "name:de": "U-Bahn C", "name:en": "Subway C", "name:ru": "Линия Ц", "operator": "cz:DPP", "passenger_lines": "2", "bridge": "", "bridge:structure": "", "covered": "", "location": "", "usage": "", "note:cs": "", "railway:preferred_direction": "", "ref": "", "wikidata": "", "wikipedia": "", "name:cs": "", "incline": "" }, "geometry": { "type": "LineString", "coordinates": [ [ 14.4405144, 50.1084058 ], [ 14.4406297, 50.1082295 ], [ 14.4407335, 50.1080504 ], [ 14.4408256, 50.1078686 ], [ 14.4409057, 50.1076845 ], [ 14.4409739, 50.1074985 ], [ 14.44103, 50.1073107 ], [ 14.4410739, 50.1071217 ], [ 14.4411055, 50.1069316 ], [ 14.4411247, 50.1067409 ], [ 14.4411315, 50.1065498 ], [ 14.441126, 50.1063587 ], [ 14.4411081, 50.1061679 ], [ 14.4410778, 50.1059777 ], [ 14.4410352, 50.1057885 ], [ 14.4409804, 50.1056006 ], [ 14.4409134, 50.1054143 ], [ 14.4408345, 50.10523 ], [ 14.4407436, 50.1050479 ], [ 14.440641, 50.1048684 ], [ 14.4405269, 50.1046918 ], [ 14.4404014, 50.1045184 ], [ 14.4402648, 50.1043484 ] ] } },
{ "type": "Feature", "properties": { "full_id": "w655750650", "osm_id": "655750650", "osm_type": "way", "electrified": "rail", "frequency": "0", "gauge": "1435", "layer": "-3", "maxspeed": "", "oneway": "yes", "railway": "subway", "railway:track_ref": "", "service": "", "tunnel": "yes", "voltage": "750", "colour": "red", "level": "-4", "name": "Metro C", "name:be": "лінія Ц", "name:de": "U-Bahn C", "name:en": "Subway C", "name:ru": "Линия Ц", "operator": "cz:DPP", "passenger_lines": "2", "bridge": "", "bridge:structure": "", "covered": "", "location": "", "usage": "", "note:cs": "", "railway:preferred_direction": "", "ref": "", "wikidata": "", "wikipedia": "", "name:cs": "", "incline": "" }, "geometry": { "type": "LineString", "coordinates": [ [ 14.4394684, 50.1034531 ], [ 14.4393266, 50.1032741 ], [ 14.4391948, 50.103092 ], [ 14.439073, 50.1029071 ], [ 14.4389615, 50.1027195 ], [ 14.4388603, 50.1025296 ], [ 14.4387697, 50.1023374 ], [ 14.4386916, 50.1021485 ], [ 14.4386236, 50.1019579 ], [ 14.4385659, 50.1017659 ], [ 14.4385185, 50.1015728 ], [ 14.4384815, 50.1013788 ], [ 14.4384548, 50.101184 ], [ 14.4384386, 50.1009888 ] ] } },
{ "type": "Feature", "properties": { "full_id": "w655413086", "osm_id": "655413086", "osm_type": "way", "electrified": "rail", "frequency": "0", "gauge": "1435", "layer": "-3", "maxspeed": "", "oneway": "yes", "railway": "subway", "railway:track_ref": "", "service": "", "tunnel": "yes", "voltage": "750", "colour": "red", "level": "-4", "name": "Metro C", "name:be": "лінія Ц", "name:de": "U-Bahn C", "name:en": "Subway C", "name:ru": "Линия Ц", "operator": "cz:DPP", "passenger_lines": "2", "bridge": "", "bridge:structure": "", "covered": "", "location": "", "usage": "", "note:cs": "", "railway:preferred_direction": "", "ref": "", "wikidata": "", "wikipedia": "", "name:cs": "", "incline": "" }, "geometry": { "type": "LineString", "coordinates": [ [ 14.4337756, 50.0830936 ], [ 14.433665, 50.0829387 ], [ 14.4334189, 50.082589 ], [ 14.4332351, 50.0823626 ], [ 14.4330572, 50.0821762 ], [ 14.4321276, 50.0812528 ], [ 14.4313608, 50.0805749 ] ] } },
{ "type": "Feature", "properties": { "full_id": "w655740543", "osm_id": "655740543", "osm_type": "way", "electrified": "rail", "frequency": "0", "gauge": "1435", "layer": "-2", "maxspeed": "", "oneway": "yes", "railway": "subway", "railway:track_ref": "", "service": "", "tunnel": "yes", "voltage": "750", "colour": "red", "level": "-2", "name": "Metro C", "name:be": "лінія Ц", "name:de": "U-Bahn C", "name:en": "Subway C", "name:ru": "Линия Ц", "operator": "cz:DPP", "passenger_lines": "", "bridge": "", "bridge:structure": "", "covered": "", "location": "", "usage": "", "note:cs": "", "railway:preferred_direction": "", "ref": "", "wikidata": "Q168571", "wikipedia": "cs:C (linka metra v Praze)", "name:cs": "", "incline": "" }, "geometry": { "type": "LineString", "coordinates": [ [ 14.439449, 50.0904474 ], [ 14.4402551, 50.0921112 ], [ 14.4407767, 50.0930533 ], [ 14.440949, 50.0935909 ], [ 14.4410303, 50.0940425 ], [ 14.4409133, 50.0947071 ], [ 14.4407639, 50.095093 ], [ 14.4405553, 50.0954891 ], [ 14.4401389, 50.0963437 ], [ 14.4393105, 50.0974957 ], [ 14.4390117, 50.0980701 ], [ 14.4387674, 50.0989948 ], [ 14.438653, 50.0997186 ] ] } },
{ "type": "Feature", "properties": { "full_id": "w655413085", "osm_id": "655413085", "osm_type": "way", "electrified": "rail", "frequency": "0", "gauge": "1435", "layer": "-3", "maxspeed": "60", "oneway": "yes", "railway": "subway", "railway:track_ref": "", "service": "", "tunnel": "yes", "voltage": "750", "colour": "red", "level": "-4", "name": "Metro C", "name:be": "лінія Ц", "name:de": "U-Bahn C", "name:en": "Subway C", "name:ru": "Линия Ц", "operator": "cz:DPP", "passenger_lines": "2", "bridge": "", "bridge:structure": "", "covered": "", "location": "", "usage": "", "note:cs": "", "railway:preferred_direction": "", "ref": "", "wikidata": "", "wikipedia": "", "name:cs": "", "incline": "" }, "geometry": { "type": "LineString", "coordinates": [ [ 14.4313608, 50.0805749 ], [ 14.4304462, 50.0798347 ], [ 14.4303747, 50.0797819 ] ] } },
{ "type": "Feature", "properties": { "full_id": "w935630962", "osm_id": "935630962", "osm_type": "way", "electrified": "rail", "frequency": "0", "gauge": "1435", "layer": "-3", "maxspeed": "60", "oneway": "yes", "railway": "subway", "railway:track_ref": "", "service": "", "tunnel": "yes", "voltage": "750", "colour": "red", "level": "-4", "name": "Metro C", "name:be": "лінія Ц", "name:de": "U-Bahn C", "name:en": "Subway C", "name:ru": "Линия Ц", "operator": "cz:DPP", "passenger_lines": "", "bridge": "", "bridge:structure": "", "covered": "", "location": "", "usage": "", "note:cs": "", "railway:preferred_direction": "", "ref": "", "wikidata": "", "wikipedia": "", "name:cs": "", "incline": "" }, "geometry": { "type": "LineString", "coordinates": [ [ 14.4996312, 50.1185024 ], [ 14.4987397, 50.1192034 ] ] } },
{ "type": "Feature", "properties": { "full_id": "w483465890", "osm_id": "483465890", "osm_type": "way", "electrified": "rail", "frequency": "0", "gauge": "1435", "layer": "-3", "maxspeed": "", "oneway": "yes", "railway": "subway", "railway:track_ref": "", "service": "", "tunnel": "yes", "voltage": "750", "colour": "red", "level": "-4", "name": "Metro C", "name:be": "лінія Ц", "name:de": "U-Bahn C", "name:en": "Subway C", "name:ru": "Линия Ц", "operator": "cz:DPP", "passenger_lines": "", "bridge": "", "bridge:structure": "", "covered": "", "location": "", "usage": "", "note:cs": "", "railway:preferred_direction": "", "ref": "", "wikidata": "", "wikipedia": "", "name:cs": "", "incline": "" }, "geometry": { "type": "LineString", "coordinates": [ [ 14.5159736, 50.1241997 ], [ 14.5158968, 50.1225991 ], [ 14.5157123, 50.1219018 ], [ 14.5153337, 50.121052 ], [ 14.5146342, 50.1203046 ], [ 14.5138682, 50.1197493 ], [ 14.5131521, 50.1193115 ], [ 14.5117673, 50.1186342 ], [ 14.5091222, 50.1174643 ], [ 14.5071571, 50.1168877 ], [ 14.5054252, 50.1167061 ], [ 14.5036668, 50.1168266 ], [ 14.502565, 50.1170608 ], [ 14.5014039, 50.1174614 ], [ 14.5008293, 50.1177026 ], [ 14.5003877, 50.1179363 ], [ 14.4996312, 50.1185024 ] ] } },
{ "type": "Feature", "properties": { "full_id": "w483037169", "osm_id": "483037169", "osm_type": "way", "electrified": "rail", "frequency": "0", "gauge": "1435", "layer": "-2", "maxspeed": "40", "oneway": "", "railway": "subway", "railway:track_ref": "", "service": "siding", "tunnel": "yes", "voltage": "750", "colour": "", "level": "", "name": "Metro C", "name:be": "", "name:de": "U-Bahn C", "name:en": "", "name:ru": "", "operator": "", "passenger_lines": "", "bridge": "", "bridge:structure": "", "covered": "", "location": "", "usage": "", "note:cs": "", "railway:preferred_direction": "", "ref": "", "wikidata": "", "wikipedia": "", "name:cs": "", "incline": "" }, "geometry": { "type": "LineString", "coordinates": [ [ 14.5323207, 50.0315088 ], [ 14.528352, 50.0310576 ] ] } },
{ "type": "Feature", "properties": { "full_id": "w316964778", "osm_id": "316964778", "osm_type": "way", "electrified": "rail", "frequency": "0", "gauge": "1435", "layer": "-2", "maxspeed": "", "oneway": "yes", "railway": "subway", "railway:track_ref": "", "service": "", "tunnel": "yes", "voltage": "750", "colour": "red", "level": "", "name": "Metro C", "name:be": "лінія Ц", "name:de": "U-Bahn C", "name:en": "Subway C", "name:ru": "Линия Ц", "operator": "cz:DPP", "passenger_lines": "", "bridge": "", "bridge:structure": "", "covered": "", "location": "", "usage": "", "note:cs": "", "railway:preferred_direction": "", "ref": "", "wikidata": "", "wikipedia": "", "name:cs": "", "incline": "" }, "geometry": { "type": "LineString", "coordinates": [ [ 14.4776774, 50.0373385 ], [ 14.4817694, 50.0359103 ], [ 14.4833427, 50.0353541 ], [ 14.4870811, 50.0335184 ], [ 14.4904864, 50.0318844 ] ] } },
{ "type": "Feature", "properties": { "full_id": "w655750656", "osm_id": "655750656", "osm_type": "way", "electrified": "rail", "frequency": "0", "gauge": "1435", "layer": "-2", "maxspeed": "", "oneway": "yes", "railway": "subway", "railway:track_ref": "", "service": "", "tunnel": "yes", "voltage": "750", "colour": "red", "level": "-2", "name": "Metro C", "name:be": "лінія Ц", "name:de": "U-Bahn C", "name:en": "Subway C", "name:ru": "Линия Ц", "operator": "cz:DPP", "passenger_lines": "", "bridge": "", "bridge:structure": "", "covered": "", "location": "", "usage": "", "note:cs": "", "railway:preferred_direction": "", "ref": "", "wikidata": "", "wikipedia": "", "name:cs": "", "incline": "" }, "geometry": { "type": "LineString", "coordinates": [ [ 14.4386401, 50.1006667 ], [ 14.4386364, 50.1009906 ] ] } },
{ "type": "Feature", "properties": { "full_id": "w316964777", "osm_id": "316964777", "osm_type": "way", "electrified": "rail", "frequency": "0", "gauge": "1435", "layer": "-2", "maxspeed": "", "oneway": "yes", "railway": "subway", "railway:track_ref": "", "service": "", "tunnel": "yes", "voltage": "750", "colour": "red", "level": "", "name": "Metro C", "name:be": "лінія Ц", "name:de": "U-Bahn C", "name:en": "Subway C", "name:ru": "Линия Ц", "operator": "cz:DPP", "passenger_lines": "", "bridge": "", "bridge:structure": "", "covered": "", "location": "", "usage": "", "note:cs": "", "railway:preferred_direction": "", "ref": "", "wikidata": "", "wikipedia": "", "name:cs": "", "incline": "" }, "geometry": { "type": "LineString", "coordinates": [ [ 14.4610657, 50.041636 ], [ 14.4606606, 50.0417003 ], [ 14.4600887, 50.0417859 ] ] } },
{ "type": "Feature", "properties": { "full_id": "w655756674", "osm_id": "655756674", "osm_type": "way", "electrified": "rail", "frequency": "0", "gauge": "1435", "layer": "-2", "maxspeed": "60", "oneway": "yes", "railway": "subway", "railway:track_ref": "", "service": "", "tunnel": "yes", "voltage": "750", "colour": "red", "level": "-2", "name": "Metro C", "name:be": "лінія Ц", "name:de": "U-Bahn C", "name:en": "Subway C", "name:ru": "Линия Ц", "operator": "cz:DPP", "passenger_lines": "", "bridge": "", "bridge:structure": "", "covered": "", "location": "", "usage": "", "note:cs": "", "railway:preferred_direction": "", "ref": "", "wikidata": "", "wikipedia": "", "name:cs": "", "incline": "" }, "geometry": { "type": "LineString", "coordinates": [ [ 14.4405869, 50.1085982 ], [ 14.4398917, 50.1094376 ], [ 14.4398572, 50.1094799 ] ] } },
{ "type": "Feature", "properties": { "full_id": "w316964776", "osm_id": "316964776", "osm_type": "way", "electrified": "rail", "frequency": "0", "gauge": "1435", "layer": "-2", "maxspeed": "60", "oneway": "yes", "railway": "subway", "railway:track_ref": "", "service": "", "tunnel": "yes", "voltage": "750", "colour": "red", "level": "-2", "name": "Metro C", "name:be": "лінія Ц", "name:de": "U-Bahn C", "name:en": "Subway C", "name:ru": "Линия Ц", "operator": "cz:DPP", "passenger_lines": "", "bridge": "", "bridge:structure": "", "covered": "", "location": "", "usage": "", "note:cs": "", "railway:preferred_direction": "", "ref": "", "wikidata": "", "wikipedia": "", "name:cs": "", "incline": "" }, "geometry": { "type": "LineString", "coordinates": [ [ 14.459997, 50.0417997 ], [ 14.458658, 50.0420049 ] ] } },
{ "type": "Feature", "properties": { "full_id": "w655756671", "osm_id": "655756671", "osm_type": "way", "electrified": "rail", "frequency": "0", "gauge": "1435", "layer": "-2", "maxspeed": "", "oneway": "yes", "railway": "subway", "railway:track_ref": "", "service": "", "tunnel": "yes", "voltage": "750", "colour": "red", "level": "-2", "name": "Metro C", "name:be": "лінія Ц", "name:de": "U-Bahn C", "name:en": "Subway C", "name:ru": "Линия Ц", "operator": "cz:DPP", "passenger_lines": "", "bridge": "", "bridge:structure": "", "covered": "", "location": "", "usage": "", "note:cs": "", "railway:preferred_direction": "", "ref": "", "wikidata": "", "wikipedia": "", "name:cs": "", "incline": "" }, "geometry": { "type": "LineString", "coordinates": [ [ 14.4398572, 50.1094799 ], [ 14.4398251, 50.109517 ] ] } },
{ "type": "Feature", "properties": { "full_id": "w655756665", "osm_id": "655756665", "osm_type": "way", "electrified": "rail", "frequency": "0", "gauge": "1435", "layer": "-3", "maxspeed": "", "oneway": "yes", "railway": "subway", "railway:track_ref": "", "service": "", "tunnel": "yes", "voltage": "750", "colour": "red", "level": "-4", "name": "Metro C", "name:be": "лінія Ц", "name:de": "U-Bahn C", "name:en": "Subway C", "name:ru": "Линия Ц", "operator": "cz:DPP", "passenger_lines": "2", "bridge": "", "bridge:structure": "", "covered": "", "location": "", "usage": "", "note:cs": "", "railway:preferred_direction": "", "ref": "", "wikidata": "", "wikipedia": "", "name:cs": "", "incline": "" }, "geometry": { "type": "LineString", "coordinates": [ [ 14.4396461, 50.1094611 ], [ 14.4396802, 50.1094198 ] ] } },
{ "type": "Feature", "properties": { "full_id": "w116765746", "osm_id": "116765746", "osm_type": "way", "electrified": "rail", "frequency": "0", "gauge": "1435", "layer": "-2", "maxspeed": "", "oneway": "yes", "railway": "subway", "railway:track_ref": "", "service": "", "tunnel": "yes", "voltage": "750", "colour": "red", "level": "", "name": "Metro C", "name:be": "лінія Ц", "name:de": "U-Bahn C", "name:en": "Subway C", "name:ru": "Линия Ц", "operator": "cz:DPP", "passenger_lines": "", "bridge": "", "bridge:structure": "", "covered": "", "location": "", "usage": "", "note:cs": "", "railway:preferred_direction": "", "ref": "", "wikidata": "", "wikipedia": "", "name:cs": "", "incline": "" }, "geometry": { "type": "LineString", "coordinates": [ [ 14.4685187, 50.0403626 ], [ 14.4675849, 50.0407255 ], [ 14.4663603, 50.0410885 ], [ 14.4653818, 50.0412339 ], [ 14.4644572, 50.0413046 ], [ 14.4636283, 50.0413337 ], [ 14.4632086, 50.0413571 ], [ 14.4628174, 50.0413906 ], [ 14.4624844, 50.0414317 ], [ 14.462157, 50.041476 ] ] } },
{ "type": "Feature", "properties": { "full_id": "w116765744", "osm_id": "116765744", "osm_type": "way", "electrified": "rail", "frequency": "0", "gauge": "1435", "layer": "-3", "maxspeed": "", "oneway": "yes", "railway": "subway", "railway:track_ref": "", "service": "", "tunnel": "yes", "voltage": "750", "colour": "red", "level": "", "name": "Metro C", "name:be": "лінія Ц", "name:de": "U-Bahn C", "name:en": "Subway C", "name:ru": "Линия Ц", "operator": "cz:DPP", "passenger_lines": "", "bridge": "", "bridge:structure": "", "covered": "", "location": "", "usage": "", "note:cs": "", "railway:preferred_direction": "", "ref": "", "wikidata": "", "wikipedia": "", "name:cs": "", "incline": "" }, "geometry": { "type": "LineString", "coordinates": [ [ 14.5082608, 50.0278174 ], [ 14.5066675, 50.0276344 ], [ 14.505196, 50.0274695 ], [ 14.5042741, 50.0274547 ], [ 14.5035114, 50.0275118 ], [ 14.5025839, 50.0276373 ], [ 14.5014978, 50.02789 ], [ 14.49939, 50.0285179 ], [ 14.4950567, 50.029887 ], [ 14.4940547, 50.0302157 ], [ 14.493047, 50.0306491 ], [ 14.4929018, 50.0307115 ], [ 14.4916726, 50.0313524 ] ] } }
]
}
