{
"type": "FeatureCollection",
"name": "cairo-line-3-phase-1-stops",
"crs": { "type": "name", "properties": { "name": "urn:ogc:def:crs:OGC:1.3:CRS84" } },
"features": [
{ "type": "Feature", "properties": { "full_id": "n1235803723", "osm_id": "1235803723", "osm_type": "node", "int_name": "El Geish", "name": "El Geish", "name:ar": "الجيش", "name:de": "El Geish", "name:en": "El Geish", "name:fr": "El Geish", "public_transport": "stop_position", "subway": "yes", "railway": "", "station": "", "alt_name": "", "name:zh": "", "name:ar1": "", "network": "", "old_name": "", "old_name:en": "" }, "geometry": { "type": "Point", "coordinates": [ 31.2679718, 30.0622573 ] } },
{ "type": "Feature", "properties": { "full_id": "n5194348150", "osm_id": "5194348150", "osm_type": "node", "int_name": "Ataba", "name": "Attaba", "name:ar": "العتبة", "name:de": "Attaba", "name:en": "Attaba", "name:fr": "Attaba", "public_transport": "stop_position", "subway": "yes", "railway": "stop", "station": "", "alt_name": "", "name:zh": "阿塔巴", "name:ar1": "", "network": "", "old_name": "", "old_name:en": "" }, "geometry": { "type": "Point", "coordinates": [ 31.2492956, 30.0527704 ] } },
{ "type": "Feature", "properties": { "full_id": "n1235803722", "osm_id": "1235803722", "osm_type": "node", "int_name": "Bab El Shaaria", "name": "Bab El Shaaria", "name:ar": "باب الشعرية", "name:de": "Bab el Shaaria", "name:en": "Bab el Shaaria", "name:fr": "Bab el Shaaria", "public_transport": "stop_position", "subway": "yes", "railway": "", "station": "", "alt_name": "", "name:zh": "", "name:ar1": "", "network": "", "old_name": "", "old_name:en": "" }, "geometry": { "type": "Point", "coordinates": [ 31.2576163, 30.0551225 ] } },
{ "type": "Feature", "properties": { "full_id": "n4979483242", "osm_id": "4979483242", "osm_type": "node", "int_name": "Abbassiya", "name": "Abbassiya", "name:ar": "العباسية", "name:de": "Al Abbasiyya", "name:en": "Al Abbasiyya", "name:fr": "Al Abbasiyya", "public_transport": "stop_position", "subway": "yes", "railway": "", "station": "", "alt_name": "", "name:zh": "", "name:ar1": "", "network": "", "old_name": "", "old_name:en": "" }, "geometry": { "type": "Point", "coordinates": [ 31.2840784, 30.0727971 ] } },
{ "type": "Feature", "properties": { "full_id": "n1235803732", "osm_id": "1235803732", "osm_type": "node", "int_name": "Abdou Pasha", "name": "Abdou Pasha", "name:ar": "عبده باشا", "name:de": "Abdo Basha", "name:en": "Abdo Basha", "name:fr": "Abdo Basha", "public_transport": "stop_position", "subway": "yes", "railway": "", "station": "", "alt_name": "", "name:zh": "", "name:ar1": "", "network": "", "old_name": "", "old_name:en": "" }, "geometry": { "type": "Point", "coordinates": [ 31.2769572, 30.0654168 ] } }
]
}
