{
"type": "FeatureCollection",
"name": "cairo-line-2-stops",
"crs": { "type": "name", "properties": { "name": "urn:ogc:def:crs:OGC:1.3:CRS84" } },
"features": [
{ "type": "Feature", "properties": { "full_id": "n5349031082", "osm_id": "5349031082", "osm_type": "node", "int_name": "Sadat", "name": "Sadat", "name:ar": "السادات", "name:de": "Sadat", "name:en": "Sadat", "name:fr": "Sadat", "public_transport": "stop_position", "subway": "yes", "railway": "stop", "station": "", "alt_name": "", "name:zh": "萨达特", "name:ar1": "", "network": "", "old_name": "", "old_name:en": "" }, "geometry": { "type": "Point", "coordinates": [ 31.2346365, 30.043807 ] } },
{ "type": "Feature", "properties": { "full_id": "n4979414356", "osm_id": "4979414356", "osm_type": "node", "int_name": "Ataba", "name": "Attaba", "name:ar": "العتبة", "name:de": "Attaba", "name:en": "Attaba", "name:fr": "Attaba", "public_transport": "stop_position", "subway": "yes", "railway": "stop", "station": "", "alt_name": "", "name:zh": "阿塔巴", "name:ar1": "", "network": "", "old_name": "", "old_name:en": "" }, "geometry": { "type": "Point", "coordinates": [ 31.2468761, 30.0524166 ] } },
{ "type": "Feature", "properties": { "full_id": "n316634158", "osm_id": "316634158", "osm_type": "node", "int_name": "Massara", "name": "Massara", "name:ar": "حي شبرا", "name:de": "Massara", "name:en": "Massara", "name:fr": "Massara", "public_transport": "", "subway": "", "railway": "station", "station": "subway", "alt_name": "", "name:zh": "", "name:ar1": "", "network": "", "old_name": "", "old_name:en": "" }, "geometry": { "type": "Point", "coordinates": [ 31.2450291, 30.0710478 ] } },
{ "type": "Feature", "properties": { "full_id": "n316632940", "osm_id": "316632940", "osm_type": "node", "int_name": "Dokki", "name": "Dokki", "name:ar": "الدقى", "name:de": "Dokki", "name:en": "Dokki", "name:fr": "Dokki", "public_transport": "station", "subway": "yes", "railway": "station", "station": "subway", "alt_name": "", "name:zh": "", "name:ar1": "", "network": "", "old_name": "", "old_name:en": "" }, "geometry": { "type": "Point", "coordinates": [ 31.2120051, 30.0382381 ] } },
{ "type": "Feature", "properties": { "full_id": "n5194295700", "osm_id": "5194295700", "osm_type": "node", "int_name": "", "name": "Shuhada", "name:ar": "الشهداء", "name:de": "Shuhada", "name:en": "Shuhada", "name:fr": "", "public_transport": "stop_position", "subway": "yes", "railway": "stop", "station": "", "alt_name": "", "name:zh": "烈士", "name:ar1": "", "network": "", "old_name": "مبارك", "old_name:en": "Mubarak" }, "geometry": { "type": "Point", "coordinates": [ 31.2460432, 30.0618534 ] } },
{ "type": "Feature", "properties": { "full_id": "n5355866946", "osm_id": "5355866946", "osm_type": "node", "int_name": "Bohooth", "name": "Behooth", "name:ar": "البحوث", "name:de": "Behooth", "name:en": "Behooth", "name:fr": "Behooth", "public_transport": "stop_position", "subway": "yes", "railway": "stop", "station": "", "alt_name": "البحوث", "name:zh": "", "name:ar1": "", "network": "", "old_name": "", "old_name:en": "" }, "geometry": { "type": "Point", "coordinates": [ 31.2002648, 30.0357781 ] } },
{ "type": "Feature", "properties": { "full_id": "n316635179", "osm_id": "316635179", "osm_type": "node", "int_name": "Mezallat", "name": "Al-Mezallat", "name:ar": "المظلات", "name:de": "Al-Mezallat", "name:en": "Al-Mezallat", "name:fr": "Al-Mezallat", "public_transport": "", "subway": "", "railway": "station", "station": "subway", "alt_name": "المظلات", "name:zh": "", "name:ar1": "", "network": "", "old_name": "", "old_name:en": "" }, "geometry": { "type": "Point", "coordinates": [ 31.2467322, 30.1050089 ] } },
{ "type": "Feature", "properties": { "full_id": "n316634715", "osm_id": "316634715", "osm_type": "node", "int_name": "Rod El-Farag", "name": "Rawd El-Farag", "name:ar": "روض الفرج", "name:de": "Rawd El-Farag", "name:en": "Rawd El-Farag", "name:fr": "Rawd El-Farag", "public_transport": "", "subway": "", "railway": "station", "station": "subway", "alt_name": "", "name:zh": "", "name:ar1": "", "network": "", "old_name": "", "old_name:en": "" }, "geometry": { "type": "Point", "coordinates": [ 31.2454264, 30.0805703 ] } },
{ "type": "Feature", "properties": { "full_id": "n316634831", "osm_id": "316634831", "osm_type": "node", "int_name": "Sainte Teresa", "name": "Sainte Teresa", "name:ar": "سانت تيريزا", "name:de": "Sainte Teresa", "name:en": "Sainte Teresa", "name:fr": "Sainte Teresa", "public_transport": "", "subway": "", "railway": "station", "station": "subway", "alt_name": "سانت تيريزا", "name:zh": "", "name:ar1": "", "network": "", "old_name": "", "old_name:en": "" }, "geometry": { "type": "Point", "coordinates": [ 31.2454359, 30.0883488 ] } },
{ "type": "Feature", "properties": { "full_id": "n316632961", "osm_id": "316632961", "osm_type": "node", "int_name": "Gezira", "name": "Opera", "name:ar": "الأوبرا", "name:de": "Oper", "name:en": "Opera", "name:fr": "Opéra", "public_transport": "station", "subway": "yes", "railway": "station", "station": "subway", "alt_name": "", "name:zh": "", "name:ar1": "", "network": "", "old_name": "", "old_name:en": "" }, "geometry": { "type": "Point", "coordinates": [ 31.2251724, 30.0420584 ] } },
{ "type": "Feature", "properties": { "full_id": null, "osm_id": null, "osm_type": null, "int_name": null, "name": "Cairo Un.", "name:ar": null, "name:de": null, "name:en": null, "name:fr": null, "public_transport": null, "subway": null, "railway": null, "station": null, "alt_name": null, "name:zh": null, "name:ar1": null, "network": null, "old_name": null, "old_name:en": null }, "geometry": { "type": "Point", "coordinates": [ 31.201179150221645, 30.025986321899577 ] } },
{ "type": "Feature", "properties": { "full_id": null, "osm_id": null, "osm_type": null, "int_name": null, "name": "Faisal", "name:ar": null, "name:de": null, "name:en": null, "name:fr": null, "public_transport": null, "subway": null, "railway": null, "station": null, "alt_name": null, "name:zh": null, "name:ar1": null, "network": null, "old_name": null, "old_name:en": null }, "geometry": { "type": "Point", "coordinates": [ 31.204008526090135, 30.017291816289578 ] } },
{ "type": "Feature", "properties": { "full_id": null, "osm_id": null, "osm_type": null, "int_name": null, "name": "Giza", "name:ar": null, "name:de": null, "name:en": null, "name:fr": null, "public_transport": null, "subway": null, "railway": null, "station": null, "alt_name": null, "name:zh": null, "name:ar1": null, "network": null, "old_name": null, "old_name:en": null }, "geometry": { "type": "Point", "coordinates": [ 31.207082500313639, 30.01060759412227 ] } },
{ "type": "Feature", "properties": { "full_id": null, "osm_id": null, "osm_type": null, "int_name": null, "name": "Omm el Misryeen", "name:ar": null, "name:de": null, "name:en": null, "name:fr": null, "public_transport": null, "subway": null, "railway": null, "station": null, "alt_name": null, "name:zh": null, "name:ar1": null, "network": null, "old_name": null, "old_name:en": null }, "geometry": { "type": "Point", "coordinates": [ 31.207933126014435, 30.005199473969206 ] } },
{ "type": "Feature", "properties": { "full_id": null, "osm_id": null, "osm_type": null, "int_name": null, "name": "Sakiat Mekki", "name:ar": null, "name:de": null, "name:en": null, "name:fr": null, "public_transport": null, "subway": null, "railway": null, "station": null, "alt_name": null, "name:zh": null, "name:ar1": null, "network": null, "old_name": null, "old_name:en": null }, "geometry": { "type": "Point", "coordinates": [ 31.208587211141563, 29.995472127287574 ] } },
{ "type": "Feature", "properties": { "full_id": null, "osm_id": null, "osm_type": null, "int_name": null, "name": "El Mounib", "name:ar": null, "name:de": null, "name:en": null, "name:fr": null, "public_transport": null, "subway": null, "railway": null, "station": null, "alt_name": null, "name:zh": null, "name:ar1": null, "network": null, "old_name": null, "old_name:en": null }, "geometry": { "type": "Point", "coordinates": [ 31.211782979296306, 29.981268066023571 ] } },
{ "type": "Feature", "properties": { "full_id": null, "osm_id": null, "osm_type": null, "int_name": null, "name": "Khalafawy", "name:ar": null, "name:de": null, "name:en": null, "name:fr": null, "public_transport": null, "subway": null, "railway": null, "station": null, "alt_name": null, "name:zh": null, "name:ar1": null, "network": null, "old_name": null, "old_name:en": null }, "geometry": { "type": "Point", "coordinates": [ 31.245395013557268, 30.097977680714063 ] } },
{ "type": "Feature", "properties": { "full_id": null, "osm_id": null, "osm_type": null, "int_name": null, "name": "Koliet El-Zeraa", "name:ar": null, "name:de": null, "name:en": null, "name:fr": null, "public_transport": null, "subway": null, "railway": null, "station": null, "alt_name": null, "name:zh": null, "name:ar1": null, "network": null, "old_name": null, "old_name:en": null }, "geometry": { "type": "Point", "coordinates": [ 31.24866056505801, 30.113782241444916 ] } },
{ "type": "Feature", "properties": { "full_id": null, "osm_id": null, "osm_type": null, "int_name": null, "name": "Shobra El Kheima", "name:ar": null, "name:de": null, "name:en": null, "name:fr": null, "public_transport": null, "subway": null, "railway": null, "station": null, "alt_name": null, "name:zh": null, "name:ar1": null, "network": null, "old_name": null, "old_name:en": null }, "geometry": { "type": "Point", "coordinates": [ 31.243417779127146, 30.124153687221185 ] } },
{ "type": "Feature", "properties": { "full_id": null, "osm_id": null, "osm_type": null, "int_name": null, "name": "Naguib", "name:ar": null, "name:de": null, "name:en": null, "name:fr": null, "public_transport": null, "subway": null, "railway": null, "station": null, "alt_name": null, "name:zh": null, "name:ar1": null, "network": null, "old_name": null, "old_name:en": null }, "geometry": { "type": "Point", "coordinates": [ 31.244254941516328, 30.045411205764243 ] } }
]
}
