{
"type": "FeatureCollection",
"name": "chengdu-line-8-phase-1-stops",
"crs": { "type": "name", "properties": { "name": "urn:ogc:def:crs:OGC:1.3:CRS84" } },
"features": [
{ "type": "Feature", "properties": { "full_id": "n6594652083", "osm_id": "6594652083", "osm_type": "node", "name": "Donghu Park", "name:en": "Donghu Park", "public_transport": "stop_position", "railway": "stop", "subway": "", "name:zh": "东湖公园", "train": "yes", "station": "", "network": "", "monorail": "", "access": "", "description": "", "indoor": "" }, "geometry": { "type": "Point", "coordinates": [ 104.0853412, 30.622063 ] } },
{ "type": "Feature", "properties": { "full_id": "n6594652087", "osm_id": "6594652087", "osm_type": "node", "name": "Dongguang", "name:en": "Dongguang", "public_transport": "stop_position", "railway": "stop", "subway": "", "name:zh": "东光", "train": "yes", "station": "", "network": "", "monorail": "", "access": "", "description": "", "indoor": "" }, "geometry": { "type": "Point", "coordinates": [ 104.0946481, 30.6219703 ] } },
{ "type": "Feature", "properties": { "full_id": "n6594652089", "osm_id": "6594652089", "osm_type": "node", "name": "Jingjusi", "name:en": "Jingjusi", "public_transport": "stop_position", "railway": "stop", "subway": "", "name:zh": "净居寺", "train": "yes", "station": "", "network": "", "monorail": "", "access": "", "description": "", "indoor": "" }, "geometry": { "type": "Point", "coordinates": [ 104.1018014, 30.6248965 ] } },
{ "type": "Feature", "properties": { "full_id": "n6594652090", "osm_id": "6594652090", "osm_type": "node", "name": "Dongda Road", "name:en": "Dongda Road", "public_transport": "stop_position", "railway": "stop", "subway": "yes", "name:zh": "东大路", "train": "", "station": "", "network": "", "monorail": "", "access": "", "description": "", "indoor": "" }, "geometry": { "type": "Point", "coordinates": [ 104.1094445, 30.6359016 ] } },
{ "type": "Feature", "properties": { "full_id": "n6594670596", "osm_id": "6594670596", "osm_type": "node", "name": "Shuangqiao Road", "name:en": "Shuangqiao Road", "public_transport": "stop_position", "railway": "stop", "subway": "yes", "name:zh": "双桥路", "train": "", "station": "", "network": "", "monorail": "", "access": "", "description": "", "indoor": "" }, "geometry": { "type": "Point", "coordinates": [ 104.1110377, 30.6479021 ] } },
{ "type": "Feature", "properties": { "full_id": "n6594670627", "osm_id": "6594670627", "osm_type": "node", "name": "Chengdu University of Technology", "name:en": "Chengdu University of Technology", "public_transport": "stop_position", "railway": "stop", "subway": "yes", "name:zh": "理工大学", "train": "", "station": "", "network": "", "monorail": "", "access": "", "description": "", "indoor": "" }, "geometry": { "type": "Point", "coordinates": [ 104.1353786, 30.6761746 ] } },
{ "type": "Feature", "properties": { "full_id": "n6502253353", "osm_id": "6502253353", "osm_type": "node", "name": "Shiyang (new)", "name:en": "Shiyang", "public_transport": "stop_position", "railway": "stop", "subway": "yes", "name:zh": "石羊", "train": "", "station": "", "network": "", "monorail": "", "access": "", "description": "", "indoor": "" }, "geometry": { "type": "Point", "coordinates": [ 104.0281603, 30.5871768 ] } },
{ "type": "Feature", "properties": { "full_id": "n6594670636", "osm_id": "6594670636", "osm_type": "node", "name": "Shilidian", "name:en": "", "public_transport": "stop_position", "railway": "stop", "subway": "", "name:zh": "十里店", "train": "yes", "station": "", "network": "", "monorail": "", "access": "", "description": "", "indoor": "" }, "geometry": { "type": "Point", "coordinates": [ 104.1425059, 30.6825528 ] } },
{ "type": "Feature", "properties": { "full_id": "n6502253354", "osm_id": "6502253354", "osm_type": "node", "name": "Sanyuan", "name:en": "Sanyuan", "public_transport": "stop_position", "railway": "stop", "subway": "yes", "name:zh": "三元", "train": "", "station": "", "network": "", "monorail": "", "access": "", "description": "", "indoor": "" }, "geometry": { "type": "Point", "coordinates": [ 104.0236488, 30.583437 ] } },
{ "type": "Feature", "properties": { "full_id": "n6594685537", "osm_id": "6594685537", "osm_type": "node", "name": "Wannian Road", "name:en": "Wannian Road", "public_transport": "stop_position", "railway": "stop", "subway": "", "name:zh": "万年路", "train": "yes", "station": "", "network": "", "monorail": "", "access": "", "description": "", "indoor": "" }, "geometry": { "type": "Point", "coordinates": [ 104.112625, 30.656613 ] } },
{ "type": "Feature", "properties": { "full_id": "n6594651978", "osm_id": "6594651978", "osm_type": "node", "name": "Yanjialin", "name:en": "Yanjialin", "public_transport": "stop_position", "railway": "stop", "subway": "", "name:zh": "殷家林", "train": "yes", "station": "", "network": "", "monorail": "", "access": "", "description": "", "indoor": "" }, "geometry": { "type": "Point", "coordinates": [ 104.0317748, 30.6087609 ] } },
{ "type": "Feature", "properties": { "full_id": "n6594651985", "osm_id": "6594651985", "osm_type": "node", "name": "Jiuxing Avenue", "name:en": "Jiuxing Avenue", "public_transport": "stop_position", "railway": "stop", "subway": "", "name:zh": "九兴大道", "train": "yes", "station": "", "network": "", "monorail": "", "access": "", "description": "", "indoor": "" }, "geometry": { "type": "Point", "coordinates": [ 104.0362172, 30.6254538 ] } },
{ "type": "Feature", "properties": { "full_id": "n6594652055", "osm_id": "6594652055", "osm_type": "node", "name": "Gaopeng Avenue", "name:en": "Gaopeng Avenue", "public_transport": "stop_position", "railway": "stop", "subway": "yes", "name:zh": "高朋大道", "train": "", "station": "", "network": "", "monorail": "", "access": "", "description": "", "indoor": "" }, "geometry": { "type": "Point", "coordinates": [ 104.0322734, 30.6193719 ] } },
{ "type": "Feature", "properties": { "full_id": "n6594652057", "osm_id": "6594652057", "osm_type": "node", "name": "Qing'an", "name:en": "Qing'an", "public_transport": "stop_position", "railway": "stop", "subway": "", "name:zh": "庆安", "train": "yes", "station": "", "network": "", "monorail": "", "access": "", "description": "", "indoor": "" }, "geometry": { "type": "Point", "coordinates": [ 104.0315273, 30.6008651 ] } },
{ "type": "Feature", "properties": { "full_id": "n6594652076", "osm_id": "6594652076", "osm_type": "node", "name": "Yongfeng", "name:en": "Yongfeng", "public_transport": "stop_position", "railway": "stop", "subway": "", "name:zh": "永丰", "train": "yes", "station": "", "network": "", "monorail": "", "access": "", "description": "", "indoor": "" }, "geometry": { "type": "Point", "coordinates": [ 104.0443138, 30.6307327 ] } },
{ "type": "Feature", "properties": { "full_id": "n6594652080", "osm_id": "6594652080", "osm_type": "node", "name": "Fangcao Street", "name:en": "Fangcao Street", "public_transport": "stop_position", "railway": "stop", "subway": "", "name:zh": "芳草街", "train": "yes", "station": "", "network": "", "monorail": "", "access": "", "description": "", "indoor": "" }, "geometry": { "type": "Point", "coordinates": [ 104.0500625, 30.6283427 ] } },
{ "type": "Feature", "properties": { "full_id": "n6594652081", "osm_id": "6594652081", "osm_type": "node", "name": "Nijiaqiao", "name:en": "Nijiaqiao", "public_transport": "stop_position", "railway": "stop", "subway": "yes", "name:zh": "倪家桥", "train": "", "station": "", "network": "", "monorail": "", "access": "", "description": "", "indoor": "" }, "geometry": { "type": "Point", "coordinates": [ 104.0624697, 30.6273869 ] } },
{ "type": "Feature", "properties": { "full_id": "n6594652082", "osm_id": "6594652082", "osm_type": "node", "name": "Wangjiang Campus of Sichuan University", "name:en": "Wangjiang Campus of Sichuan University", "public_transport": "stop_position", "railway": "stop", "subway": "", "name:zh": "川大望江校区", "train": "yes", "station": "", "network": "", "monorail": "", "access": "", "description": "", "indoor": "" }, "geometry": { "type": "Point", "coordinates": [ 104.0730366, 30.6276545 ] } },
{ "type": "Feature", "properties": { "full_id": "n6594651946", "osm_id": "6594651946", "osm_type": "node", "name": "Wenxing", "name:en": "Wenxing", "public_transport": "stop_position", "railway": "stop", "subway": "", "name:zh": "文星", "train": "yes", "station": "", "network": "", "monorail": "", "access": "", "description": "", "indoor": "" }, "geometry": { "type": "Point", "coordinates": [ 103.9900412, 30.553479 ] } },
{ "type": "Feature", "properties": { "full_id": "n6594651947", "osm_id": "6594651947", "osm_type": "node", "name": "Jiang'an Campus of Sichuan University", "name:en": "Jiang'an Campus of Sichuan University", "public_transport": "stop_position", "railway": "stop", "subway": "", "name:zh": "川大江安校区", "train": "yes", "station": "", "network": "", "monorail": "", "access": "", "description": "", "indoor": "" }, "geometry": { "type": "Point", "coordinates": [ 104.0046346, 30.5577289 ] } },
{ "type": "Feature", "properties": { "full_id": "n6594651962", "osm_id": "6594651962", "osm_type": "node", "name": "Zhujiang Road", "name:en": "Zhujiang Road", "public_transport": "stop_position", "railway": "stop", "subway": "", "name:zh": "珠江路", "train": "yes", "station": "", "network": "", "monorail": "", "access": "", "description": "", "indoor": "" }, "geometry": { "type": "Point", "coordinates": [ 104.0055367, 30.5690634 ] } },
{ "type": "Feature", "properties": { "full_id": "n6594651963", "osm_id": "6594651963", "osm_type": "node", "name": "Shunfeng", "name:en": "Shunfeng", "public_transport": "stop_position", "railway": "stop", "subway": "", "name:zh": "顺风", "train": "yes", "station": "", "network": "", "monorail": "", "access": "", "description": "", "indoor": "" }, "geometry": { "type": "Point", "coordinates": [ 104.0087991, 30.5795109 ] } },
{ "type": "Feature", "properties": { "full_id": "n6594685538", "osm_id": "6594685538", "osm_type": "node", "name": "Shanbanqiao (new)", "name:en": "Shanbanqiao", "public_transport": "stop_position", "railway": "stop", "subway": "", "name:zh": "杉板桥", "train": "yes", "station": "", "network": "", "monorail": "", "access": "", "description": "", "indoor": "" }, "geometry": { "type": "Point", "coordinates": [ 104.116988, 30.666748 ] } },
{ "type": "Feature", "properties": { "full_id": "n6594685539", "osm_id": "6594685539", "osm_type": "node", "name": "Eastern Suburb Memory", "name:en": "Eastern Suburb Memory", "public_transport": "stop_position", "railway": "stop", "subway": "", "name:zh": "东郊记忆", "train": "yes", "station": "", "network": "", "monorail": "", "access": "", "description": "", "indoor": "" }, "geometry": { "type": "Point", "coordinates": [ 104.1260102, 30.670476 ] } }
]
}
