{
"type": "FeatureCollection",
"name": "hefei-line-1-phase1+2-stops",
"crs": { "type": "name", "properties": { "name": "urn:ogc:def:crs:OGC:1.3:CRS84" } },
"features": [
{ "type": "Feature", "properties": { "full_id": "n2987302599", "osm_id": "2987302599", "osm_type": "node", "name": "Qiupuhelu", "name:en": "Qiupuhelu", "public_transport": "stop_position", "subway": "yes", "railway": "station", "station": "subway", "wikidata": "Q17028468", "alt_name": "", "alt_name:en": "", "name:zh": "", "access": "", "description": "" }, "geometry": { "type": "Point", "coordinates": [ 117.2966185, 31.8261839 ] } },
{ "type": "Feature", "properties": { "full_id": "n2987302600", "osm_id": "2987302600", "osm_type": "node", "name": "Zhugang", "name:en": "Zhugang", "public_transport": "stop_position", "subway": "yes", "railway": "station", "station": "subway", "wikidata": "Q17023737", "alt_name": "", "alt_name:en": "", "name:zh": "", "access": "", "description": "" }, "geometry": { "type": "Point", "coordinates": [ 117.296255, 31.8340842 ] } },
{ "type": "Feature", "properties": { "full_id": "n2987302601", "osm_id": "2987302601", "osm_type": "node", "name": "Hefei University of Technology South Campus", "name:en": "Hefei University of Technology South Campus", "public_transport": "stop_position", "subway": "yes", "railway": "station", "station": "subway", "wikidata": "Q17022502", "alt_name": "", "alt_name:en": "", "name:zh": "", "access": "", "description": "" }, "geometry": { "type": "Point", "coordinates": [ 117.2951521, 31.8492551 ] } },
{ "type": "Feature", "properties": { "full_id": "n3634890869", "osm_id": "3634890869", "osm_type": "node", "name": "Tangxihegongyuan", "name:en": "Tangxihegongyuan", "public_transport": "stop_position", "subway": "yes", "railway": "station", "station": "subway", "wikidata": "Q15895006", "alt_name": "", "alt_name:en": "", "name:zh": "", "access": "", "description": "" }, "geometry": { "type": "Point", "coordinates": [ 117.2971166, 31.7333324 ] } },
{ "type": "Feature", "properties": { "full_id": "n2987302603", "osm_id": "2987302603", "osm_type": "node", "name": "Baogongyuan", "name:en": "Baogongyuan", "public_transport": "stop_position", "subway": "yes", "railway": "station", "station": "subway", "wikidata": "Q17028612", "alt_name": "", "alt_name:en": "", "name:zh": "", "access": "", "description": "" }, "geometry": { "type": "Point", "coordinates": [ 117.2961932, 31.8586938 ] } },
{ "type": "Feature", "properties": { "full_id": "n2987302581", "osm_id": "2987302581", "osm_type": "node", "name": "Luogang", "name:en": "Luogang", "public_transport": "stop_position", "subway": "yes", "railway": "station", "station": "subway", "wikidata": "", "alt_name": "", "alt_name:en": "", "name:zh": "", "access": "", "description": "" }, "geometry": { "type": "Point", "coordinates": [ 117.2860048, 31.7850886 ] } },
{ "type": "Feature", "properties": { "full_id": "n3634890870", "osm_id": "3634890870", "osm_type": "node", "name": "Zilu", "name:en": "Zilu", "public_transport": "stop_position", "subway": "yes", "railway": "station", "station": "subway", "wikidata": "Q17032362", "alt_name": "", "alt_name:en": "", "name:zh": "", "access": "", "description": "" }, "geometry": { "type": "Point", "coordinates": [ 117.2971362, 31.7427941 ] } },
{ "type": "Feature", "properties": { "full_id": "n2987302583", "osm_id": "2987302583", "osm_type": "node", "name": "Hefei South Station South Square", "name:en": "Hefei South Station South Square", "public_transport": "stop_position", "subway": "yes", "railway": "station", "station": "subway", "wikidata": "", "alt_name": "", "alt_name:en": "", "name:zh": "", "access": "", "description": "" }, "geometry": { "type": "Point", "coordinates": [ 117.2858548, 31.794344 ] } },
{ "type": "Feature", "properties": { "full_id": "n3634890871", "osm_id": "3634890871", "osm_type": "node", "name": "Binhu International Convention Center", "name:en": "Binhu International Convention Center", "public_transport": "stop_position", "subway": "yes", "railway": "station", "station": "subway", "wikidata": "Q17029311", "alt_name": "", "alt_name:en": "", "name:zh": "", "access": "", "description": "" }, "geometry": { "type": "Point", "coordinates": [ 117.297163, 31.7565703 ] } },
{ "type": "Feature", "properties": { "full_id": "n2987302590", "osm_id": "2987302590", "osm_type": "node", "name": "Wanghucheng", "name:en": "Wanghucheng", "public_transport": "stop_position", "subway": "yes", "railway": "station", "station": "subway", "wikidata": "Q17025591", "alt_name": "", "alt_name:en": "", "name:zh": "", "access": "", "description": "" }, "geometry": { "type": "Point", "coordinates": [ 117.2867949, 31.8074572 ] } },
{ "type": "Feature", "properties": { "full_id": "n2987302597", "osm_id": "2987302597", "osm_type": "node", "name": "Gedadian", "name:en": "Gedadian", "public_transport": "stop_position", "subway": "yes", "railway": "station", "station": "subway", "wikidata": "Q17033793", "alt_name": "", "alt_name:en": "", "name:zh": "", "access": "", "description": "" }, "geometry": { "type": "Point", "coordinates": [ 117.2976136, 31.8165231 ] } },
{ "type": "Feature", "properties": { "full_id": "n2987302556", "osm_id": "2987302556", "osm_type": "node", "name": "Bingzipu", "name:en": "Bingzipu", "public_transport": "stop_position", "subway": "yes", "railway": "", "station": "", "wikidata": "", "alt_name": "", "alt_name:en": "", "name:zh": "", "access": "", "description": "" }, "geometry": { "type": "Point", "coordinates": [ 117.2919336, 31.6933361 ] } },
{ "type": "Feature", "properties": { "full_id": "n2987302557", "osm_id": "2987302557", "osm_type": "node", "name": "Jiulianwei", "name:en": "Jiulianwei", "public_transport": "stop_position", "subway": "yes", "railway": "stop", "station": "", "wikidata": "", "alt_name": "", "alt_name:en": "", "name:zh": "", "access": "", "description": "" }, "geometry": { "type": "Point", "coordinates": [ 117.2807372, 31.6933471 ] } },
{ "type": "Feature", "properties": { "full_id": "n2987302580", "osm_id": "2987302580", "osm_type": "node", "name": "Gaowang", "name:en": "Gaowang", "public_transport": "stop_position", "subway": "yes", "railway": "station", "station": "subway", "wikidata": "Q17028894", "alt_name": "", "alt_name:en": "", "name:zh": "", "access": "", "description": "" }, "geometry": { "type": "Point", "coordinates": [ 117.2859998, 31.7749332 ] } },
{ "type": "Feature", "properties": { "full_id": "n3634890855", "osm_id": "3634890855", "osm_type": "node", "name": "Wannianbu", "name:en": "Wannianbu", "public_transport": "stop_position", "subway": "yes", "railway": "", "station": "", "wikidata": "", "alt_name": "", "alt_name:en": "", "name:zh": "", "access": "", "description": "" }, "geometry": { "type": "Point", "coordinates": [ 117.296565, 31.700303 ] } },
{ "type": "Feature", "properties": { "full_id": "n3634890856", "osm_id": "3634890856", "osm_type": "node", "name": "Wandacheng", "name:en": "Wandacheng", "public_transport": "stop_position", "subway": "yes", "railway": "station", "station": "subway", "wikidata": "Q17022726", "alt_name": "", "alt_name:en": "", "name:zh": "", "access": "", "description": "" }, "geometry": { "type": "Point", "coordinates": [ 117.2965551, 31.7077438 ] } },
{ "type": "Feature", "properties": { "full_id": "n3634890857", "osm_id": "3634890857", "osm_type": "node", "name": "Yungulu", "name:en": "Yungulu", "public_transport": "stop_position", "subway": "yes", "railway": "station", "station": "subway", "wikidata": "Q17163631", "alt_name": "", "alt_name:en": "", "name:zh": "", "access": "", "description": "" }, "geometry": { "type": "Point", "coordinates": [ 117.2966218, 31.715116 ] } },
{ "type": "Feature", "properties": { "full_id": "n3634890866", "osm_id": "3634890866", "osm_type": "node", "name": "Jindougongyuan", "name:en": "Jindougongyuan", "public_transport": "stop_position", "subway": "yes", "railway": "station", "station": "subway", "wikidata": "Q17025434", "alt_name": "", "alt_name:en": "", "name:zh": "", "access": "", "description": "" }, "geometry": { "type": "Point", "coordinates": [ 117.2971381, 31.7248549 ] } },
{ "type": "Feature", "properties": { "full_id": "n7284562661", "osm_id": "7284562661", "osm_type": "node", "name": "Hefei South Railway Station", "name:en": "Hefei South Railway Station", "public_transport": "stop_position", "subway": "yes", "railway": "", "station": "", "wikidata": "", "alt_name": "", "alt_name:en": "", "name:zh": "", "access": "", "description": "" }, "geometry": { "type": "Point", "coordinates": [ 117.2848233, 31.8018888 ] } },
{ "type": "Feature", "properties": { "full_id": "n6541862090", "osm_id": "6541862090", "osm_type": "node", "name": "Dadongmen", "name:en": "Dadongmen", "public_transport": "stop_position", "subway": "yes", "railway": "stop", "station": "subway", "wikidata": "", "alt_name": "", "alt_name:en": "", "name:zh": "", "access": "", "description": "" }, "geometry": { "type": "Point", "coordinates": [ 117.2954001, 31.8662157 ] } },
{ "type": "Feature", "properties": { "full_id": "n7089741271", "osm_id": "7089741271", "osm_type": "node", "name": "Hefei Railway Station", "name:en": "Hefei Railway Station", "public_transport": "stop_position", "subway": "yes", "railway": "", "station": "", "wikidata": "", "alt_name": "", "alt_name:en": "", "name:zh": "", "access": "", "description": "" }, "geometry": { "type": "Point", "coordinates": [ 117.3097889, 31.8853037 ] } },
{ "type": "Feature", "properties": { "full_id": "n2987302608", "osm_id": "2987302608", "osm_type": "node", "name": "Mingguanglu", "name:en": "Mingguanglu", "public_transport": "stop_position", "subway": "yes", "railway": "station", "station": "subway", "wikidata": "Q17025479", "alt_name": "", "alt_name:en": "", "name:zh": "", "access": "", "description": "" }, "geometry": { "type": "Point", "coordinates": [ 117.2993577, 31.8720592 ] } },
{ "type": "Feature", "properties": { "full_id": "n2987302609", "osm_id": "2987302609", "osm_type": "node", "name": "Changhuai", "name:en": "Changhuai", "public_transport": "stop_position", "subway": "yes", "railway": "station", "station": "subway", "wikidata": "Q17020499", "alt_name": "", "alt_name:en": "", "name:zh": "", "access": "", "description": "" }, "geometry": { "type": "Point", "coordinates": [ 117.3036709, 31.8774087 ] } },
{ "type": "Feature", "properties": { "full_id": "n3634890876", "osm_id": "3634890876", "osm_type": "node", "name": "Xinghuayuan", "name:en": "Xinghuayuan", "public_transport": "stop_position", "subway": "yes", "railway": "stop", "station": "subway", "wikidata": "", "alt_name": null, "alt_name:en": null, "name:zh": null, "access": null, "description": null }, "geometry": { "type": "Point", "coordinates": [ 117.3080976, 31.9055646 ] } },
{ "type": "Feature", "properties": { "full_id": "n5134150551", "osm_id": "5134150551", "osm_type": "node", "name": "Yaohaigongyuan", "name:en": "Yaohaigongyuan", "public_transport": "stop_position", "subway": "yes", "railway": "stop", "station": "subway", "wikidata": "", "alt_name": null, "alt_name:en": null, "name:zh": null, "access": null, "description": null }, "geometry": { "type": "Point", "coordinates": [ 117.3088498, 31.8920805 ] } },
{ "type": "Feature", "properties": { "full_id": "n3634890840", "osm_id": "3634890840", "osm_type": "node", "name": "Zhangwa", "name:en": "Zhangwa", "public_transport": "stop_position", "subway": "yes", "railway": "stop", "station": "subway", "wikidata": "Q17023705", "alt_name": null, "alt_name:en": null, "name:zh": null, "access": null, "description": null }, "geometry": { "type": "Point", "coordinates": [ 117.3169819, 31.9203031 ] } }
]
}
