{
"type": "FeatureCollection",
"name": "nanjing-line-1-phase-1-stops",
"crs": { "type": "name", "properties": { "name": "urn:ogc:def:crs:OGC:1.3:CRS84" } },
"features": [
{ "type": "Feature", "properties": { "full_id": "n2594965459", "osm_id": "2594965459", "osm_type": "node", "name": "Sanshanjie", "name:en": "Sanshanjie", "name:zh": "三山街", "name:zh_pinyin": "Sānshān Jiē", "public_transport": "stop_position", "railway": "stop", "ref": "M1", "subway": "yes", "name:ja": "", "wikidata": "", "wikipedia": "", "alt_name": "", "access": "", "description": "", "station": "", "colour": "", "network": "", "name:ko": "", "train": "", "operator": "" }, "geometry": { "type": "Point", "coordinates": [ 118.7764265, 32.0250313 ] } },
{ "type": "Feature", "properties": { "full_id": "n5451782627", "osm_id": "5451782627", "osm_type": "node", "name": "Gulou", "name:en": "Gulou", "name:zh": "鼓楼", "name:zh_pinyin": "Gŭlóu", "public_transport": "stop_position", "railway": "stop", "ref": "", "subway": "yes", "name:ja": "", "wikidata": "", "wikipedia": "", "alt_name": "", "access": "", "description": "", "station": "", "colour": "", "network": "", "name:ko": "", "train": "", "operator": "" }, "geometry": { "type": "Point", "coordinates": [ 118.7789441, 32.0608273 ] } },
{ "type": "Feature", "properties": { "full_id": "n881785732", "osm_id": "881785732", "osm_type": "node", "name": "Xinjiekou", "name:en": "Xinjiekou", "name:zh": "新街口", "name:zh_pinyin": "Xīnjiēkŏu", "public_transport": "stop_position", "railway": "stop", "ref": "", "subway": "yes", "name:ja": "", "wikidata": "", "wikipedia": "", "alt_name": "", "access": "", "description": "", "station": "", "colour": "", "network": "", "name:ko": "", "train": "", "operator": "" }, "geometry": { "type": "Point", "coordinates": [ 118.7788642, 32.0433328 ] } },
{ "type": "Feature", "properties": { "full_id": "n881785734", "osm_id": "881785734", "osm_type": "node", "name": "Zhangfuyuan", "name:en": "Zhangfuyuan", "name:zh": "张府园", "name:zh_pinyin": "Zhāngfŭyuán", "public_transport": "stop_position", "railway": "station", "ref": "M1", "subway": "yes", "name:ja": "", "wikidata": "", "wikipedia": "", "alt_name": "", "access": "", "description": "", "station": "", "colour": "", "network": "", "name:ko": "", "train": "", "operator": "" }, "geometry": { "type": "Point", "coordinates": [ 118.7787266, 32.0317926 ] } },
{ "type": "Feature", "properties": { "full_id": "n771136527", "osm_id": "771136527", "osm_type": "node", "name": "Xuanwumen", "name:en": "Xuanwumen", "name:zh": "玄武门", "name:zh_pinyin": "Xuánwŭmén", "public_transport": "stop_position", "railway": "station", "ref": "M1", "subway": "yes", "name:ja": "", "wikidata": "", "wikipedia": "", "alt_name": "", "access": "", "description": "", "station": "", "colour": "", "network": "", "name:ko": "", "train": "", "operator": "" }, "geometry": { "type": "Point", "coordinates": [ 118.7788602, 32.0719481 ] } },
{ "type": "Feature", "properties": { "full_id": "n771136524", "osm_id": "771136524", "osm_type": "node", "name": "Nanjing Railway Station", "name:en": "Nanjing Railway Station", "name:zh": "南京站", "name:zh_pinyin": "Nánjīngzhàn", "public_transport": "stop_position", "railway": "station", "ref": "M1", "subway": "yes", "name:ja": "南京駅", "wikidata": "", "wikipedia": "", "alt_name": "", "access": "", "description": "", "station": "", "colour": "", "network": "", "name:ko": "", "train": "", "operator": "" }, "geometry": { "type": "Point", "coordinates": [ 118.7907519, 32.0892375 ] } },
{ "type": "Feature", "properties": { "full_id": "n771136526", "osm_id": "771136526", "osm_type": "node", "name": "Xinmofanlu", "name:en": "Xinmofanlu", "name:zh": "新模范马路", "name:zh_pinyin": "Xīnmófànmă Lù", "public_transport": "station", "railway": "station", "ref": "M1", "subway": "yes", "name:ja": "", "wikidata": "Q11083030", "wikipedia": "zh:新模范马路站", "alt_name": "", "access": "", "description": "", "station": "", "colour": "", "network": "", "name:ko": "", "train": "", "operator": "" }, "geometry": { "type": "Point", "coordinates": [ 118.7788838, 32.0813614 ] } },
{ "type": "Feature", "properties": { "full_id": "n771136518", "osm_id": "771136518", "osm_type": "node", "name": "Hongshan Zoo", "name:en": "Hongshan Zoo", "name:zh": "红山动物园", "name:zh_pinyin": "Hóngshān Dòngwùyuán", "public_transport": "stop_position", "railway": "station", "ref": "M1", "subway": "yes", "name:ja": "", "wikidata": "", "wikipedia": "", "alt_name": "", "access": "", "description": "", "station": "", "colour": "", "network": "", "name:ko": "", "train": "", "operator": "" }, "geometry": { "type": "Point", "coordinates": [ 118.7968224, 32.09787 ] } },
{ "type": "Feature", "properties": { "full_id": "n771136517", "osm_id": "771136517", "osm_type": "node", "name": "Maigaoqiao", "name:en": "Maigaoqiao", "name:zh": "迈皋桥", "name:zh_pinyin": "Màigāoqiáo", "public_transport": "station", "railway": "station", "ref": "M1", "subway": "yes", "name:ja": "", "wikidata": "", "wikipedia": "", "alt_name": "", "access": "", "description": "", "station": "", "colour": "", "network": "", "name:ko": "", "train": "", "operator": "" }, "geometry": { "type": "Point", "coordinates": [ 118.8045204, 32.1049847 ] } },
{ "type": "Feature", "properties": { "full_id": "n6485271663", "osm_id": "6485271663", "osm_type": "node", "name": "Andemen", "name:en": "Andemen", "name:zh": "安德门", "name:zh_pinyin": "Āndémén", "public_transport": "stop_position", "railway": "", "ref": "M1", "subway": "yes", "name:ja": "", "wikidata": "", "wikipedia": "", "alt_name": "", "access": "", "description": "", "station": "", "colour": "", "network": "", "name:ko": "", "train": "", "operator": "" }, "geometry": { "type": "Point", "coordinates": [ 118.7563638, 31.9933455 ] } },
{ "type": "Feature", "properties": { "full_id": "n1038064762", "osm_id": "1038064762", "osm_type": "node", "name": "Zhujianglu", "name:en": "Zhujianglu", "name:zh": "珠江路", "name:zh_pinyin": "Zhūjiāng Lù", "public_transport": "stop_position", "railway": "station", "ref": "", "subway": "yes", "name:ja": "", "wikidata": "Q8071219", "wikipedia": "", "alt_name": "", "access": "", "description": "", "station": "", "colour": "", "network": "", "name:ko": "", "train": "", "operator": "" }, "geometry": { "type": "Point", "coordinates": [ 118.7787926, 32.0525751 ] } },
{ "type": "Feature", "properties": { "full_id": "n6469576313", "osm_id": "6469576313", "osm_type": "node", "name": "Yuantong (merged to Line 10 now)", "name:en": "Yuantong", "name:zh": "元通", "name:zh_pinyin": "Yuántōng", "public_transport": "stop_position", "railway": "", "ref": "M1", "subway": "yes", "name:ja": "元通", "wikidata": "", "wikipedia": "", "alt_name": "", "access": "", "description": "", "station": "", "colour": "", "network": "", "name:ko": "", "train": "", "operator": "" }, "geometry": { "type": "Point", "coordinates": [ 118.7165451, 31.9978925 ] } },
{ "type": "Feature", "properties": { "full_id": "n771136531", "osm_id": "771136531", "osm_type": "node", "name": "Xiaohang (merged to Line 10 now)", "name:en": "Xiaohang", "name:zh": "小行", "name:zh_pinyin": "Xiăohàng", "public_transport": "station", "railway": "station", "ref": "M1", "subway": "yes", "name:ja": "", "wikidata": "", "wikipedia": "", "alt_name": "", "access": "", "description": "", "station": "", "colour": "", "network": "", "name:ko": "", "train": "", "operator": "" }, "geometry": { "type": "Point", "coordinates": [ 118.7395264, 31.9845207 ] } },
{ "type": "Feature", "properties": { "full_id": "n771136522", "osm_id": "771136522", "osm_type": "node", "name": "Zhongsheng (merged to Line 10 now)", "name:en": "Zhongsheng", "name:zh": "中胜", "name:zh_pinyin": "Zhōngshèng", "public_transport": "stop_position", "railway": "station", "ref": "M1", "subway": "yes", "name:ja": "", "wikidata": "", "wikipedia": "", "alt_name": "", "access": "", "description": "", "station": "", "colour": "", "network": "", "name:ko": "", "train": "", "operator": "" }, "geometry": { "type": "Point", "coordinates": [ 118.7279988, 31.9900506 ] } },
{ "type": "Feature", "properties": { "full_id": "n771136519", "osm_id": "771136519", "osm_type": "node", "name": "Olympic Stadium (merged to Line 10 now)", "name:en": "Olympic Stadium", "name:zh": "奥体中心", "name:zh_pinyin": "Àotĭ Zhōngxīn", "public_transport": "stop_position", "railway": "station", "ref": "M1", "subway": "yes", "name:ja": "オリンピックスポーツセンター", "wikidata": "", "wikipedia": "", "alt_name": "", "access": "", "description": "", "station": "", "colour": "", "network": "", "name:ko": "", "train": "", "operator": "" }, "geometry": { "type": "Point", "coordinates": [ 118.7131295, 32.0108019 ] } },
{ "type": "Feature", "properties": { "full_id": null, "osm_id": null, "osm_type": null, "name": "Zhonghuamen", "name:en": null, "name:zh": null, "name:zh_pinyin": null, "public_transport": null, "railway": null, "ref": null, "subway": null, "name:ja": null, "wikidata": null, "wikipedia": null, "alt_name": null, "access": null, "description": null, "station": null, "colour": null, "network": null, "name:ko": null, "train": null, "operator": null }, "geometry": { "type": "Point", "coordinates": [ 118.769315237939807, 32.00874331018624 ] } }
]
}
