{
"type": "FeatureCollection",
"name": "shenzhen-line-8-phase-1-stops",
"crs": { "type": "name", "properties": { "name": "urn:ogc:def:crs:OGC:1.3:CRS84" } },
"features": [
{ "type": "Feature", "properties": { "full_id": "n3801922045", "osm_id": "3801922045", "osm_type": "node", "name": "Shenzhen Foreign Languages School", "name:en": "", "proposed": "", "railway": "construction", "name:zh": "深外高中", "public_transport": "", "station": "", "train": "", "construction": "station", "network": "", "operator": "", "subway": "", "wikidata": "", "platforms": "", "public_transport:proposed": "" }, "geometry": { "type": "Point", "coordinates": [ 114.2443515, 22.5838437 ] } },
{ "type": "Feature", "properties": { "full_id": "n3801922027", "osm_id": "3801922027", "osm_type": "node", "name": "Yantian Port West", "name:en": "Yantian Port West", "proposed": "", "railway": "construction", "name:zh": "盐田港西", "public_transport": "", "station": "", "train": "", "construction": "station", "network": "", "operator": "", "subway": "", "wikidata": "", "platforms": "", "public_transport:proposed": "" }, "geometry": { "type": "Point", "coordinates": [ 114.2419326, 22.5651981 ] } },
{ "type": "Feature", "properties": { "full_id": "n3801922015", "osm_id": "3801922015", "osm_type": "node", "name": "Yantian Road", "name:en": "Yantian Road", "proposed": "", "railway": "construction", "name:zh": "盐田路", "public_transport": "", "station": "", "train": "", "construction": "station", "network": "", "operator": "", "subway": "", "wikidata": "", "platforms": "", "public_transport:proposed": "" }, "geometry": { "type": "Point", "coordinates": [ 114.2502974, 22.5910071 ] } },
{ "type": "Feature", "properties": { "full_id": "n6673778659", "osm_id": "6673778659", "osm_type": "node", "name": "Changling", "name:en": "Changling", "proposed": "", "railway": "", "name:zh": "长岭", "public_transport": "stop_position", "station": "", "train": "", "construction": "station", "network": "", "operator": "", "subway": "", "wikidata": "", "platforms": "", "public_transport:proposed": "" }, "geometry": { "type": "Point", "coordinates": [ 114.1799262, 22.559252 ] } },
{ "type": "Feature", "properties": { "full_id": "n6673778619", "osm_id": "6673778619", "osm_type": "node", "name": "Shatoujiao", "name:en": "Shatoujiao", "proposed": "", "railway": "", "name:zh": "沙头角", "public_transport": "stop_position", "station": "", "train": "", "construction": "station", "network": "", "operator": "", "subway": "", "wikidata": "Q96250912", "platforms": "", "public_transport:proposed": "" }, "geometry": { "type": "Point", "coordinates": [ 114.2219337, 22.5571204 ] } },
{ "type": "Feature", "properties": { "full_id": "n6673778602", "osm_id": "6673778602", "osm_type": "node", "name": "Haishan", "name:en": "Haishan", "proposed": "", "railway": "", "name:zh": "海山", "public_transport": "stop_position", "station": "", "train": "", "construction": "station", "network": "", "operator": "", "subway": "", "wikidata": "Q96250918", "platforms": "", "public_transport:proposed": "" }, "geometry": { "type": "Point", "coordinates": [ 114.2341653, 22.5591555 ] } }
]
}
