{
"type": "FeatureCollection",
"name": "singapore-circle-line-stage-6-stops",
"crs": { "type": "name", "properties": { "name": "urn:ogc:def:crs:OGC:1.3:CRS84" } },
"features": [
{ "type": "Feature", "properties": { "full_id": "n5780903836", "osm_id": "5780903836", "osm_type": "node", "name": "Keppel", "name:en": "Keppel", "name:ta": "கெப்பல்", "name:zh": "岌巴", "network": "MRT", "operator": "", "public_transport": "", "railway": "construction", "ref": "CC30", "subway": "", "name:ms": "Keppel", "train": "", "wheelchair": "yes", "wikidata": "Q20983869", "construction": "station", "station": "subway", "wikipedia": "en:Keppel MRT station", "construction:public_transport": "", "construction:railway": "", "construction:subway": "", "location": "" }, "geometry": { "type": "Point", "coordinates": [ 103.82934, 1.2695739 ] } },
{ "type": "Feature", "properties": { "full_id": "n4896824813", "osm_id": "4896824813", "osm_type": "node", "name": "Prince Edward Road", "name:en": "Prince Edward Road", "name:ta": "பிரின்ஸ் எட்வர்ட் ரோடு", "name:zh": "爱德华太子", "network": "MRT", "operator": "", "public_transport": "", "railway": "construction", "ref": "CC32", "subway": "", "name:ms": "Prince Edward Road", "train": "", "wheelchair": "yes", "wikidata": "Q22082862", "construction": "station", "station": "subway", "wikipedia": "en:Prince Edward Road MRT station", "construction:public_transport": "", "construction:railway": "", "construction:subway": "", "location": "" }, "geometry": { "type": "Point", "coordinates": [ 103.8464105, 1.2729686 ] } },
{ "type": "Feature", "properties": { "full_id": "n3810635811", "osm_id": "3810635811", "osm_type": "node", "name": "Cantonment", "name:en": "Cantonment", "name:ta": "கெண்டொன்மன்", "name:zh": "广东民", "network": "MRT", "operator": "", "public_transport": "", "railway": "construction", "ref": "CC31", "subway": "", "name:ms": "Cantonment", "train": "", "wheelchair": "yes", "wikidata": "Q19580291", "construction": "station", "station": "subway", "wikipedia": "en:Cantonment MRT station", "construction:public_transport": "", "construction:railway": "", "construction:subway": "", "location": "" }, "geometry": { "type": "Point", "coordinates": [ 103.8374515, 1.2728419 ] } }
]
}
