{
"type": "FeatureCollection",
"name": "taipei-xinyi-lin-stops",
"crs": { "type": "name", "properties": { "name": "urn:ogc:def:crs:OGC:1.3:CRS84" } },
"features": [
{ "type": "Feature", "properties": { "full_id": "n6124808865", "osm_id": "6124808865", "osm_type": "node", "addr:country": "TW", "addr:district": "大安區", "addr:housenumber": "212-1", "addr:postcode": "10681", "addr:street": "信義路四段", "name": "Xinyi Anhe", "name:en": "Xinyi Anhe", "name:nan": "Sìn-gī-an-hô", "name:nan-POJ": "Sìn-gī-an-hô", "name:nan-TL": "Sìn-gī-an-hô", "name:zh": "信義安和", "name:zh_pinyin": "", "network": "臺北捷運", "old_ref": "R7", "operator": "臺北大眾捷運股份有限公司", "postal_code": "", "public_transport": "stop_position", "ref": "R05", "start_date": "", "subway": "yes", "wikidata": "Q8044681", "wikipedia": "zh:信義安和站", "railway": "stop", "alt_name": "", "alt_name:en": "", "alt_name:nan": "", "alt_name:zh_pinyin": "", "toilets:wheelchair": "", "wheelchair": "", "addr:city": "臺北市", "addr:floor": "-1", "addr:full": "10681臺北市大安區信義路四段212-1號B1", "name:ja": "", "name:ko": "신이안허", "addr:state": "臺北市", "name:nan-HJ": "", "air_conditioning": "", "name:hak": "", "name:zh-Hans": "", "name:zh-Hant": "", "station": "", "local_ref": "", "phone": "", "website": "", "wheelchair:description": "", "entrance": "", "level": "", "baby_feeding": "", "internet_access": "", "alt_name:zh": "", "description": "", "access": "", "continue": "", "alt_name:ko": "", "train": "", "highway": "", "traffic_signals": "", "old_name": "", "construction:public_transport": "", "construction:subway": "", "int_name": "", "proposed:ref": "", "amenity": "", "internet_access:fee": "", "outdoor_seating": "", "smoking": "", "toilets": "", "toilets:access": "", "proposed:name": "", "crossing": "", "traffic_signals:direction": "", "old_name:en": "", "alt_name:nan-POJ": "", "alt_name:nan-TL": "" }, "geometry": { "type": "Point", "coordinates": [ 121.5526713, 25.0332406 ] } },
{ "type": "Feature", "properties": { "full_id": "n2051219270", "osm_id": "2051219270", "osm_type": "node", "addr:country": "", "addr:district": "", "addr:housenumber": "", "addr:postcode": "", "addr:street": "", "name": "Chiang Kai-Shek Memorial Hall", "name:en": "", "name:nan": "", "name:nan-POJ": "", "name:nan-TL": "", "name:zh": "", "name:zh_pinyin": "", "network": "", "old_ref": "", "operator": "", "postal_code": "", "public_transport": "", "ref": "", "start_date": "", "subway": "", "wikidata": "", "wikipedia": "", "railway": "switch", "alt_name": "", "alt_name:en": "", "alt_name:nan": "", "alt_name:zh_pinyin": "", "toilets:wheelchair": "", "wheelchair": "", "addr:city": "", "addr:floor": "", "addr:full": "", "name:ja": "", "name:ko": "", "addr:state": "", "name:nan-HJ": "", "air_conditioning": "", "name:hak": "", "name:zh-Hans": "", "name:zh-Hant": "", "station": "", "local_ref": "", "phone": "", "website": "", "wheelchair:description": "", "entrance": "", "level": "", "baby_feeding": "", "internet_access": "", "alt_name:zh": "", "description": "", "access": "", "continue": "", "alt_name:ko": "", "train": "", "highway": "", "traffic_signals": "", "old_name": "", "construction:public_transport": "", "construction:subway": "", "int_name": "", "proposed:ref": "", "amenity": "", "internet_access:fee": "", "outdoor_seating": "", "smoking": "", "toilets": "", "toilets:access": "", "proposed:name": "", "crossing": "", "traffic_signals:direction": "", "old_name:en": "", "alt_name:nan-POJ": "", "alt_name:nan-TL": "" }, "geometry": { "type": "Point", "coordinates": [ 121.5183268, 25.0327749 ] } },
{ "type": "Feature", "properties": { "full_id": "n2051219301", "osm_id": "2051219301", "osm_type": "node", "addr:country": "TW", "addr:district": "信義區", "addr:housenumber": "152", "addr:postcode": "11080", "addr:street": "信義路五段", "name": "Xiangshan", "name:en": "Xiangshan", "name:nan": "Chhiūⁿ-soaⁿ", "name:nan-POJ": "Chhiūⁿ-soaⁿ", "name:nan-TL": "Tshiūnn-suann", "name:zh": "象山", "name:zh_pinyin": "", "network": "臺北捷運", "old_ref": "R5", "operator": "臺北大眾捷運股份有限公司", "postal_code": "", "public_transport": "stop_position", "ref": "R03", "start_date": "", "subway": "yes", "wikidata": "Q4276721", "wikipedia": "zh:象山站", "railway": "stop", "alt_name": "", "alt_name:en": "", "alt_name:nan": "", "alt_name:zh_pinyin": "", "toilets:wheelchair": "", "wheelchair": "", "addr:city": "臺北市", "addr:floor": "-1", "addr:full": "11080臺北市信義區信義路五段152號B1", "name:ja": "", "name:ko": "샹산", "addr:state": "", "name:nan-HJ": "", "air_conditioning": "", "name:hak": "", "name:zh-Hans": "", "name:zh-Hant": "", "station": "", "local_ref": "2", "phone": "", "website": "", "wheelchair:description": "", "entrance": "", "level": "", "baby_feeding": "", "internet_access": "", "alt_name:zh": "", "description": "", "access": "", "continue": "", "alt_name:ko": "", "train": "", "highway": "", "traffic_signals": "", "old_name": "", "construction:public_transport": "", "construction:subway": "", "int_name": "", "proposed:ref": "", "amenity": "", "internet_access:fee": "", "outdoor_seating": "", "smoking": "", "toilets": "", "toilets:access": "", "proposed:name": "", "crossing": "", "traffic_signals:direction": "", "old_name:en": "", "alt_name:nan-POJ": "", "alt_name:nan-TL": "" }, "geometry": { "type": "Point", "coordinates": [ 121.5697521, 25.032803 ] } },
{ "type": "Feature", "properties": { "full_id": "n6428854542", "osm_id": "6428854542", "osm_type": "node", "addr:country": "", "addr:district": "", "addr:housenumber": "", "addr:postcode": "", "addr:street": "", "name": "Daan", "name:en": "", "name:nan": "", "name:nan-POJ": "", "name:nan-TL": "", "name:zh": "", "name:zh_pinyin": "", "network": "", "old_ref": "", "operator": "", "postal_code": "", "public_transport": "", "ref": "", "start_date": "", "subway": "", "wikidata": "", "wikipedia": "", "railway": "switch", "alt_name": "", "alt_name:en": "", "alt_name:nan": "", "alt_name:zh_pinyin": "", "toilets:wheelchair": "", "wheelchair": "", "addr:city": "", "addr:floor": "", "addr:full": "", "name:ja": "", "name:ko": "", "addr:state": "", "name:nan-HJ": "", "air_conditioning": "", "name:hak": "", "name:zh-Hans": "", "name:zh-Hant": "", "station": "", "local_ref": "", "phone": "", "website": "", "wheelchair:description": "", "entrance": "", "level": "", "baby_feeding": "", "internet_access": "", "alt_name:zh": "", "description": "", "access": "", "continue": "", "alt_name:ko": "", "train": "", "highway": "", "traffic_signals": "", "old_name": "", "construction:public_transport": "", "construction:subway": "", "int_name": "", "proposed:ref": "", "amenity": "", "internet_access:fee": "", "outdoor_seating": "", "smoking": "", "toilets": "", "toilets:access": "", "proposed:name": "", "crossing": "", "traffic_signals:direction": "", "old_name:en": "", "alt_name:nan-POJ": "", "alt_name:nan-TL": "" }, "geometry": { "type": "Point", "coordinates": [ 121.5443468, 25.0333009 ] } },
{ "type": "Feature", "properties": { "full_id": "n3494960746", "osm_id": "3494960746", "osm_type": "node", "addr:country": "TW", "addr:district": "信義區", "addr:housenumber": "20", "addr:postcode": "11049", "addr:street": "信義路五段", "name": "Taipei 101\/World Trade Center", "name:en": "Taipei 101\/World Trade Center", "name:nan": "Tâi-pak It-khòng-it\/Sè-bō͘", "name:nan-POJ": "Tâi-pak It-khòng-it\/Sè-bō͘", "name:nan-TL": "Tâi-pak It-khòng-it\/ Sè-bōo", "name:zh": "台北101\/世貿", "name:zh_pinyin": "tái běi 101\/shì mào", "network": "臺北捷運", "old_ref": "R6", "operator": "臺北大眾捷運股份有限公司", "postal_code": "", "public_transport": "station", "ref": "R03", "start_date": "", "subway": "yes", "wikidata": "Q7676267", "wikipedia": "zh:台北101\/世貿站", "railway": "station", "alt_name": "", "alt_name:en": "", "alt_name:nan": "", "alt_name:zh_pinyin": "", "toilets:wheelchair": "", "wheelchair": "", "addr:city": "臺北市", "addr:floor": "-1", "addr:full": "11049臺北市信義區信義路五段20號B1", "name:ja": "台北101\/世界貿易センター", "name:ko": "타이베이 101\/세계무역센터", "addr:state": "", "name:nan-HJ": "臺北101\/世貿", "air_conditioning": "yes", "name:hak": "toiˇ bedˋ idˋ langˇ idˋ\/sii meuˋ", "name:zh-Hans": "台北101\/世贸", "name:zh-Hant": "臺北101\/世貿", "station": "subway", "local_ref": "", "phone": "", "website": "", "wheelchair:description": "", "entrance": "", "level": "", "baby_feeding": "", "internet_access": "", "alt_name:zh": "", "description": "", "access": "", "continue": "", "alt_name:ko": "", "train": "yes", "highway": "", "traffic_signals": "", "old_name": "", "construction:public_transport": "", "construction:subway": "", "int_name": "", "proposed:ref": "", "amenity": "", "internet_access:fee": "", "outdoor_seating": "", "smoking": "", "toilets": "", "toilets:access": "", "proposed:name": "", "crossing": "", "traffic_signals:direction": "", "old_name:en": "", "alt_name:nan-POJ": "", "alt_name:nan-TL": "" }, "geometry": { "type": "Point", "coordinates": [ 121.5624455, 25.0330359 ] } },
{ "type": "Feature", "properties": { "full_id": "n2080769941", "osm_id": "2080769941", "osm_type": "node", "addr:country": "TW", "addr:district": "大安區", "addr:housenumber": "100", "addr:postcode": "10656", "addr:street": "信義路三段", "name": "Daan Park", "name:en": "Daan Park", "name:nan": "Tāi-an-sim-lîm-kong-hn̂g", "name:nan-POJ": "Tāi-an-sim-lîm-kong-hn̂g", "name:nan-TL": "Tāi-an-sim-lîm-kong-hn̂g", "name:zh": "大安森林公園", "name:zh_pinyin": "", "network": "臺北捷運", "old_ref": "R9", "operator": "臺北大眾捷運股份有限公司", "postal_code": "", "public_transport": "stop_position", "ref": "R06", "start_date": "", "subway": "yes", "wikidata": "Q5207374", "wikipedia": "zh:大安森林公園站", "railway": "stop", "alt_name": "", "alt_name:en": "", "alt_name:nan": "", "alt_name:zh_pinyin": "", "toilets:wheelchair": "", "wheelchair": "", "addr:city": "臺北市", "addr:floor": "-1", "addr:full": "10656臺北市大安區信義路三段100號B1", "name:ja": "", "name:ko": "다안삼림공원", "addr:state": "臺北市", "name:nan-HJ": "", "air_conditioning": "", "name:hak": "", "name:zh-Hans": "", "name:zh-Hant": "", "station": "", "local_ref": "", "phone": "", "website": "", "wheelchair:description": "", "entrance": "", "level": "", "baby_feeding": "", "internet_access": "", "alt_name:zh": "", "description": "", "access": "", "continue": "", "alt_name:ko": "", "train": "", "highway": "", "traffic_signals": "", "old_name": "", "construction:public_transport": "", "construction:subway": "", "int_name": "", "proposed:ref": "", "amenity": "", "internet_access:fee": "", "outdoor_seating": "", "smoking": "", "toilets": "", "toilets:access": "", "proposed:name": "", "crossing": "", "traffic_signals:direction": "", "old_name:en": "", "alt_name:nan-POJ": "", "alt_name:nan-TL": "" }, "geometry": { "type": "Point", "coordinates": [ 121.5352789, 25.0334975 ] } },
{ "type": "Feature", "properties": { "full_id": null, "osm_id": null, "osm_type": null, "addr:country": null, "addr:district": null, "addr:housenumber": null, "addr:postcode": null, "addr:street": null, "name": "Dongmen", "name:en": null, "name:nan": null, "name:nan-POJ": null, "name:nan-TL": null, "name:zh": null, "name:zh_pinyin": null, "network": null, "old_ref": null, "operator": null, "postal_code": null, "public_transport": null, "ref": null, "start_date": null, "subway": null, "wikidata": null, "wikipedia": null, "railway": null, "alt_name": null, "alt_name:en": null, "alt_name:nan": null, "alt_name:zh_pinyin": null, "toilets:wheelchair": null, "wheelchair": null, "addr:city": null, "addr:floor": null, "addr:full": null, "name:ja": null, "name:ko": null, "addr:state": null, "name:nan-HJ": null, "air_conditioning": null, "name:hak": null, "name:zh-Hans": null, "name:zh-Hant": null, "station": null, "local_ref": null, "phone": null, "website": null, "wheelchair:description": null, "entrance": null, "level": null, "baby_feeding": null, "internet_access": null, "alt_name:zh": null, "description": null, "access": null, "continue": null, "alt_name:ko": null, "train": null, "highway": null, "traffic_signals": null, "old_name": null, "construction:public_transport": null, "construction:subway": null, "int_name": null, "proposed:ref": null, "amenity": null, "internet_access:fee": null, "outdoor_seating": null, "smoking": null, "toilets": null, "toilets:access": null, "proposed:name": null, "crossing": null, "traffic_signals:direction": null, "old_name:en": null, "alt_name:nan-POJ": null, "alt_name:nan-TL": null }, "geometry": { "type": "Point", "coordinates": [ 121.529250905850972, 25.033748823081776 ] } }
]
}
