{
"type": "FeatureCollection",
"name": "seoul-gimpo-urban-railway-stops",
"crs": { "type": "name", "properties": { "name": "urn:ogc:def:crs:OGC:1.3:CRS84" } },
"features": [
{ "type": "Feature", "properties": { "full_id": "n4636808676", "osm_id": "4636808676", "osm_type": "node", "alt_name": "", "alt_name:en": "", "alt_name:ko": "", "name": "풍무", "name:en": "Pungmu", "name:ja": "プンム(豊舞)", "name:ko": "풍무", "name:zh": "豊舞", "operator": "", "public_transport": "station", "railway": "station", "ref": "107", "subway": "yes", "network": "", "name:ko-Latn": "", "alt_name:zh": "", "bicycle": "", "bus": "", "highway": "", "route_ref": "", "junction": "", "traffic_signals": "", "name:ja_kana": "", "platforms": "", "wikidata": "Q24864137", "addr:city": "", "addr:housenumber": "", "addr:postcode": "", "addr:street": "", "internet_access": "", "level": "", "level:ref": "", "alt_name:ko-Latn": "", "ncat": "", "operator:en": "", "alt_name:ja": "", "wikipedia": "", "layer": "", "network:en": "", "network:ko": "", "operator:ko": "", "station": "subway", "train": "yes", "crossing": "", "name:ko-Hani": "", "start_date": "" }, "geometry": { "type": "Point", "coordinates": [ 126.7324105, 37.6124529 ] } },
{ "type": "Feature", "properties": { "full_id": "n5340642347", "osm_id": "5340642347", "osm_type": "node", "alt_name": "", "alt_name:en": "", "alt_name:ko": "", "name": "김포공항", "name:en": "Gimpo Int'l Airport", "name:ja": "金浦空港", "name:ko": "김포공항", "name:zh": "", "operator": "", "public_transport": "stop_position", "railway": "stop", "ref": "", "subway": "yes", "network": "", "name:ko-Latn": "", "alt_name:zh": "", "bicycle": "", "bus": "", "highway": "", "route_ref": "", "junction": "", "traffic_signals": "", "name:ja_kana": "", "platforms": "", "wikidata": "", "addr:city": "", "addr:housenumber": "", "addr:postcode": "", "addr:street": "", "internet_access": "", "level": "", "level:ref": "", "alt_name:ko-Latn": "", "ncat": "", "operator:en": "", "alt_name:ja": "", "wikipedia": "", "layer": "", "network:en": "", "network:ko": "", "operator:ko": "", "station": "", "train": "", "crossing": "", "name:ko-Hani": "", "start_date": "" }, "geometry": { "type": "Point", "coordinates": [ 126.8025543, 37.5622643 ] } },
{ "type": "Feature", "properties": { "full_id": "n5340642603", "osm_id": "5340642603", "osm_type": "node", "alt_name": "", "alt_name:en": "", "alt_name:ko": "", "name": "사우", "name:en": "Sau", "name:ja": "沙隅", "name:ko": "사우", "name:zh": "沙隅", "operator": "", "public_transport": "station", "railway": "station", "ref": "106", "subway": "yes", "network": "", "name:ko-Latn": "", "alt_name:zh": "", "bicycle": "", "bus": "", "highway": "", "route_ref": "", "junction": "", "traffic_signals": "", "name:ja_kana": "", "platforms": "", "wikidata": "Q24864125", "addr:city": "", "addr:housenumber": "", "addr:postcode": "", "addr:street": "", "internet_access": "", "level": "", "level:ref": "", "alt_name:ko-Latn": "", "ncat": "", "operator:en": "", "alt_name:ja": "サウ(キンポ市庁)", "wikipedia": "", "layer": "", "network:en": "", "network:ko": "", "operator:ko": "", "station": "subway", "train": "", "crossing": "", "name:ko-Hani": "沙隅", "start_date": "" }, "geometry": { "type": "Point", "coordinates": [ 126.7196924, 37.6203085 ] } },
{ "type": "Feature", "properties": { "full_id": "n5340642724", "osm_id": "5340642724", "osm_type": "node", "alt_name": "", "alt_name:en": "", "alt_name:ko": "", "name": "걸포북변", "name:en": "Geolpo Bukbyeon", "name:ja": "コルポブクビョン(傑浦北辺)", "name:ko": "걸포북변", "name:zh": "傑浦北邊", "operator": "", "public_transport": "station", "railway": "station", "ref": "105", "subway": "yes", "network": "", "name:ko-Latn": "", "alt_name:zh": "", "bicycle": "", "bus": "", "highway": "", "route_ref": "", "junction": "", "traffic_signals": "", "name:ja_kana": "", "platforms": "", "wikidata": "Q24864120", "addr:city": "", "addr:housenumber": "", "addr:postcode": "", "addr:street": "", "internet_access": "", "level": "", "level:ref": "", "alt_name:ko-Latn": "", "ncat": "", "operator:en": "", "alt_name:ja": "", "wikipedia": "", "layer": "", "network:en": "", "network:ko": "", "operator:ko": "", "station": "subway", "train": "", "crossing": "", "name:ko-Hani": "", "start_date": "" }, "geometry": { "type": "Point", "coordinates": [ 126.7058208, 37.6316339 ] } },
{ "type": "Feature", "properties": { "full_id": "n5340662955", "osm_id": "5340662955", "osm_type": "node", "alt_name": "", "alt_name:en": "", "alt_name:ko": "", "name": "운양", "name:en": "Unyang", "name:ja": "ウンヤン(雲陽)", "name:ko": "운양", "name:zh": "雲陽", "operator": "", "public_transport": "station", "railway": "station", "ref": "104", "subway": "yes", "network": "", "name:ko-Latn": "", "alt_name:zh": "", "bicycle": "", "bus": "", "highway": "", "route_ref": "", "junction": "", "traffic_signals": "", "name:ja_kana": "", "platforms": "", "wikidata": "Q24864091", "addr:city": "", "addr:housenumber": "", "addr:postcode": "", "addr:street": "", "internet_access": "", "level": "", "level:ref": "", "alt_name:ko-Latn": "", "ncat": "", "operator:en": "", "alt_name:ja": "", "wikipedia": "", "layer": "", "network:en": "", "network:ko": "", "operator:ko": "", "station": "subway", "train": "", "crossing": "", "name:ko-Hani": "", "start_date": "" }, "geometry": { "type": "Point", "coordinates": [ 126.6838428, 37.6538271 ] } },
{ "type": "Feature", "properties": { "full_id": "n5340662972", "osm_id": "5340662972", "osm_type": "node", "alt_name": "", "alt_name:en": "", "alt_name:ko": "", "name": "장기", "name:en": "Janggi", "name:ja": "チャンギ(場基)", "name:ko": "장기", "name:zh": "場基", "operator": "", "public_transport": "station", "railway": "station", "ref": "103", "subway": "yes", "network": "", "name:ko-Latn": "", "alt_name:zh": "", "bicycle": "", "bus": "", "highway": "", "route_ref": "", "junction": "", "traffic_signals": "", "name:ja_kana": "", "platforms": "", "wikidata": "Q24864069", "addr:city": "", "addr:housenumber": "", "addr:postcode": "", "addr:street": "", "internet_access": "", "level": "", "level:ref": "", "alt_name:ko-Latn": "", "ncat": "", "operator:en": "", "alt_name:ja": "", "wikipedia": "", "layer": "", "network:en": "", "network:ko": "", "operator:ko": "", "station": "subway", "train": "", "crossing": "", "name:ko-Hani": "", "start_date": "" }, "geometry": { "type": "Point", "coordinates": [ 126.6689747, 37.6440443 ] } },
{ "type": "Feature", "properties": { "full_id": "n5340663023", "osm_id": "5340663023", "osm_type": "node", "alt_name": "", "alt_name:en": "", "alt_name:ko": "", "name": "마산", "name:en": "Masan", "name:ja": "マサン(麻山)", "name:ko": "마산", "name:zh": "麻山", "operator": "", "public_transport": "station", "railway": "station", "ref": "102", "subway": "yes", "network": "", "name:ko-Latn": "", "alt_name:zh": "", "bicycle": "", "bus": "", "highway": "", "route_ref": "", "junction": "", "traffic_signals": "", "name:ja_kana": "", "platforms": "", "wikidata": "Q24864056", "addr:city": "", "addr:housenumber": "", "addr:postcode": "", "addr:street": "", "internet_access": "", "level": "", "level:ref": "", "alt_name:ko-Latn": "", "ncat": "", "operator:en": "", "alt_name:ja": "", "wikipedia": "", "layer": "", "network:en": "", "network:ko": "", "operator:ko": "", "station": "subway", "train": "", "crossing": "", "name:ko-Hani": "", "start_date": "" }, "geometry": { "type": "Point", "coordinates": [ 126.6441226, 37.6406186 ] } },
{ "type": "Feature", "properties": { "full_id": "n5340678901", "osm_id": "5340678901", "osm_type": "node", "alt_name": "", "alt_name:en": "", "alt_name:ko": "", "name": "구래", "name:en": "Gurae", "name:ja": "クレ(九来)", "name:ko": "구래", "name:zh": "九來", "operator": "", "public_transport": "station", "railway": "station", "ref": "101", "subway": "yes", "network": "", "name:ko-Latn": "", "alt_name:zh": "", "bicycle": "", "bus": "", "highway": "", "route_ref": "", "junction": "", "traffic_signals": "", "name:ja_kana": "", "platforms": "", "wikidata": "Q24864050", "addr:city": "", "addr:housenumber": "", "addr:postcode": "", "addr:street": "", "internet_access": "", "level": "", "level:ref": "", "alt_name:ko-Latn": "", "ncat": "", "operator:en": "", "alt_name:ja": "", "wikipedia": "", "layer": "", "network:en": "", "network:ko": "", "operator:ko": "", "station": "subway", "train": "yes", "crossing": "", "name:ko-Hani": "", "start_date": "" }, "geometry": { "type": "Point", "coordinates": [ 126.6285739, 37.6453841 ] } },
{ "type": "Feature", "properties": { "full_id": "n5340688293", "osm_id": "5340688293", "osm_type": "node", "alt_name": "", "alt_name:en": "", "alt_name:ko": "", "name": "고촌", "name:en": "Gochon", "name:ja": "ゴチョン(高村)", "name:ko": "고촌", "name:zh": "高村", "operator": "", "public_transport": "station", "railway": "station", "ref": "108", "subway": "", "network": "", "name:ko-Latn": "", "alt_name:zh": "", "bicycle": "", "bus": "", "highway": "", "route_ref": "", "junction": "", "traffic_signals": "", "name:ja_kana": "", "platforms": "", "wikidata": "Q24864104", "addr:city": "", "addr:housenumber": "", "addr:postcode": "", "addr:street": "", "internet_access": "", "level": "", "level:ref": "", "alt_name:ko-Latn": "", "ncat": "", "operator:en": "", "alt_name:ja": "", "wikipedia": "", "layer": "", "network:en": "", "network:ko": "", "operator:ko": "", "station": "subway", "train": "yes", "crossing": "", "name:ko-Hani": "", "start_date": "" }, "geometry": { "type": "Point", "coordinates": [ 126.7701876, 37.6013319 ] } },
{ "type": "Feature", "properties": { "full_id": "n5340678916", "osm_id": "5340678916", "osm_type": "node", "alt_name": null, "alt_name:en": null, "alt_name:ko": null, "name": "양촌", "name:en": "Yangchon", "name:ja": "ヤンチョン(陽村)", "name:ko": "양촌", "name:zh": "陽村", "operator": null, "public_transport": "station", "railway": "station", "ref": "100", "subway": "yes", "network": null, "name:ko-Latn": null, "alt_name:zh": null, "bicycle": null, "bus": null, "highway": null, "route_ref": null, "junction": null, "traffic_signals": null, "name:ja_kana": null, "platforms": null, "wikidata": "Q24864027", "addr:city": null, "addr:housenumber": null, "addr:postcode": null, "addr:street": null, "internet_access": null, "level": null, "level:ref": null, "alt_name:ko-Latn": null, "ncat": null, "operator:en": null, "alt_name:ja": "", "wikipedia": null, "layer": null, "network:en": null, "network:ko": null, "operator:ko": null, "station": "subway", "train": "", "crossing": null, "name:ko-Hani": "", "start_date": null }, "geometry": { "type": "Point", "coordinates": [ 126.6148434, 37.641634 ] } }
]
}
