{
"type": "FeatureCollection",
"name": "seoul-2020s-program-stops",
"crs": { "type": "name", "properties": { "name": "urn:ogc:def:crs:OGC:1.3:CRS84" } },
"features": [
{ "type": "Feature", "properties": { "full_id": "102", "osm_id": null, "osm_type": null, "alt_name": null, "alt_name:en": null, "alt_name:ko": null, "name": null, "name:en": "Hongneung", "name:ja": null, "name:ko": null, "name:zh": null, "operator": null, "public_transport": null, "railway": null, "ref": null, "subway": null, "network": null, "name:ko-Latn": null, "alt_name:zh": null, "bicycle": null, "bus": null, "highway": null, "route_ref": null, "junction": null, "traffic_signals": null, "name:ja_kana": null, "platforms": null, "wikidata": null, "addr:city": null, "addr:housenumber": null, "addr:postcode": null, "addr:street": null, "internet_access": null, "level": null, "level:ref": null, "alt_name:ko-Latn": null, "ncat": null, "operator:en": null, "alt_name:ja": null, "wikipedia": null, "layer": null, "network:en": null, "network:ko": null, "operator:ko": null, "station": null, "train": null, "crossing": null, "name:ko-Hani": null, "start_date": null }, "geometry": { "type": "Point", "coordinates": [ 127.04239803462265, 37.591313237023428 ] } },
{ "type": "Feature", "properties": { "full_id": "104", "osm_id": null, "osm_type": null, "alt_name": null, "alt_name:en": "Jongamsageori", "alt_name:ko": null, "name": null, "name:en": "Jongamsageori", "name:ja": null, "name:ko": null, "name:zh": null, "operator": null, "public_transport": null, "railway": null, "ref": null, "subway": null, "network": null, "name:ko-Latn": null, "alt_name:zh": null, "bicycle": null, "bus": null, "highway": null, "route_ref": null, "junction": null, "traffic_signals": null, "name:ja_kana": null, "platforms": null, "wikidata": null, "addr:city": null, "addr:housenumber": null, "addr:postcode": null, "addr:street": null, "internet_access": null, "level": null, "level:ref": null, "alt_name:ko-Latn": null, "ncat": null, "operator:en": null, "alt_name:ja": null, "wikipedia": null, "layer": null, "network:en": null, "network:ko": null, "operator:ko": null, "station": null, "train": null, "crossing": null, "name:ko-Hani": null, "start_date": null }, "geometry": { "type": "Point", "coordinates": [ 127.033842295035498, 37.602740707550161 ] } },
{ "type": "Feature", "properties": { "full_id": "n6033544444", "osm_id": "6033544444", "osm_type": "node", "alt_name": "", "alt_name:en": "", "alt_name:ko": "", "name": "홍제", "name:en": "Hongje", "name:ja": "弘済", "name:ko": "홍제", "name:zh": "", "operator": "", "public_transport": "station", "railway": "station", "ref": "", "subway": "yes", "network": "", "name:ko-Latn": "", "alt_name:zh": "", "bicycle": "", "bus": "", "highway": "", "route_ref": "", "junction": "", "traffic_signals": "", "name:ja_kana": "", "platforms": "", "wikidata": "Q79966", "addr:city": "", "addr:housenumber": "", "addr:postcode": "", "addr:street": "", "internet_access": "", "level": "", "level:ref": "", "alt_name:ko-Latn": "", "ncat": "", "operator:en": "", "alt_name:ja": "", "wikipedia": "", "layer": "", "network:en": "", "network:ko": "", "operator:ko": "", "station": "subway", "train": "", "crossing": "", "name:ko-Hani": "", "start_date": "" }, "geometry": { "type": "Point", "coordinates": [ 126.943624610626827, 37.591010711810441 ] } },
{ "type": "Feature", "properties": { "full_id": "n6036160319", "osm_id": "6036160319", "osm_type": "node", "alt_name": "", "alt_name:en": "", "alt_name:ko": "", "name": "길음", "name:en": "Gireum", "name:ja": "キルム(吉音)", "name:ko": "", "name:zh": "", "operator": "서울교통공사", "public_transport": "station", "railway": "station", "ref": "", "subway": "yes", "network": "서울 지하철", "name:ko-Latn": "", "alt_name:zh": "", "bicycle": "", "bus": "", "highway": "", "route_ref": "", "junction": "", "traffic_signals": "", "name:ja_kana": "", "platforms": "", "wikidata": "Q490490", "addr:city": "길음1동", "addr:housenumber": "1276-2", "addr:postcode": "", "addr:street": "", "internet_access": "wlan", "level": "", "level:ref": "", "alt_name:ko-Latn": "", "ncat": "", "operator:en": "", "alt_name:ja": "", "wikipedia": "ko:길음역", "layer": "", "network:en": "", "network:ko": "", "operator:ko": "", "station": "subway", "train": "", "crossing": "", "name:ko-Hani": "", "start_date": "" }, "geometry": { "type": "Point", "coordinates": [ 127.024857789333424, 37.603104063567223 ] } },
{ "type": "Feature", "properties": { "full_id": "n6039313992", "osm_id": "6039313992", "osm_type": "node", "alt_name": "", "alt_name:en": "", "alt_name:ko": "", "name": "목동", "name:en": "Mok-dong", "name:ja": "モクトン(木洞)", "name:ko": "목동", "name:zh": "", "operator": "", "public_transport": "station", "railway": "station", "ref": "", "subway": "yes", "network": "", "name:ko-Latn": "", "alt_name:zh": "", "bicycle": "", "bus": "", "highway": "", "route_ref": "", "junction": "", "traffic_signals": "", "name:ja_kana": "", "platforms": "", "wikidata": "Q490860", "addr:city": "", "addr:housenumber": "", "addr:postcode": "", "addr:street": "", "internet_access": "", "level": "", "level:ref": "", "alt_name:ko-Latn": "", "ncat": "", "operator:en": "", "alt_name:ja": "", "wikipedia": "", "layer": "", "network:en": "", "network:ko": "", "operator:ko": "", "station": "subway", "train": "", "crossing": "", "name:ko-Hani": "", "start_date": "" }, "geometry": { "type": "Point", "coordinates": [ 126.864245800650608, 37.526106126385585 ] } },
{ "type": "Feature", "properties": { "full_id": "n6041673033", "osm_id": "6041673033", "osm_type": "node", "alt_name": "동덕여대역", "alt_name:en": "Dongduk Women's Univ. Station", "alt_name:ko": "동덕여대역", "name": "월곡", "name:en": "Wolgok", "name:ja": "ウォルゴク(月谷)", "name:ko": "월곡", "name:zh": "月谷", "operator": "", "public_transport": "station", "railway": "station", "ref": "", "subway": "yes", "network": "", "name:ko-Latn": "", "alt_name:zh": "同德女大", "bicycle": "", "bus": "", "highway": "", "route_ref": "", "junction": "", "traffic_signals": "", "name:ja_kana": "", "platforms": "", "wikidata": "Q490057", "addr:city": "", "addr:housenumber": "", "addr:postcode": "", "addr:street": "", "internet_access": "", "level": "", "level:ref": "", "alt_name:ko-Latn": "", "ncat": "", "operator:en": "", "alt_name:ja": "", "wikipedia": "", "layer": "", "network:en": "", "network:ko": "", "operator:ko": "", "station": "", "train": "", "crossing": "", "name:ko-Hani": "", "start_date": "" }, "geometry": { "type": "Point", "coordinates": [ 127.04026448968439, 37.601179258051118 ] } },
{ "type": "Feature", "properties": { "full_id": "n7176735174", "osm_id": "7176735174", "osm_type": "node", "alt_name": "", "alt_name:en": "", "alt_name:ko": "", "name": "청량리", "name:en": "Cheongnyangni", "name:ja": "チョンニャンニ(清涼里)", "name:ko": "청량리", "name:zh": "", "operator": "서울교통공사", "public_transport": "station", "railway": "station", "ref": "", "subway": "yes", "network": "서울 지하철", "name:ko-Latn": "", "alt_name:zh": "", "bicycle": "", "bus": "", "highway": "", "route_ref": "", "junction": "", "traffic_signals": "", "name:ja_kana": "", "platforms": "", "wikidata": "Q20417", "addr:city": "서울특별시 동대문구", "addr:housenumber": "지하 205", "addr:postcode": "02559", "addr:street": "왕산로", "internet_access": "wlan", "level": "", "level:ref": "", "alt_name:ko-Latn": "", "ncat": "", "operator:en": "", "alt_name:ja": "", "wikipedia": "ko:청량리역", "layer": "", "network:en": "", "network:ko": "", "operator:ko": "", "station": "subway", "train": "", "crossing": "", "name:ko-Hani": "", "start_date": "1974-08-15" }, "geometry": { "type": "Point", "coordinates": [ 127.04572476355176, 37.580320098328116 ] } },
{ "type": "Feature", "properties": { "full_id": "n8724752445", "osm_id": "8724752445", "osm_type": "node", "alt_name": "", "alt_name:en": "", "alt_name:ko": "", "name": "디지털미디어시티", "name:en": "Digital Media City", "name:ja": "デジタルメディアシティ", "name:ko": "디지털미디어시티", "name:zh": "数码媒体城", "operator": "서울교통공사", "public_transport": "station", "railway": "station", "ref": "", "subway": "yes", "network": "", "name:ko-Latn": "", "alt_name:zh": "", "bicycle": "", "bus": "", "highway": "", "route_ref": "", "junction": "", "traffic_signals": "", "name:ja_kana": "", "platforms": "", "wikidata": "Q54265", "addr:city": "", "addr:housenumber": "", "addr:postcode": "", "addr:street": "", "internet_access": "", "level": "", "level:ref": "", "alt_name:ko-Latn": "", "ncat": "", "operator:en": "", "alt_name:ja": "", "wikipedia": "", "layer": "", "network:en": "", "network:ko": "", "operator:ko": "", "station": "subway", "train": "", "crossing": "", "name:ko-Hani": "", "start_date": "" }, "geometry": { "type": "Point", "coordinates": [ 126.902189661658142, 37.575888475903561 ] } },
{ "type": "Feature", "properties": { "full_id": "n9181579791", "osm_id": "9181579791", "osm_type": "node", "alt_name": "", "alt_name:en": "", "alt_name:ko": "", "name": "등촌", "name:en": "Deungchon", "name:ja": "トゥンチョン(登村)", "name:ko": "등촌", "name:zh": "", "operator": "", "public_transport": "station", "railway": "station", "ref": "", "subway": "yes", "network": "", "name:ko-Latn": "", "alt_name:zh": "", "bicycle": "", "bus": "", "highway": "", "route_ref": "", "junction": "", "traffic_signals": "", "name:ja_kana": "", "platforms": "2", "wikidata": "Q59992", "addr:city": "", "addr:housenumber": "", "addr:postcode": "", "addr:street": "", "internet_access": "", "level": "", "level:ref": "", "alt_name:ko-Latn": "", "ncat": "", "operator:en": "", "alt_name:ja": "", "wikipedia": "", "layer": "", "network:en": "", "network:ko": "", "operator:ko": "", "station": "subway", "train": "", "crossing": "", "name:ko-Hani": "", "start_date": "" }, "geometry": { "type": "Point", "coordinates": [ 126.864103629647673, 37.551208100990394 ] } },
{ "type": "Feature", "properties": { "full_id": "n9459739598", "osm_id": "9459739598", "osm_type": "node", "alt_name": "", "alt_name:en": "", "alt_name:ko": "", "name": "정릉", "name:en": "Jeongneung", "name:ja": "チョンヌン(貞陵)", "name:ko": "정릉", "name:zh": "貞陵", "operator": "", "public_transport": "station", "railway": "station", "ref": "L10", "subway": "", "network": "", "name:ko-Latn": "", "alt_name:zh": "", "bicycle": "", "bus": "", "highway": "", "route_ref": "", "junction": "", "traffic_signals": "", "name:ja_kana": "", "platforms": "", "wikidata": "Q28943581", "addr:city": "", "addr:housenumber": "", "addr:postcode": "", "addr:street": "", "internet_access": "", "level": "", "level:ref": "", "alt_name:ko-Latn": "", "ncat": "", "operator:en": "", "alt_name:ja": "", "wikipedia": "ko:정릉역", "layer": "", "network:en": "", "network:ko": "", "operator:ko": "", "station": "light_rail", "train": "", "crossing": "", "name:ko-Hani": "", "start_date": "" }, "geometry": { "type": "Point", "coordinates": [ 127.013368441073055, 37.603551268536478 ] } },
{ "type": "Feature", "properties": { "full_id": "n6033314471", "osm_id": "6033314471", "osm_type": "node", "alt_name": "", "alt_name:en": "", "alt_name:ko": "", "name": "신대방", "name:en": "Sindaebang", "name:ja": "シンデバン(新大方)", "name:ko": "신대방", "name:zh": "新大方", "operator": "Seoul Metro", "public_transport": "station", "railway": "station", "ref": "231", "subway": "yes", "network": "", "name:ko-Latn": "", "alt_name:zh": "", "bicycle": "", "bus": "", "highway": "", "route_ref": "", "junction": "", "traffic_signals": "", "name:ja_kana": "", "platforms": "2", "wikidata": "Q487835", "addr:city": "", "addr:housenumber": "2", "addr:postcode": "", "addr:street": "대림로", "internet_access": "", "level": "", "level:ref": "", "alt_name:ko-Latn": "", "ncat": "", "operator:en": "", "alt_name:ja": "", "wikipedia": "ko:신대방역", "layer": "", "network:en": "", "network:ko": "", "operator:ko": "", "station": "subway", "train": "", "crossing": "", "name:ko-Hani": "", "start_date": "" }, "geometry": { "type": "Point", "coordinates": [ 126.9133919, 37.4875949 ] } },
{ "type": "Feature", "properties": { "full_id": "n5447336160", "osm_id": "5447336160", "osm_type": "node", "alt_name": "", "alt_name:en": "", "alt_name:ko": "", "name": "신내", "name:en": "Sinnae", "name:ja": "シンネ(新内)", "name:ko": "신내", "name:zh": "", "operator": "한국철도공사", "public_transport": "station", "railway": "station", "ref": "", "subway": "yes", "network": "", "name:ko-Latn": "", "alt_name:zh": "", "bicycle": "", "bus": "", "highway": "", "route_ref": "", "junction": "", "traffic_signals": "", "name:ja_kana": "", "platforms": "", "wikidata": "Q700159", "addr:city": "", "addr:housenumber": "", "addr:postcode": "", "addr:street": "", "internet_access": "", "level": "", "level:ref": "", "alt_name:ko-Latn": "", "ncat": "", "operator:en": "", "alt_name:ja": "", "wikipedia": "ko:신내역", "layer": "", "network:en": "", "network:ko": "", "operator:ko": "", "station": "subway", "train": "", "crossing": "", "name:ko-Hani": "", "start_date": "" }, "geometry": { "type": "Point", "coordinates": [ 127.102002578854936, 37.612745183080698 ] } },
{ "type": "Feature", "properties": { "full_id": "n1789755424", "osm_id": "1789755424", "osm_type": "node", "alt_name": "", "alt_name:en": "", "alt_name:ko": "", "name": "망우", "name:en": "Mangu", "name:ja": "マンウ(忘憂)", "name:ko": "망우", "name:zh": "", "operator": "한국철도공사", "public_transport": "station", "railway": "station", "ref": "", "subway": "yes", "network": "", "name:ko-Latn": "", "alt_name:zh": "", "bicycle": "", "bus": "", "highway": "", "route_ref": "", "junction": "", "traffic_signals": "", "name:ja_kana": "", "platforms": "", "wikidata": "Q49994", "addr:city": "", "addr:housenumber": "", "addr:postcode": "", "addr:street": "", "internet_access": "", "level": "", "level:ref": "", "alt_name:ko-Latn": "", "ncat": "", "operator:en": "", "alt_name:ja": "", "wikipedia": "ko:망우역", "layer": "", "network:en": "", "network:ko": "", "operator:ko": "", "station": "subway", "train": "yes", "crossing": "", "name:ko-Hani": "", "start_date": "" }, "geometry": { "type": "Point", "coordinates": [ 127.0956774168245, 37.598703383773618 ] } },
{ "type": "Feature", "properties": { "full_id": "n6046633865", "osm_id": "6046633865", "osm_type": "node", "alt_name": "", "alt_name:en": "", "alt_name:ko": "", "name": "면목", "name:en": "Myeonmok", "name:ja": "ミョンモク(面牧)", "name:ko": "면목", "name:zh": "", "operator": "", "public_transport": "station", "railway": "station", "ref": "", "subway": "yes", "network": "", "name:ko-Latn": "", "alt_name:zh": "", "bicycle": "", "bus": "", "highway": "", "route_ref": "", "junction": "", "traffic_signals": "", "name:ja_kana": "", "platforms": "", "wikidata": "Q68797", "addr:city": "", "addr:housenumber": "", "addr:postcode": "", "addr:street": "", "internet_access": "", "level": "", "level:ref": "", "alt_name:ko-Latn": "", "ncat": "", "operator:en": "", "alt_name:ja": "", "wikipedia": "", "layer": "", "network:en": "", "network:ko": "", "operator:ko": "", "station": "subway", "train": "", "crossing": "", "name:ko-Hani": "", "start_date": "" }, "geometry": { "type": "Point", "coordinates": [ 127.086985835596181, 37.588174328938777 ] } },
{ "type": "Feature", "properties": { "full_id": "n355172784", "osm_id": "355172784", "osm_type": "node", "alt_name": "", "alt_name:en": "", "alt_name:ko": "", "name": "방학", "name:en": "Banghak - Ui Sinseol extension - 03", "name:ja": "パンハク(放鶴)", "name:ko": "방학", "name:zh": "", "operator": "", "public_transport": "station", "railway": "station", "ref": "", "subway": "yes", "network": "", "name:ko-Latn": "", "alt_name:zh": "", "bicycle": "", "bus": "", "highway": "", "route_ref": "", "junction": "", "traffic_signals": "", "name:ja_kana": "", "platforms": "", "wikidata": "Q490625", "addr:city": "", "addr:housenumber": "", "addr:postcode": "", "addr:street": "", "internet_access": "", "level": "", "level:ref": "", "alt_name:ko-Latn": "", "ncat": "", "operator:en": "", "alt_name:ja": "", "wikipedia": "", "layer": "", "network:en": "", "network:ko": "", "operator:ko": "", "station": "subway", "train": "", "crossing": "", "name:ko-Hani": "", "start_date": "" }, "geometry": { "type": "Point", "coordinates": [ 127.0443033, 37.6676904 ] } },
{ "type": "Feature", "properties": { "full_id": "n6039313988", "osm_id": "6039313988", "osm_type": "node", "alt_name": "목동운동장앞", "alt_name:en": "Mok-dong Stadium Station", "alt_name:ko": "목동운동장앞", "name": "오목교", "name:en": "Omokgyo", "name:ja": "オモッキョ(梧木橋)", "name:ko": "오목교", "name:zh": "", "operator": "", "public_transport": "station", "railway": "station", "ref": "", "subway": "yes", "network": "", "name:ko-Latn": "", "alt_name:zh": "", "bicycle": "yes", "bus": "", "highway": "", "route_ref": "", "junction": "", "traffic_signals": "", "name:ja_kana": "", "platforms": "", "wikidata": "Q490855", "addr:city": "", "addr:housenumber": "", "addr:postcode": "", "addr:street": "", "internet_access": "", "level": "", "level:ref": "", "alt_name:ko-Latn": "", "ncat": "", "operator:en": "", "alt_name:ja": "", "wikipedia": "", "layer": "", "network:en": "", "network:ko": "", "operator:ko": "", "station": "subway", "train": "", "crossing": "", "name:ko-Hani": "", "start_date": "" }, "geometry": { "type": "Point", "coordinates": [ 126.87228303332958, 37.524988496117487 ] } },
{ "type": "Feature", "properties": { "full_id": "n6033312683", "osm_id": "6033312683", "osm_type": "node", "alt_name": "", "alt_name:en": "", "alt_name:ko": "", "name": "당산", "name:en": "Dangsan", "name:ja": "タンサン(堂山)", "name:ko": "당산", "name:zh": "堂山", "operator": "서울교통공사", "public_transport": "station", "railway": "station", "ref": "237\/913", "subway": "yes", "network": "", "name:ko-Latn": "Dangsan", "alt_name:zh": "", "bicycle": "", "bus": "", "highway": "", "route_ref": "", "junction": "", "traffic_signals": "", "name:ja_kana": "", "platforms": "2", "wikidata": "Q59997", "addr:city": "", "addr:housenumber": "229", "addr:postcode": "", "addr:street": "당산로", "internet_access": "", "level": "", "level:ref": "", "alt_name:ko-Latn": "", "ncat": "", "operator:en": "", "alt_name:ja": "", "wikipedia": "ko:당산역", "layer": "", "network:en": "", "network:ko": "", "operator:ko": "", "station": "subway", "train": "", "crossing": "", "name:ko-Hani": "", "start_date": "" }, "geometry": { "type": "Point", "coordinates": [ 126.902496251027614, 37.534551239740026 ] } },
{ "type": "Feature", "properties": { "full_id": "118", "osm_id": null, "osm_type": null, "alt_name": null, "alt_name:en": null, "alt_name:ko": null, "name": null, "name:en": "Mokdongsageori", "name:ja": null, "name:ko": null, "name:zh": null, "operator": null, "public_transport": null, "railway": null, "ref": null, "subway": null, "network": null, "name:ko-Latn": null, "alt_name:zh": null, "bicycle": null, "bus": null, "highway": null, "route_ref": null, "junction": null, "traffic_signals": null, "name:ja_kana": null, "platforms": null, "wikidata": null, "addr:city": null, "addr:housenumber": null, "addr:postcode": null, "addr:street": null, "internet_access": null, "level": null, "level:ref": null, "alt_name:ko-Latn": null, "ncat": null, "operator:en": null, "alt_name:ja": null, "wikipedia": null, "layer": null, "network:en": null, "network:ko": null, "operator:ko": null, "station": null, "train": null, "crossing": null, "name:ko-Hani": null, "start_date": null }, "geometry": { "type": "Point", "coordinates": [ 126.863455814650507, 37.533870012504984 ] } },
{ "type": "Feature", "properties": { "full_id": "117", "osm_id": null, "osm_type": null, "alt_name": null, "alt_name:en": null, "alt_name:ko": null, "name": null, "name:en": "Sindeungchon", "name:ja": null, "name:ko": null, "name:zh": null, "operator": null, "public_transport": null, "railway": null, "ref": null, "subway": null, "network": null, "name:ko-Latn": null, "alt_name:zh": null, "bicycle": null, "bus": null, "highway": null, "route_ref": null, "junction": null, "traffic_signals": null, "name:ja_kana": null, "platforms": null, "wikidata": null, "addr:city": null, "addr:housenumber": null, "addr:postcode": null, "addr:street": null, "internet_access": null, "level": null, "level:ref": null, "alt_name:ko-Latn": null, "ncat": null, "operator:en": null, "alt_name:ja": null, "wikipedia": null, "layer": null, "network:en": null, "network:ko": null, "operator:ko": null, "station": null, "train": null, "crossing": null, "name:ko-Hani": null, "start_date": null }, "geometry": { "type": "Point", "coordinates": [ 126.862337003260961, 37.542976405916932 ] } },
{ "type": "Feature", "properties": { "full_id": "115", "osm_id": null, "osm_type": null, "alt_name": null, "alt_name:en": null, "alt_name:ko": null, "name": null, "name:en": "Sangam", "name:ja": null, "name:ko": null, "name:zh": null, "operator": null, "public_transport": null, "railway": null, "ref": null, "subway": null, "network": null, "name:ko-Latn": null, "alt_name:zh": null, "bicycle": null, "bus": null, "highway": null, "route_ref": null, "junction": null, "traffic_signals": null, "name:ja_kana": null, "platforms": null, "wikidata": null, "addr:city": null, "addr:housenumber": null, "addr:postcode": null, "addr:street": null, "internet_access": null, "level": null, "level:ref": null, "alt_name:ko-Latn": null, "ncat": null, "operator:en": null, "alt_name:ja": null, "wikipedia": null, "layer": null, "network:en": null, "network:ko": null, "operator:ko": null, "station": null, "train": null, "crossing": null, "name:ko-Hani": null, "start_date": null }, "geometry": { "type": "Point", "coordinates": [ 126.89403513075726, 37.567673904284362 ] } },
{ "type": "Feature", "properties": { "full_id": "111", "osm_id": null, "osm_type": null, "alt_name": null, "alt_name:en": null, "alt_name:ko": null, "name": null, "name:en": "Seodaemun-gu Office", "name:ja": null, "name:ko": null, "name:zh": null, "operator": null, "public_transport": null, "railway": null, "ref": null, "subway": null, "network": null, "name:ko-Latn": null, "alt_name:zh": null, "bicycle": null, "bus": null, "highway": null, "route_ref": null, "junction": null, "traffic_signals": null, "name:ja_kana": null, "platforms": null, "wikidata": null, "addr:city": null, "addr:housenumber": null, "addr:postcode": null, "addr:street": null, "internet_access": null, "level": null, "level:ref": null, "alt_name:ko-Latn": null, "ncat": null, "operator:en": null, "alt_name:ja": null, "wikipedia": null, "layer": null, "network:en": null, "network:ko": null, "operator:ko": null, "station": null, "train": null, "crossing": null, "name:ko-Hani": null, "start_date": null }, "geometry": { "type": "Point", "coordinates": [ 126.935624003862998, 37.581451217101204 ] } },
{ "type": "Feature", "properties": { "full_id": "112", "osm_id": null, "osm_type": null, "alt_name": null, "alt_name:en": null, "alt_name:ko": null, "name": null, "name:en": "Myongji University", "name:ja": null, "name:ko": null, "name:zh": null, "operator": null, "public_transport": null, "railway": null, "ref": null, "subway": null, "network": null, "name:ko-Latn": null, "alt_name:zh": null, "bicycle": null, "bus": null, "highway": null, "route_ref": null, "junction": null, "traffic_signals": null, "name:ja_kana": null, "platforms": null, "wikidata": null, "addr:city": null, "addr:housenumber": null, "addr:postcode": null, "addr:street": null, "internet_access": null, "level": null, "level:ref": null, "alt_name:ko-Latn": null, "ncat": null, "operator:en": null, "alt_name:ja": null, "wikipedia": null, "layer": null, "network:en": null, "network:ko": null, "operator:ko": null, "station": null, "train": null, "crossing": null, "name:ko-Hani": null, "start_date": null }, "geometry": { "type": "Point", "coordinates": [ 126.922294127596174, 37.577727459295907 ] } },
{ "type": "Feature", "properties": { "full_id": "113", "osm_id": null, "osm_type": null, "alt_name": null, "alt_name:en": null, "alt_name:ko": null, "name": null, "name:en": "Namgajwa", "name:ja": null, "name:ko": null, "name:zh": null, "operator": null, "public_transport": null, "railway": null, "ref": null, "subway": null, "network": null, "name:ko-Latn": null, "alt_name:zh": null, "bicycle": null, "bus": null, "highway": null, "route_ref": null, "junction": null, "traffic_signals": null, "name:ja_kana": null, "platforms": null, "wikidata": null, "addr:city": null, "addr:housenumber": null, "addr:postcode": null, "addr:street": null, "internet_access": null, "level": null, "level:ref": null, "alt_name:ko-Latn": null, "ncat": null, "operator:en": null, "alt_name:ja": null, "wikipedia": null, "layer": null, "network:en": null, "network:ko": null, "operator:ko": null, "station": null, "train": null, "crossing": null, "name:ko-Hani": null, "start_date": null }, "geometry": { "type": "Point", "coordinates": [ 126.917346444190628, 37.574493420657554 ] } },
{ "type": "Feature", "properties": { "full_id": "109", "osm_id": null, "osm_type": null, "alt_name": null, "alt_name:en": null, "alt_name:ko": null, "name": null, "name:en": "Sangmyung University", "name:ja": null, "name:ko": null, "name:zh": null, "operator": null, "public_transport": null, "railway": null, "ref": null, "subway": null, "network": null, "name:ko-Latn": null, "alt_name:zh": null, "bicycle": null, "bus": null, "highway": null, "route_ref": null, "junction": null, "traffic_signals": null, "name:ja_kana": null, "platforms": null, "wikidata": null, "addr:city": null, "addr:housenumber": null, "addr:postcode": null, "addr:street": null, "internet_access": null, "level": null, "level:ref": null, "alt_name:ko-Latn": null, "ncat": null, "operator:en": null, "alt_name:ja": null, "wikipedia": null, "layer": null, "network:en": null, "network:ko": null, "operator:ko": null, "station": null, "train": null, "crossing": null, "name:ko-Hani": null, "start_date": null }, "geometry": { "type": "Point", "coordinates": [ 126.957636254908536, 37.599856200508434 ] } },
{ "type": "Feature", "properties": { "full_id": "108", "osm_id": null, "osm_type": null, "alt_name": null, "alt_name:en": null, "alt_name:ko": null, "name": null, "name:en": "Pyeongchang-dong", "name:ja": null, "name:ko": null, "name:zh": null, "operator": null, "public_transport": null, "railway": null, "ref": null, "subway": null, "network": null, "name:ko-Latn": null, "alt_name:zh": null, "bicycle": null, "bus": null, "highway": null, "route_ref": null, "junction": null, "traffic_signals": null, "name:ja_kana": null, "platforms": null, "wikidata": null, "addr:city": null, "addr:housenumber": null, "addr:postcode": null, "addr:street": null, "internet_access": null, "level": null, "level:ref": null, "alt_name:ko-Latn": null, "ncat": null, "operator:en": null, "alt_name:ja": null, "wikipedia": null, "layer": null, "network:en": null, "network:ko": null, "operator:ko": null, "station": null, "train": null, "crossing": null, "name:ko-Hani": null, "start_date": null }, "geometry": { "type": "Point", "coordinates": [ 126.974290960774127, 37.60974256914885 ] } },
{ "type": "Feature", "properties": { "full_id": "107", "osm_id": null, "osm_type": null, "alt_name": null, "alt_name:en": null, "alt_name:ko": null, "name": null, "name:en": "Gungmindae", "name:ja": null, "name:ko": null, "name:zh": null, "operator": null, "public_transport": null, "railway": null, "ref": null, "subway": null, "network": null, "name:ko-Latn": null, "alt_name:zh": null, "bicycle": null, "bus": null, "highway": null, "route_ref": null, "junction": null, "traffic_signals": null, "name:ja_kana": null, "platforms": null, "wikidata": null, "addr:city": null, "addr:housenumber": null, "addr:postcode": null, "addr:street": null, "internet_access": null, "level": null, "level:ref": null, "alt_name:ko-Latn": null, "ncat": null, "operator:en": null, "alt_name:ja": null, "wikipedia": null, "layer": null, "network:en": null, "network:ko": null, "operator:ko": null, "station": null, "train": null, "crossing": null, "name:ko-Hani": null, "start_date": null }, "geometry": { "type": "Point", "coordinates": [ 126.999501001857439, 37.608792013876396 ] } },
{ "type": "Feature", "properties": { "full_id": "402", "osm_id": null, "osm_type": null, "alt_name": null, "alt_name:en": null, "alt_name:ko": null, "name": null, "name:en": "University of Seoul", "name:ja": null, "name:ko": null, "name:zh": null, "operator": null, "public_transport": null, "railway": null, "ref": null, "subway": null, "network": null, "name:ko-Latn": null, "alt_name:zh": null, "bicycle": null, "bus": null, "highway": null, "route_ref": null, "junction": null, "traffic_signals": null, "name:ja_kana": null, "platforms": null, "wikidata": null, "addr:city": null, "addr:housenumber": null, "addr:postcode": null, "addr:street": null, "internet_access": null, "level": null, "level:ref": null, "alt_name:ko-Latn": null, "ncat": null, "operator:en": null, "alt_name:ja": null, "wikipedia": null, "layer": null, "network:en": null, "network:ko": null, "operator:ko": null, "station": null, "train": null, "crossing": null, "name:ko-Hani": null, "start_date": null }, "geometry": { "type": "Point", "coordinates": [ 127.053369861203166, 37.582660020234854 ] } },
{ "type": "Feature", "properties": { "full_id": "403", "osm_id": null, "osm_type": null, "alt_name": null, "alt_name:en": null, "alt_name:ko": null, "name": null, "name:en": "Jeonnongnoteori", "name:ja": null, "name:ko": null, "name:zh": null, "operator": null, "public_transport": null, "railway": null, "ref": null, "subway": null, "network": null, "name:ko-Latn": null, "alt_name:zh": null, "bicycle": null, "bus": null, "highway": null, "route_ref": null, "junction": null, "traffic_signals": null, "name:ja_kana": null, "platforms": null, "wikidata": null, "addr:city": null, "addr:housenumber": null, "addr:postcode": null, "addr:street": null, "internet_access": null, "level": null, "level:ref": null, "alt_name:ko-Latn": null, "ncat": null, "operator:en": null, "alt_name:ja": null, "wikipedia": null, "layer": null, "network:en": null, "network:ko": null, "operator:ko": null, "station": null, "train": null, "crossing": null, "name:ko-Hani": null, "start_date": null }, "geometry": { "type": "Point", "coordinates": [ 127.059218872648103, 37.577424787001775 ] } },
{ "type": "Feature", "properties": { "full_id": "404", "osm_id": null, "osm_type": null, "alt_name": null, "alt_name:en": null, "alt_name:ko": null, "name": null, "name:en": "Jangandongsamgeori", "name:ja": null, "name:ko": null, "name:zh": null, "operator": null, "public_transport": null, "railway": null, "ref": null, "subway": null, "network": null, "name:ko-Latn": null, "alt_name:zh": null, "bicycle": null, "bus": null, "highway": null, "route_ref": null, "junction": null, "traffic_signals": null, "name:ja_kana": null, "platforms": null, "wikidata": null, "addr:city": null, "addr:housenumber": null, "addr:postcode": null, "addr:street": null, "internet_access": null, "level": null, "level:ref": null, "alt_name:ko-Latn": null, "ncat": null, "operator:en": null, "alt_name:ja": null, "wikipedia": null, "layer": null, "network:en": null, "network:ko": null, "operator:ko": null, "station": null, "train": null, "crossing": null, "name:ko-Hani": null, "start_date": null }, "geometry": { "type": "Point", "coordinates": [ 127.070089347667121, 37.578705843255548 ] } },
{ "type": "Feature", "properties": { "full_id": "405", "osm_id": null, "osm_type": null, "alt_name": null, "alt_name:en": null, "alt_name:ko": null, "name": null, "name:en": "Myeonseo", "name:ja": null, "name:ko": null, "name:zh": null, "operator": null, "public_transport": null, "railway": null, "ref": null, "subway": null, "network": null, "name:ko-Latn": null, "alt_name:zh": null, "bicycle": null, "bus": null, "highway": null, "route_ref": null, "junction": null, "traffic_signals": null, "name:ja_kana": null, "platforms": null, "wikidata": null, "addr:city": null, "addr:housenumber": null, "addr:postcode": null, "addr:street": null, "internet_access": null, "level": null, "level:ref": null, "alt_name:ko-Latn": null, "ncat": null, "operator:en": null, "alt_name:ja": null, "wikipedia": null, "layer": null, "network:en": null, "network:ko": null, "operator:ko": null, "station": null, "train": null, "crossing": null, "name:ko-Hani": null, "start_date": null }, "geometry": { "type": "Point", "coordinates": [ 127.079181752422798, 37.582484830789717 ] } },
{ "type": "Feature", "properties": { "full_id": "407", "osm_id": null, "osm_type": null, "alt_name": null, "alt_name:en": null, "alt_name:ko": null, "name": null, "name:en": "Seoil University", "name:ja": null, "name:ko": null, "name:zh": null, "operator": null, "public_transport": null, "railway": null, "ref": null, "subway": null, "network": null, "name:ko-Latn": null, "alt_name:zh": null, "bicycle": null, "bus": null, "highway": null, "route_ref": null, "junction": null, "traffic_signals": null, "name:ja_kana": null, "platforms": null, "wikidata": null, "addr:city": null, "addr:housenumber": null, "addr:postcode": null, "addr:street": null, "internet_access": null, "level": null, "level:ref": null, "alt_name:ko-Latn": null, "ncat": null, "operator:en": null, "alt_name:ja": null, "wikipedia": null, "layer": null, "network:en": null, "network:ko": null, "operator:ko": null, "station": null, "train": null, "crossing": null, "name:ko-Hani": null, "start_date": null }, "geometry": { "type": "Point", "coordinates": [ 127.095729929078146, 37.589754038563647 ] } },
{ "type": "Feature", "properties": { "full_id": "408", "osm_id": null, "osm_type": null, "alt_name": null, "alt_name:en": null, "alt_name:ko": null, "name": null, "name:en": "Yongma Land", "name:ja": null, "name:ko": null, "name:zh": null, "operator": null, "public_transport": null, "railway": null, "ref": null, "subway": null, "network": null, "name:ko-Latn": null, "alt_name:zh": null, "bicycle": null, "bus": null, "highway": null, "route_ref": null, "junction": null, "traffic_signals": null, "name:ja_kana": null, "platforms": null, "wikidata": null, "addr:city": null, "addr:housenumber": null, "addr:postcode": null, "addr:street": null, "internet_access": null, "level": null, "level:ref": null, "alt_name:ko-Latn": null, "ncat": null, "operator:en": null, "alt_name:ja": null, "wikipedia": null, "layer": null, "network:en": null, "network:ko": null, "operator:ko": null, "station": null, "train": null, "crossing": null, "name:ko-Hani": null, "start_date": null }, "geometry": { "type": "Point", "coordinates": [ 127.0987607306634, 37.593996750228143 ] } },
{ "type": "Feature", "properties": { "full_id": "410", "osm_id": null, "osm_type": null, "alt_name": null, "alt_name:en": "Jungnang-gu Office", "alt_name:ko": null, "name": null, "name:en": "Jungnang-gu Office", "name:ja": null, "name:ko": null, "name:zh": null, "operator": null, "public_transport": null, "railway": null, "ref": null, "subway": null, "network": null, "name:ko-Latn": null, "alt_name:zh": null, "bicycle": null, "bus": null, "highway": null, "route_ref": null, "junction": null, "traffic_signals": null, "name:ja_kana": null, "platforms": null, "wikidata": null, "addr:city": null, "addr:housenumber": null, "addr:postcode": null, "addr:street": null, "internet_access": null, "level": null, "level:ref": null, "alt_name:ko-Latn": null, "ncat": null, "operator:en": null, "alt_name:ja": null, "wikipedia": null, "layer": null, "network:en": null, "network:ko": null, "operator:ko": null, "station": null, "train": null, "crossing": null, "name:ko-Hani": null, "start_date": null }, "geometry": { "type": "Point", "coordinates": [ 127.095062844219967, 37.604537720805325 ] } },
{ "type": "Feature", "properties": { "full_id": "411", "osm_id": null, "osm_type": null, "alt_name": null, "alt_name:en": null, "alt_name:ko": null, "name": null, "name:en": "Neungsan", "name:ja": null, "name:ko": null, "name:zh": null, "operator": null, "public_transport": null, "railway": null, "ref": null, "subway": null, "network": null, "name:ko-Latn": null, "alt_name:zh": null, "bicycle": null, "bus": null, "highway": null, "route_ref": null, "junction": null, "traffic_signals": null, "name:ja_kana": null, "platforms": null, "wikidata": null, "addr:city": null, "addr:housenumber": null, "addr:postcode": null, "addr:street": null, "internet_access": null, "level": null, "level:ref": null, "alt_name:ko-Latn": null, "ncat": null, "operator:en": null, "alt_name:ja": null, "wikipedia": null, "layer": null, "network:en": null, "network:ko": null, "operator:ko": null, "station": null, "train": null, "crossing": null, "name:ko-Hani": null, "start_date": null }, "geometry": { "type": "Point", "coordinates": [ 127.099204514048182, 37.608053211265833 ] } },
{ "type": "Feature", "properties": { "full_id": "906", "osm_id": null, "osm_type": null, "alt_name": null, "alt_name:en": null, "alt_name:ko": null, "name": null, "name:en": "Nanhyang", "name:ja": null, "name:ko": null, "name:zh": null, "operator": null, "public_transport": null, "railway": null, "ref": null, "subway": null, "network": null, "name:ko-Latn": null, "alt_name:zh": null, "bicycle": null, "bus": null, "highway": null, "route_ref": null, "junction": null, "traffic_signals": null, "name:ja_kana": null, "platforms": null, "wikidata": null, "addr:city": null, "addr:housenumber": null, "addr:postcode": null, "addr:street": null, "internet_access": null, "level": null, "level:ref": null, "alt_name:ko-Latn": null, "ncat": null, "operator:en": null, "alt_name:ja": null, "wikipedia": null, "layer": null, "network:en": null, "network:ko": null, "operator:ko": null, "station": null, "train": null, "crossing": null, "name:ko-Hani": null, "start_date": null }, "geometry": { "type": "Point", "coordinates": [ 126.918758952525764, 37.462915494995784 ] } },
{ "type": "Feature", "properties": { "full_id": "905", "osm_id": null, "osm_type": null, "alt_name": null, "alt_name:en": null, "alt_name:ko": null, "name": null, "name:en": "Nangok", "name:ja": null, "name:ko": null, "name:zh": null, "operator": null, "public_transport": null, "railway": null, "ref": null, "subway": null, "network": null, "name:ko-Latn": null, "alt_name:zh": null, "bicycle": null, "bus": null, "highway": null, "route_ref": null, "junction": null, "traffic_signals": null, "name:ja_kana": null, "platforms": null, "wikidata": null, "addr:city": null, "addr:housenumber": null, "addr:postcode": null, "addr:street": null, "internet_access": null, "level": null, "level:ref": null, "alt_name:ko-Latn": null, "ncat": null, "operator:en": null, "alt_name:ja": null, "wikipedia": null, "layer": null, "network:en": null, "network:ko": null, "operator:ko": null, "station": null, "train": null, "crossing": null, "name:ko-Hani": null, "start_date": null }, "geometry": { "type": "Point", "coordinates": [ 126.920498538668213, 37.470179306711763 ] } },
{ "type": "Feature", "properties": { "full_id": "904", "osm_id": null, "osm_type": null, "alt_name": null, "alt_name:en": null, "alt_name:ko": null, "name": null, "name:en": "Misung", "name:ja": null, "name:ko": null, "name:zh": null, "operator": null, "public_transport": null, "railway": null, "ref": null, "subway": null, "network": null, "name:ko-Latn": null, "alt_name:zh": null, "bicycle": null, "bus": null, "highway": null, "route_ref": null, "junction": null, "traffic_signals": null, "name:ja_kana": null, "platforms": null, "wikidata": null, "addr:city": null, "addr:housenumber": null, "addr:postcode": null, "addr:street": null, "internet_access": null, "level": null, "level:ref": null, "alt_name:ko-Latn": null, "ncat": null, "operator:en": null, "alt_name:ja": null, "wikipedia": null, "layer": null, "network:en": null, "network:ko": null, "operator:ko": null, "station": null, "train": null, "crossing": null, "name:ko-Hani": null, "start_date": null }, "geometry": { "type": "Point", "coordinates": [ 126.916036122041916, 37.475941828766153 ] } },
{ "type": "Feature", "properties": { "full_id": "903", "osm_id": null, "osm_type": null, "alt_name": null, "alt_name:en": null, "alt_name:ko": null, "name": null, "name:en": "Nangok Junction", "name:ja": null, "name:ko": null, "name:zh": null, "operator": null, "public_transport": null, "railway": null, "ref": null, "subway": null, "network": null, "name:ko-Latn": null, "alt_name:zh": null, "bicycle": null, "bus": null, "highway": null, "route_ref": null, "junction": null, "traffic_signals": null, "name:ja_kana": null, "platforms": null, "wikidata": null, "addr:city": null, "addr:housenumber": null, "addr:postcode": null, "addr:street": null, "internet_access": null, "level": null, "level:ref": null, "alt_name:ko-Latn": null, "ncat": null, "operator:en": null, "alt_name:ja": null, "wikipedia": null, "layer": null, "network:en": null, "network:ko": null, "operator:ko": null, "station": null, "train": null, "crossing": null, "name:ko-Hani": null, "start_date": null }, "geometry": { "type": "Point", "coordinates": [ 126.914523438439815, 37.481403809276387 ] } },
{ "type": "Feature", "properties": { "full_id": "901", "osm_id": null, "osm_type": null, "alt_name": null, "alt_name:en": null, "alt_name:ko": null, "name": null, "name:en": "Boramae Park", "name:ja": null, "name:ko": null, "name:zh": null, "operator": null, "public_transport": null, "railway": null, "ref": null, "subway": null, "network": null, "name:ko-Latn": null, "alt_name:zh": null, "bicycle": null, "bus": null, "highway": null, "route_ref": null, "junction": null, "traffic_signals": null, "name:ja_kana": null, "platforms": null, "wikidata": null, "addr:city": null, "addr:housenumber": null, "addr:postcode": null, "addr:street": null, "internet_access": null, "level": null, "level:ref": null, "alt_name:ko-Latn": null, "ncat": null, "operator:en": null, "alt_name:ja": null, "wikipedia": null, "layer": null, "network:en": null, "network:ko": null, "operator:ko": null, "station": null, "train": null, "crossing": null, "name:ko-Hani": null, "start_date": null }, "geometry": { "type": "Point", "coordinates": [ 126.917869590354798, 37.496518154648939 ] } },
{ "type": "Feature", "properties": { "full_id": "801", "osm_id": null, "osm_type": null, "alt_name": null, "alt_name:en": null, "alt_name:ko": null, "name": null, "name:en": "Ui Sinseol extension - 01", "name:ja": null, "name:ko": null, "name:zh": null, "operator": null, "public_transport": null, "railway": null, "ref": null, "subway": null, "network": null, "name:ko-Latn": null, "alt_name:zh": null, "bicycle": null, "bus": null, "highway": null, "route_ref": null, "junction": null, "traffic_signals": null, "name:ja_kana": null, "platforms": null, "wikidata": null, "addr:city": null, "addr:housenumber": null, "addr:postcode": null, "addr:street": null, "internet_access": null, "level": null, "level:ref": null, "alt_name:ko-Latn": null, "ncat": null, "operator:en": null, "alt_name:ja": null, "wikipedia": null, "layer": null, "network:en": null, "network:ko": null, "operator:ko": null, "station": null, "train": null, "crossing": null, "name:ko-Hani": null, "start_date": null }, "geometry": { "type": "Point", "coordinates": [ 127.026889958345805, 37.656238959671846 ] } },
{ "type": "Feature", "properties": { "full_id": "802", "osm_id": null, "osm_type": null, "alt_name": null, "alt_name:en": null, "alt_name:ko": null, "name": null, "name:en": "Ui Sinseol extension - 02", "name:ja": null, "name:ko": null, "name:zh": null, "operator": null, "public_transport": null, "railway": null, "ref": null, "subway": null, "network": null, "name:ko-Latn": null, "alt_name:zh": null, "bicycle": null, "bus": null, "highway": null, "route_ref": null, "junction": null, "traffic_signals": null, "name:ja_kana": null, "platforms": null, "wikidata": null, "addr:city": null, "addr:housenumber": null, "addr:postcode": null, "addr:street": null, "internet_access": null, "level": null, "level:ref": null, "alt_name:ko-Latn": null, "ncat": null, "operator:en": null, "alt_name:ja": null, "wikipedia": null, "layer": null, "network:en": null, "network:ko": null, "operator:ko": null, "station": null, "train": null, "crossing": null, "name:ko-Hani": null, "start_date": null }, "geometry": { "type": "Point", "coordinates": [ 127.034020684974394, 37.661846689220837 ] } },
{ "type": "Feature", "properties": { "full_id": "610", "osm_id": null, "osm_type": null, "alt_name": null, "alt_name:en": null, "alt_name:ko": null, "name": null, "name:en": "Sinwol", "name:ja": null, "name:ko": null, "name:zh": null, "operator": null, "public_transport": null, "railway": null, "ref": null, "subway": null, "network": null, "name:ko-Latn": null, "alt_name:zh": null, "bicycle": null, "bus": null, "highway": null, "route_ref": null, "junction": null, "traffic_signals": null, "name:ja_kana": null, "platforms": null, "wikidata": null, "addr:city": null, "addr:housenumber": null, "addr:postcode": null, "addr:street": null, "internet_access": null, "level": null, "level:ref": null, "alt_name:ko-Latn": null, "ncat": null, "operator:en": null, "alt_name:ja": null, "wikipedia": null, "layer": null, "network:en": null, "network:ko": null, "operator:ko": null, "station": null, "train": null, "crossing": null, "name:ko-Hani": null, "start_date": null }, "geometry": { "type": "Point", "coordinates": [ 126.82709289071019, 37.538826261072579 ] } },
{ "type": "Feature", "properties": { "full_id": "611", "osm_id": null, "osm_type": null, "alt_name": null, "alt_name:en": null, "alt_name:ko": null, "name": null, "name:en": "Sinwolsageori", "name:ja": null, "name:ko": null, "name:zh": null, "operator": null, "public_transport": null, "railway": null, "ref": null, "subway": null, "network": null, "name:ko-Latn": null, "alt_name:zh": null, "bicycle": null, "bus": null, "highway": null, "route_ref": null, "junction": null, "traffic_signals": null, "name:ja_kana": null, "platforms": null, "wikidata": null, "addr:city": null, "addr:housenumber": null, "addr:postcode": null, "addr:street": null, "internet_access": null, "level": null, "level:ref": null, "alt_name:ko-Latn": null, "ncat": null, "operator:en": null, "alt_name:ja": null, "wikipedia": null, "layer": null, "network:en": null, "network:ko": null, "operator:ko": null, "station": null, "train": null, "crossing": null, "name:ko-Hani": null, "start_date": null }, "geometry": { "type": "Point", "coordinates": [ 126.829857516889746, 37.535361114843568 ] } },
{ "type": "Feature", "properties": { "full_id": "612", "osm_id": null, "osm_type": null, "alt_name": null, "alt_name:en": null, "alt_name:ko": null, "name": null, "name:en": "West Seoul Lake Park", "name:ja": null, "name:ko": null, "name:zh": null, "operator": null, "public_transport": null, "railway": null, "ref": null, "subway": null, "network": null, "name:ko-Latn": null, "alt_name:zh": null, "bicycle": null, "bus": null, "highway": null, "route_ref": null, "junction": null, "traffic_signals": null, "name:ja_kana": null, "platforms": null, "wikidata": null, "addr:city": null, "addr:housenumber": null, "addr:postcode": null, "addr:street": null, "internet_access": null, "level": null, "level:ref": null, "alt_name:ko-Latn": null, "ncat": null, "operator:en": null, "alt_name:ja": null, "wikipedia": null, "layer": null, "network:en": null, "network:ko": null, "operator:ko": null, "station": null, "train": null, "crossing": null, "name:ko-Hani": null, "start_date": null }, "geometry": { "type": "Point", "coordinates": [ 126.833580844083158, 37.529933240750921 ] } },
{ "type": "Feature", "properties": { "full_id": "613", "osm_id": null, "osm_type": null, "alt_name": null, "alt_name:en": null, "alt_name:ko": null, "name": null, "name:en": "Osolgilsilbeo Park", "name:ja": null, "name:ko": null, "name:zh": null, "operator": null, "public_transport": null, "railway": null, "ref": null, "subway": null, "network": null, "name:ko-Latn": null, "alt_name:zh": null, "bicycle": null, "bus": null, "highway": null, "route_ref": null, "junction": null, "traffic_signals": null, "name:ja_kana": null, "platforms": null, "wikidata": null, "addr:city": null, "addr:housenumber": null, "addr:postcode": null, "addr:street": null, "internet_access": null, "level": null, "level:ref": null, "alt_name:ko-Latn": null, "ncat": null, "operator:en": null, "alt_name:ja": null, "wikipedia": null, "layer": null, "network:en": null, "network:ko": null, "operator:ko": null, "station": null, "train": null, "crossing": null, "name:ko-Hani": null, "start_date": null }, "geometry": { "type": "Point", "coordinates": [ 126.8377389310387, 37.522051511939104 ] } },
{ "type": "Feature", "properties": { "full_id": "614", "osm_id": null, "osm_type": null, "alt_name": null, "alt_name:en": null, "alt_name:ko": null, "name": null, "name:en": "Gangsinjunggyo", "name:ja": null, "name:ko": null, "name:zh": null, "operator": null, "public_transport": null, "railway": null, "ref": null, "subway": null, "network": null, "name:ko-Latn": null, "alt_name:zh": null, "bicycle": null, "bus": null, "highway": null, "route_ref": null, "junction": null, "traffic_signals": null, "name:ja_kana": null, "platforms": null, "wikidata": null, "addr:city": null, "addr:housenumber": null, "addr:postcode": null, "addr:street": null, "internet_access": null, "level": null, "level:ref": null, "alt_name:ko-Latn": null, "ncat": null, "operator:en": null, "alt_name:ja": null, "wikipedia": null, "layer": null, "network:en": null, "network:ko": null, "operator:ko": null, "station": null, "train": null, "crossing": null, "name:ko-Hani": null, "start_date": null }, "geometry": { "type": "Point", "coordinates": [ 126.840615034080315, 37.516790668735474 ] } },
{ "type": "Feature", "properties": { "full_id": "615", "osm_id": null, "osm_type": null, "alt_name": null, "alt_name:en": null, "alt_name:ko": null, "name": null, "name:en": "Geumokjunggogyo", "name:ja": null, "name:ko": null, "name:zh": null, "operator": null, "public_transport": null, "railway": null, "ref": null, "subway": null, "network": null, "name:ko-Latn": null, "alt_name:zh": null, "bicycle": null, "bus": null, "highway": null, "route_ref": null, "junction": null, "traffic_signals": null, "name:ja_kana": null, "platforms": null, "wikidata": null, "addr:city": null, "addr:housenumber": null, "addr:postcode": null, "addr:street": null, "internet_access": null, "level": null, "level:ref": null, "alt_name:ko-Latn": null, "ncat": null, "operator:en": null, "alt_name:ja": null, "wikipedia": null, "layer": null, "network:en": null, "network:ko": null, "operator:ko": null, "station": null, "train": null, "crossing": null, "name:ko-Hani": null, "start_date": null }, "geometry": { "type": "Point", "coordinates": [ 126.845876741970429, 37.510282625158709 ] } },
{ "type": "Feature", "properties": { "full_id": "616", "osm_id": null, "osm_type": null, "alt_name": null, "alt_name:en": null, "alt_name:ko": null, "name": null, "name:en": "Sinteuri Park", "name:ja": null, "name:ko": null, "name:zh": null, "operator": null, "public_transport": null, "railway": null, "ref": null, "subway": null, "network": null, "name:ko-Latn": null, "alt_name:zh": null, "bicycle": null, "bus": null, "highway": null, "route_ref": null, "junction": null, "traffic_signals": null, "name:ja_kana": null, "platforms": null, "wikidata": null, "addr:city": null, "addr:housenumber": null, "addr:postcode": null, "addr:street": null, "internet_access": null, "level": null, "level:ref": null, "alt_name:ko-Latn": null, "ncat": null, "operator:en": null, "alt_name:ja": null, "wikipedia": null, "layer": null, "network:en": null, "network:ko": null, "operator:ko": null, "station": null, "train": null, "crossing": null, "name:ko-Hani": null, "start_date": null }, "geometry": { "type": "Point", "coordinates": [ 126.855798182695438, 37.513819675765504 ] } },
{ "type": "Feature", "properties": { "full_id": "617", "osm_id": null, "osm_type": null, "alt_name": null, "alt_name:en": null, "alt_name:ko": null, "name": null, "name:en": "Yangcheon-gu Office", "name:ja": null, "name:ko": null, "name:zh": null, "operator": null, "public_transport": null, "railway": null, "ref": null, "subway": null, "network": null, "name:ko-Latn": null, "alt_name:zh": null, "bicycle": null, "bus": null, "highway": null, "route_ref": null, "junction": null, "traffic_signals": null, "name:ja_kana": null, "platforms": null, "wikidata": null, "addr:city": null, "addr:housenumber": null, "addr:postcode": null, "addr:street": null, "internet_access": null, "level": null, "level:ref": null, "alt_name:ko-Latn": null, "ncat": null, "operator:en": null, "alt_name:ja": null, "wikipedia": null, "layer": null, "network:en": null, "network:ko": null, "operator:ko": null, "station": null, "train": null, "crossing": null, "name:ko-Hani": null, "start_date": null }, "geometry": { "type": "Point", "coordinates": [ 126.868082932896527, 37.517365400745511 ] } },
{ "type": "Feature", "properties": { "full_id": "619", "osm_id": null, "osm_type": null, "alt_name": null, "alt_name:en": null, "alt_name:ko": null, "name": null, "name:en": "SBS", "name:ja": null, "name:ko": null, "name:zh": null, "operator": null, "public_transport": null, "railway": null, "ref": null, "subway": null, "network": null, "name:ko-Latn": null, "alt_name:zh": null, "bicycle": null, "bus": null, "highway": null, "route_ref": null, "junction": null, "traffic_signals": null, "name:ja_kana": null, "platforms": null, "wikidata": null, "addr:city": null, "addr:housenumber": null, "addr:postcode": null, "addr:street": null, "internet_access": null, "level": null, "level:ref": null, "alt_name:ko-Latn": null, "ncat": null, "operator:en": null, "alt_name:ja": null, "wikipedia": null, "layer": null, "network:en": null, "network:ko": null, "operator:ko": null, "station": null, "train": null, "crossing": null, "name:ko-Hani": null, "start_date": null }, "geometry": { "type": "Point", "coordinates": [ 126.875298371567865, 37.530235389171402 ] } },
{ "type": "Feature", "properties": { "full_id": "620", "osm_id": null, "osm_type": null, "alt_name": null, "alt_name:en": null, "alt_name:ko": null, "name": null, "name:en": "Mokdong Stadium", "name:ja": null, "name:ko": null, "name:zh": null, "operator": null, "public_transport": null, "railway": null, "ref": null, "subway": null, "network": null, "name:ko-Latn": null, "alt_name:zh": null, "bicycle": null, "bus": null, "highway": null, "route_ref": null, "junction": null, "traffic_signals": null, "name:ja_kana": null, "platforms": null, "wikidata": null, "addr:city": null, "addr:housenumber": null, "addr:postcode": null, "addr:street": null, "internet_access": null, "level": null, "level:ref": null, "alt_name:ko-Latn": null, "ncat": null, "operator:en": null, "alt_name:ja": null, "wikipedia": null, "layer": null, "network:en": null, "network:ko": null, "operator:ko": null, "station": null, "train": null, "crossing": null, "name:ko-Hani": null, "start_date": null }, "geometry": { "type": "Point", "coordinates": [ 126.883062562264172, 37.536502328324666 ] } },
{ "type": "Feature", "properties": { "full_id": "501", "osm_id": null, "osm_type": null, "alt_name": null, "alt_name:en": null, "alt_name:ko": null, "name": null, "name:en": "Seoul National University Main Gate", "name:ja": null, "name:ko": null, "name:zh": null, "operator": null, "public_transport": null, "railway": null, "ref": null, "subway": null, "network": null, "name:ko-Latn": null, "alt_name:zh": null, "bicycle": null, "bus": null, "highway": null, "route_ref": null, "junction": null, "traffic_signals": null, "name:ja_kana": null, "platforms": null, "wikidata": null, "addr:city": null, "addr:housenumber": null, "addr:postcode": null, "addr:street": null, "internet_access": null, "level": null, "level:ref": null, "alt_name:ko-Latn": null, "ncat": null, "operator:en": null, "alt_name:ja": null, "wikipedia": null, "layer": null, "network:en": null, "network:ko": null, "operator:ko": null, "station": null, "train": null, "crossing": null, "name:ko-Hani": null, "start_date": null }, "geometry": { "type": "Point", "coordinates": [ 126.948395273786375, 37.466296984659486 ] } },
{ "type": "Feature", "properties": { "full_id": "505", "osm_id": null, "osm_type": null, "alt_name": null, "alt_name:en": null, "alt_name:ko": null, "name": null, "name:en": "Saetging Station-Seobu Line Connection", "name:ja": null, "name:ko": null, "name:zh": null, "operator": null, "public_transport": null, "railway": null, "ref": null, "subway": null, "network": null, "name:ko-Latn": null, "alt_name:zh": null, "bicycle": null, "bus": null, "highway": null, "route_ref": null, "junction": null, "traffic_signals": null, "name:ja_kana": null, "platforms": null, "wikidata": null, "addr:city": null, "addr:housenumber": null, "addr:postcode": null, "addr:street": null, "internet_access": null, "level": null, "level:ref": null, "alt_name:ko-Latn": null, "ncat": null, "operator:en": null, "alt_name:ja": null, "wikipedia": null, "layer": null, "network:en": null, "network:ko": null, "operator:ko": null, "station": null, "train": null, "crossing": null, "name:ko-Hani": null, "start_date": null }, "geometry": { "type": "Point", "coordinates": [ 126.934085076563704, 37.519683446124724 ] } }
]
}
