{
"type": "FeatureCollection",
"name": "shenzhen-line-6-phase-1-stops",
"crs": { "type": "name", "properties": { "name": "urn:ogc:def:crs:OGC:1.3:CRS84" } },
"features": [
{ "type": "Feature", "properties": { "full_id": "n7490905994", "osm_id": "7490905994", "osm_type": "node", "name": "Fenghuang Town", "name:en": "Fenghuang Town", "name:zh": "凤凰城", "name:zh-Hant": "", "network": "深圳地铁", "operator": "深圳市地铁集团", "public_transport": "station", "railway": "station", "subway": "", "website": "", "platforms": "", "station": "", "wikidata": "Q96279659", "name:ru": "", "wheelchair": "", "construction": "", "wikipedia": "", "bus": "", "highway": "", "shelter": "", "train": "yes", "name:zh-Hans": "", "name:zh_pinyin": "", "access": "", "description": "", "traffic_signals": "", "traffic_signals:direction": "" }, "geometry": { "type": "Point", "coordinates": [ 113.9280368, 22.7505057 ] } },
{ "type": "Feature", "properties": { "full_id": "n3617121285", "osm_id": "3617121285", "osm_type": "node", "name": "Shutianpu", "name:en": "Shutianpu", "name:zh": "薯田埔", "name:zh-Hant": "", "network": "深圳地铁", "operator": "深圳市地铁集团", "public_transport": "station", "railway": "station", "subway": "", "website": "", "platforms": "", "station": "", "wikidata": "Q96278493", "name:ru": "", "wheelchair": "", "construction": "station", "wikipedia": "", "bus": "", "highway": "", "shelter": "", "train": "yes", "name:zh-Hans": "", "name:zh_pinyin": "", "access": "", "description": "", "traffic_signals": "", "traffic_signals:direction": "" }, "geometry": { "type": "Point", "coordinates": [ 113.8630643, 22.7840276 ] } },
{ "type": "Feature", "properties": { "full_id": "n3617121279", "osm_id": "3617121279", "osm_type": "node", "name": "Shangwu", "name:en": "Shangwu", "name:zh": "上屋", "name:zh-Hant": "", "network": "深圳地铁", "operator": "深圳市地铁集团", "public_transport": "station", "railway": "station", "subway": "yes", "website": "", "platforms": "", "station": "subway", "wikidata": "Q95951814", "name:ru": "", "wheelchair": "", "construction": "", "wikipedia": "", "bus": "", "highway": "", "shelter": "", "train": "", "name:zh-Hans": "", "name:zh_pinyin": "", "access": "", "description": "", "traffic_signals": "", "traffic_signals:direction": "" }, "geometry": { "type": "Point", "coordinates": [ 113.9335992, 22.6921417 ] } },
{ "type": "Feature", "properties": { "full_id": "n6503565378", "osm_id": "6503565378", "osm_type": "node", "name": "Songgang", "name:en": "Songgang", "name:zh": "松岗", "name:zh-Hant": "", "network": "", "operator": "", "public_transport": "stop_position", "railway": "stop", "subway": "yes", "website": "", "platforms": "", "station": "", "wikidata": "", "name:ru": "", "wheelchair": "", "construction": "", "wikipedia": "", "bus": "", "highway": "", "shelter": "", "train": "", "name:zh-Hans": "", "name:zh_pinyin": "", "access": "", "description": "", "traffic_signals": "", "traffic_signals:direction": "" }, "geometry": { "type": "Point", "coordinates": [ 113.8248035, 22.7752168 ] } },
{ "type": "Feature", "properties": { "full_id": "n3617131430", "osm_id": "3617131430", "osm_type": "node", "name": "Guangming", "name:en": "Guangming", "name:zh": "光明", "name:zh-Hant": "", "network": "深圳地铁", "operator": "深圳市地铁集团", "public_transport": "station", "railway": "station", "subway": "yes", "website": "", "platforms": "", "station": "subway", "wikidata": "Q96279585", "name:ru": "", "wheelchair": "", "construction": "", "wikipedia": "", "bus": "", "highway": "", "shelter": "", "train": "", "name:zh-Hans": "", "name:zh_pinyin": "", "access": "", "description": "", "traffic_signals": "", "traffic_signals:direction": "" }, "geometry": { "type": "Point", "coordinates": [ 113.9402497, 22.7744306 ] } },
{ "type": "Feature", "properties": { "full_id": "n3617131393", "osm_id": "3617131393", "osm_type": "node", "name": "Guantian", "name:en": "Guantian", "name:zh": "官田", "name:zh-Hant": "", "network": "深圳地铁", "operator": "深圳市地铁集团", "public_transport": "station", "railway": "station", "subway": "yes", "website": "", "platforms": "", "station": "subway", "wikidata": "Q95951813", "name:ru": "", "wheelchair": "", "construction": "", "wikipedia": "", "bus": "", "highway": "", "shelter": "", "train": "", "name:zh-Hans": "", "name:zh_pinyin": "", "access": "", "description": "", "traffic_signals": "", "traffic_signals:direction": "" }, "geometry": { "type": "Point", "coordinates": [ 113.9469376, 22.6861495 ] } },
{ "type": "Feature", "properties": { "full_id": "n3617131446", "osm_id": "3617131446", "osm_type": "node", "name": "Science Park", "name:en": "Science Park", "name:zh": "科学公园", "name:zh-Hant": "", "network": "深圳地铁", "operator": "深圳市地铁集团", "public_transport": "station", "railway": "station", "subway": "", "website": "", "platforms": "", "station": "", "wikidata": "Q96279552", "name:ru": "", "wheelchair": "", "construction": "station", "wikipedia": "", "bus": "", "highway": "", "shelter": "", "train": "yes", "name:zh-Hans": "", "name:zh_pinyin": "", "access": "", "description": "", "traffic_signals": "", "traffic_signals:direction": "" }, "geometry": { "type": "Point", "coordinates": [ 113.929038, 22.7805192 ] } },
{ "type": "Feature", "properties": { "full_id": "n3617131435", "osm_id": "3617131435", "osm_type": "node", "name": "Xitou", "name:en": "Xitou", "name:zh": "溪头", "name:zh-Hant": "", "network": "深圳地铁", "operator": "深圳市地铁集团", "public_transport": "station", "railway": "station", "subway": "", "website": "", "platforms": "", "station": "", "wikidata": "Q96338882", "name:ru": "", "wheelchair": "", "construction": "station", "wikipedia": "", "bus": "", "highway": "", "shelter": "", "train": "yes", "name:zh-Hans": "", "name:zh_pinyin": "", "access": "", "description": "", "traffic_signals": "", "traffic_signals:direction": "" }, "geometry": { "type": "Point", "coordinates": [ 113.8320011, 22.7773587 ] } },
{ "type": "Feature", "properties": { "full_id": "n3617131452", "osm_id": "3617131452", "osm_type": "node", "name": "Gongming Square", "name:en": "Gongming Square", "name:zh": "公明广场", "name:zh-Hant": "", "network": "深圳地铁", "operator": "深圳市地铁集团", "public_transport": "station", "railway": "station", "subway": "", "website": "", "platforms": "", "station": "", "wikidata": "Q96278341", "name:ru": "", "wheelchair": "", "construction": "", "wikipedia": "", "bus": "", "highway": "", "shelter": "", "train": "yes", "name:zh-Hans": "", "name:zh_pinyin": "", "access": "", "description": "", "traffic_signals": "", "traffic_signals:direction": "" }, "geometry": { "type": "Point", "coordinates": [ 113.8861012, 22.7808753 ] } },
{ "type": "Feature", "properties": { "full_id": "n3617131451", "osm_id": "3617131451", "osm_type": "node", "name": "Yuanfen", "name:en": "Yuanfen", "name:zh": "元芬", "name:zh-Hant": "", "network": "深圳地铁", "operator": "深圳市地铁集团", "public_transport": "station", "railway": "station", "subway": "yes", "website": "", "platforms": "", "station": "subway", "wikidata": "Q96008676", "name:ru": "", "wheelchair": "", "construction": "", "wikipedia": "", "bus": "", "highway": "", "shelter": "", "train": "", "name:zh-Hans": "", "name:zh_pinyin": "", "access": "", "description": "", "traffic_signals": "", "traffic_signals:direction": "" }, "geometry": { "type": "Point", "coordinates": [ 114.0001668, 22.6591713 ] } },
{ "type": "Feature", "properties": { "full_id": "n5214753194", "osm_id": "5214753194", "osm_type": "node", "name": "Hongshan", "name:en": "Hongshan", "name:zh": "", "name:zh-Hant": "", "network": "", "operator": "", "public_transport": "stop_position", "railway": "", "subway": "yes", "website": "", "platforms": "", "station": "", "wikidata": "", "name:ru": "", "wheelchair": "", "construction": "", "wikipedia": "", "bus": "", "highway": "", "shelter": "", "train": "", "name:zh-Hans": "", "name:zh_pinyin": "", "access": "", "description": "", "traffic_signals": "", "traffic_signals:direction": "" }, "geometry": { "type": "Point", "coordinates": [ 114.018393, 22.624609 ] } },
{ "type": "Feature", "properties": { "full_id": "n3617121270", "osm_id": "3617121270", "osm_type": "node", "name": "Honghuashan", "name:en": "Honghuashan", "name:zh": "红花山", "name:zh-Hant": "", "network": "深圳地铁", "operator": "深圳市地铁集团", "public_transport": "station", "railway": "station", "subway": "", "website": "", "platforms": "", "station": "", "wikidata": "Q96279547", "name:ru": "", "wheelchair": "", "construction": "", "wikipedia": "", "bus": "", "highway": "", "shelter": "", "train": "yes", "name:zh-Hans": "", "name:zh_pinyin": "", "access": "", "description": "", "traffic_signals": "", "traffic_signals:direction": "" }, "geometry": { "type": "Point", "coordinates": [ 113.9018726, 22.7808901 ] } },
{ "type": "Feature", "properties": { "full_id": "n3617121259", "osm_id": "3617121259", "osm_type": "node", "name": "Shangfen", "name:en": "Shangfen", "name:zh": "上芬", "name:zh-Hant": "", "network": "深圳地铁", "operator": "深圳市地铁集团", "public_transport": "station", "railway": "station", "subway": "yes", "website": "", "platforms": "", "station": "subway", "wikidata": "Q96008672", "name:ru": "", "wheelchair": "", "construction": "", "wikipedia": "", "bus": "", "highway": "", "shelter": "", "train": "", "name:zh-Hans": "", "name:zh_pinyin": "", "access": "", "description": "", "traffic_signals": "", "traffic_signals:direction": "" }, "geometry": { "type": "Point", "coordinates": [ 114.0107835, 22.6443487 ] } },
{ "type": "Feature", "properties": { "full_id": "n3617121273", "osm_id": "3617121273", "osm_type": "node", "name": "Heshuikou", "name:en": "Heshuikou", "name:zh": "合水口", "name:zh-Hant": "", "network": "", "operator": "深圳市地铁集团", "public_transport": "station", "railway": "station", "subway": "yes", "website": "", "platforms": "", "station": "subway", "wikidata": "Q96278443", "name:ru": "", "wheelchair": "", "construction": "", "wikipedia": "", "bus": "", "highway": "", "shelter": "", "train": "yes", "name:zh-Hans": "", "name:zh_pinyin": "", "access": "", "description": "", "traffic_signals": "", "traffic_signals:direction": "" }, "geometry": { "type": "Point", "coordinates": [ 113.8746834, 22.7852187 ] } },
{ "type": "Feature", "properties": { "full_id": "n3617121271", "osm_id": "3617121271", "osm_type": "node", "name": "Loucun", "name:en": "Loucun", "name:zh": "楼村", "name:zh-Hant": "", "network": "深圳地铁", "operator": "深圳市地铁集团", "public_transport": "station", "railway": "station", "subway": "", "website": "", "platforms": "", "station": "", "wikidata": "Q96279562", "name:ru": "", "wheelchair": "", "construction": "", "wikipedia": "", "bus": "", "highway": "", "shelter": "", "train": "yes", "name:zh-Hans": "", "name:zh_pinyin": "", "access": "", "description": "", "traffic_signals": "", "traffic_signals:direction": "" }, "geometry": { "type": "Point", "coordinates": [ 113.9164317, 22.7786991 ] } },
{ "type": "Feature", "properties": { "full_id": "n3617131554", "osm_id": "3617131554", "osm_type": "node", "name": "Yangtai Mountain East", "name:en": "Yangtai Mountain East", "name:zh": "阳台山东", "name:zh-Hant": "", "network": "深圳地铁", "operator": "深圳市地铁集团", "public_transport": "station", "railway": "station", "subway": "yes", "website": "", "platforms": "", "station": "subway", "wikidata": "Q95995478", "name:ru": "", "wheelchair": "", "construction": "", "wikipedia": "", "bus": "", "highway": "", "shelter": "", "train": "", "name:zh-Hans": "", "name:zh_pinyin": "", "access": "", "description": "", "traffic_signals": "", "traffic_signals:direction": "" }, "geometry": { "type": "Point", "coordinates": [ 113.9863515, 22.6708924 ] } },
{ "type": "Feature", "properties": { "full_id": "n3617131524", "osm_id": "3617131524", "osm_type": "node", "name": "Guangming Street", "name:en": "Guangming Street", "name:zh": "光明大街", "name:zh-Hant": "", "network": "深圳地铁", "operator": "深圳市地铁集团", "public_transport": "station", "railway": "station", "subway": "", "website": "", "platforms": "", "station": "", "wikidata": "Q96279606", "name:ru": "", "wheelchair": "", "construction": "", "wikipedia": "", "bus": "", "highway": "", "shelter": "", "train": "yes", "name:zh-Hans": "", "name:zh_pinyin": "", "access": "", "description": "", "traffic_signals": "", "traffic_signals:direction": "" }, "geometry": { "type": "Point", "coordinates": [ 113.9386055, 22.7661331 ] } },
{ "type": "Feature", "properties": { "full_id": "n3617696930", "osm_id": "3617696930", "osm_type": "node", "name": "Songgang Park", "name:en": "Songgang Park", "name:zh": "松岗公园", "name:zh-Hant": "", "network": "", "operator": "", "public_transport": "station", "railway": "station", "subway": "", "website": "", "platforms": "", "station": "", "wikidata": "Q96278952", "name:ru": "", "wheelchair": "", "construction": "", "wikipedia": "", "bus": "", "highway": "", "shelter": "", "train": "yes", "name:zh-Hans": "", "name:zh_pinyin": "", "access": "", "description": "", "traffic_signals": "", "traffic_signals:direction": "" }, "geometry": { "type": "Point", "coordinates": [ 113.8446611, 22.781266 ] } },
{ "type": "Feature", "properties": { "full_id": "n7822253164", "osm_id": "7822253164", "osm_type": "node", "name": "Shenzhen North Railway Station", "name:en": "Shenzhen North Railway Station", "name:zh": "深圳北站", "name:zh-Hant": "", "network": "", "operator": "", "public_transport": "stop_position", "railway": "stop", "subway": "yes", "website": "", "platforms": "", "station": "", "wikidata": "", "name:ru": "", "wheelchair": "", "construction": "", "wikipedia": "", "bus": "", "highway": "", "shelter": "", "train": "", "name:zh-Hans": "", "name:zh_pinyin": "", "access": "", "description": "", "traffic_signals": "", "traffic_signals:direction": "" }, "geometry": { "type": "Point", "coordinates": [ 114.0251068, 22.6130355 ] } },
{ "type": "Feature", "properties": { "full_id": "n3617696929", "osm_id": "3617696929", "osm_type": "node", "name": "Changzhen", "name:en": "Changzhen", "name:zh": "长圳", "name:zh-Hant": "", "network": "深圳地铁", "operator": "深圳市地铁集团", "public_transport": "station", "railway": "station", "subway": "", "website": "", "platforms": "", "station": "", "wikidata": "", "name:ru": "", "wheelchair": "", "construction": "", "wikipedia": "", "bus": "", "highway": "", "shelter": "", "train": "yes", "name:zh-Hans": "", "name:zh_pinyin": "", "access": "", "description": "", "traffic_signals": "", "traffic_signals:direction": "" }, "geometry": { "type": "Point", "coordinates": [ 113.9261734, 22.7280621 ] } }
]
}
