{
"type": "FeatureCollection",
"name": "singapore-downtown-mrt-line-stops",
"crs": { "type": "name", "properties": { "name": "urn:ogc:def:crs:OGC:1.3:CRS84" } },
"features": [
{ "type": "Feature", "properties": { "full_id": "n1840076836", "osm_id": "1840076836", "osm_type": "node", "layer": "", "name": "Hillview", "name:en": "Hillview", "name:zh": "山景", "network": "Downtown Line (DTL)", "operator": "SBS Transit", "public_transport": "stop_position", "railway": "stop", "ref": "DT3", "station": "", "subway": "yes", "name:ta": "", "website": "", "wheelchair": "", "wikidata": "", "wikipedia": "", "name:hi": "", "name:ms": "", "highway": "", "traffic_signals": "", "level": "-1", "location": "underground", "proposed": "", "addr:city": "", "addr:housenumber": "", "addr:postcode": "", "addr:street": "", "maxspeed": "", "old_name": "", "name:tam": "", "construction:public_transport": "", "construction:railway": "" }, "geometry": { "type": "Point", "coordinates": [ 103.7673618, 1.3622964 ] } },
{ "type": "Feature", "properties": { "full_id": "n7105997480", "osm_id": "7105997480", "osm_type": "node", "layer": "", "name": "Tampines West", "name:en": "Tampines West", "name:zh": "淡滨尼西", "network": "Downtown Line (DTL)", "operator": "SBS Transit", "public_transport": "stop_position", "railway": "stop", "ref": "DT31", "station": "", "subway": "yes", "name:ta": "தெம்பினிஸ் வெஸ்ட்", "website": "", "wheelchair": "", "wikidata": "", "wikipedia": "", "name:hi": "", "name:ms": "", "highway": "", "traffic_signals": "", "level": "", "location": "", "proposed": "", "addr:city": "", "addr:housenumber": "", "addr:postcode": "", "addr:street": "", "maxspeed": "", "old_name": "", "name:tam": "", "construction:public_transport": "", "construction:railway": "" }, "geometry": { "type": "Point", "coordinates": [ 103.9385087, 1.3454132 ] } },
{ "type": "Feature", "properties": { "full_id": "n6917722574", "osm_id": "6917722574", "osm_type": "node", "layer": "", "name": "Rochor", "name:en": "", "name:zh": "", "network": "Downtown Line (DTL)", "operator": "SBS Transit", "public_transport": "stop_position", "railway": "stop", "ref": "DT13", "station": "", "subway": "yes", "name:ta": "", "website": "", "wheelchair": "", "wikidata": "", "wikipedia": "", "name:hi": "", "name:ms": "", "highway": "", "traffic_signals": "", "level": "", "location": "", "proposed": "", "addr:city": "", "addr:housenumber": "", "addr:postcode": "", "addr:street": "", "maxspeed": "", "old_name": "", "name:tam": "", "construction:public_transport": "", "construction:railway": "" }, "geometry": { "type": "Point", "coordinates": [ 103.8526118, 1.3039839 ] } },
{ "type": "Feature", "properties": { "full_id": "n6589342486", "osm_id": "6589342486", "osm_type": "node", "layer": "", "name": "Bugis", "name:en": "Bugis", "name:zh": "武吉士", "network": "Downtown Line (DTL)", "operator": "SBS Transit", "public_transport": "stop_position", "railway": "stop", "ref": "DT14", "station": "", "subway": "yes", "name:ta": "", "website": "", "wheelchair": "", "wikidata": "", "wikipedia": "", "name:hi": "", "name:ms": "", "highway": "", "traffic_signals": "", "level": "", "location": "", "proposed": "", "addr:city": "", "addr:housenumber": "", "addr:postcode": "", "addr:street": "", "maxspeed": "", "old_name": "", "name:tam": "", "construction:public_transport": "", "construction:railway": "" }, "geometry": { "type": "Point", "coordinates": [ 103.856061, 1.3005572 ] } },
{ "type": "Feature", "properties": { "full_id": "n6589730989", "osm_id": "6589730989", "osm_type": "node", "layer": "", "name": "Botanic Gardens", "name:en": "Botanic Gardens", "name:zh": "植物园", "network": "Downtown Line (DTL)", "operator": "SBS Transit", "public_transport": "stop_position", "railway": "stop", "ref": "DT9", "station": "subway", "subway": "yes", "name:ta": "பூ மலை", "website": "", "wheelchair": "", "wikidata": "", "wikipedia": "", "name:hi": "", "name:ms": "Kebun Bunga", "highway": "", "traffic_signals": "", "level": "-1", "location": "underground", "proposed": "", "addr:city": "", "addr:housenumber": "", "addr:postcode": "", "addr:street": "", "maxspeed": "", "old_name": "", "name:tam": "", "construction:public_transport": "", "construction:railway": "" }, "geometry": { "type": "Point", "coordinates": [ 103.8163959, 1.3225255 ] } },
{ "type": "Feature", "properties": { "full_id": "n6589246804", "osm_id": "6589246804", "osm_type": "node", "layer": "", "name": "Little India", "name:en": "Little India", "name:zh": "小印度", "network": "Downtown Line (DTL)", "operator": "SBS Transit", "public_transport": "stop_position", "railway": "stop", "ref": "DT12", "station": "", "subway": "yes", "name:ta": "லிட்டில் இந்தியா", "website": "", "wheelchair": "", "wikidata": "", "wikipedia": "", "name:hi": "", "name:ms": "", "highway": "", "traffic_signals": "", "level": "", "location": "", "proposed": "", "addr:city": "", "addr:housenumber": "", "addr:postcode": "", "addr:street": "", "maxspeed": "", "old_name": "Kandang Kerbau", "name:tam": "", "construction:public_transport": "", "construction:railway": "" }, "geometry": { "type": "Point", "coordinates": [ 103.8492436, 1.3066201 ] } },
{ "type": "Feature", "properties": { "full_id": "n6589313471", "osm_id": "6589313471", "osm_type": "node", "layer": "", "name": "Promenade", "name:en": "Promenade", "name:zh": "宝门廊", "network": "Downtown Line (DTL)", "operator": "SBS Transit", "public_transport": "stop_position", "railway": "stop", "ref": "DT15", "station": "", "subway": "yes", "name:ta": "புரொமனெட்", "website": "", "wheelchair": "", "wikidata": "", "wikipedia": "", "name:hi": "", "name:ms": "Promenade", "highway": "", "traffic_signals": "", "level": "", "location": "", "proposed": "", "addr:city": "", "addr:housenumber": "", "addr:postcode": "", "addr:street": "", "maxspeed": "", "old_name": "", "name:tam": "", "construction:public_transport": "", "construction:railway": "" }, "geometry": { "type": "Point", "coordinates": [ 103.8611075, 1.2926206 ] } },
{ "type": "Feature", "properties": { "full_id": "n5180257611", "osm_id": "5180257611", "osm_type": "node", "layer": "", "name": "Tampines", "name:en": "Tampines", "name:zh": "淡滨尼", "network": "Downtown Line (DTL)", "operator": "SBS Transit", "public_transport": "stop_position", "railway": "stop", "ref": "DT32", "station": "", "subway": "yes", "name:ta": "தெம்பினிஸ் ஈஸ்ட்", "website": "", "wheelchair": "yes", "wikidata": "", "wikipedia": "", "name:hi": "", "name:ms": "", "highway": "", "traffic_signals": "", "level": "", "location": "", "proposed": "", "addr:city": "", "addr:housenumber": "", "addr:postcode": "", "addr:street": "", "maxspeed": "", "old_name": "", "name:tam": "", "construction:public_transport": "", "construction:railway": "" }, "geometry": { "type": "Point", "coordinates": [ 103.9430609, 1.3552399 ] } },
{ "type": "Feature", "properties": { "full_id": "n6587730605", "osm_id": "6587730605", "osm_type": "node", "layer": "", "name": "Chinatown", "name:en": "Chinatown", "name:zh": "牛车水", "network": "Downtown Line (DTL)", "operator": "SBS Transit", "public_transport": "stop_position", "railway": "stop", "ref": "DT19", "station": "subway", "subway": "yes", "name:ta": "சைனாடவுன்", "website": "", "wheelchair": "", "wikidata": "", "wikipedia": "", "name:hi": "", "name:ms": "", "highway": "", "traffic_signals": "", "level": "", "location": "", "proposed": "", "addr:city": "", "addr:housenumber": "", "addr:postcode": "", "addr:street": "", "maxspeed": "", "old_name": "", "name:tam": "", "construction:public_transport": "", "construction:railway": "" }, "geometry": { "type": "Point", "coordinates": [ 103.8440743, 1.2849591 ] } },
{ "type": "Feature", "properties": { "full_id": "n5014444763", "osm_id": "5014444763", "osm_type": "node", "layer": "", "name": "MacPherson", "name:en": "", "name:zh": "麦波申", "network": "Downtown Line (DTL)", "operator": "SBS Transit (DTL)", "public_transport": "stop_position", "railway": "stop", "ref": "DT26", "station": "", "subway": "yes", "name:ta": "மெக்பர்சன்", "website": "", "wheelchair": "", "wikidata": "", "wikipedia": "", "name:hi": "", "name:ms": "", "highway": "", "traffic_signals": "", "level": "", "location": "", "proposed": "", "addr:city": "", "addr:housenumber": "", "addr:postcode": "", "addr:street": "", "maxspeed": "", "old_name": "", "name:tam": "", "construction:public_transport": "", "construction:railway": "" }, "geometry": { "type": "Point", "coordinates": [ 103.8897064, 1.3262838 ] } },
{ "type": "Feature", "properties": { "full_id": "n5388291980", "osm_id": "5388291980", "osm_type": "node", "layer": "", "name": "Bayfront", "name:en": "", "name:zh": "", "network": "Downtown Line (DTL)", "operator": "SBS Transit", "public_transport": "stop_position", "railway": "stop", "ref": "DT16", "station": "", "subway": "yes", "name:ta": "", "website": "", "wheelchair": "", "wikidata": "", "wikipedia": "", "name:hi": "", "name:ms": "", "highway": "", "traffic_signals": "", "level": "", "location": "", "proposed": "", "addr:city": "", "addr:housenumber": "", "addr:postcode": "", "addr:street": "", "maxspeed": "", "old_name": "", "name:tam": "", "construction:public_transport": "", "construction:railway": "" }, "geometry": { "type": "Point", "coordinates": [ 103.8597441, 1.2826608 ] } },
{ "type": "Feature", "properties": { "full_id": "n4008935462", "osm_id": "4008935462", "osm_type": "node", "layer": "", "name": "Bencoolen", "name:en": "Bencoolen", "name:zh": "明古连", "network": "Downtown Line (DTL)", "operator": "SBS Transit", "public_transport": "stop_position", "railway": "stop", "ref": "DT21", "station": "subway", "subway": "yes", "name:ta": "பென்கூலன்", "website": "", "wheelchair": "", "wikidata": "", "wikipedia": "", "name:hi": "", "name:ms": "", "highway": "", "traffic_signals": "", "level": "-1", "location": "underground", "proposed": "", "addr:city": "", "addr:housenumber": "", "addr:postcode": "", "addr:street": "", "maxspeed": "", "old_name": "", "name:tam": "", "construction:public_transport": "", "construction:railway": "" }, "geometry": { "type": "Point", "coordinates": [ 103.8503647, 1.2989199 ] } },
{ "type": "Feature", "properties": { "full_id": "n3067274650", "osm_id": "3067274650", "osm_type": "node", "layer": "", "name": "Jalan Besar", "name:en": "", "name:zh": "", "network": "Downtown Line (DTL)", "operator": "SBS Transit", "public_transport": "stop_position", "railway": "stop", "ref": "DT22", "station": "", "subway": "yes", "name:ta": "", "website": "", "wheelchair": "", "wikidata": "", "wikipedia": "", "name:hi": "", "name:ms": "", "highway": "", "traffic_signals": "", "level": "", "location": "", "proposed": "", "addr:city": "", "addr:housenumber": "", "addr:postcode": "", "addr:street": "", "maxspeed": "", "old_name": "", "name:tam": "", "construction:public_transport": "", "construction:railway": "" }, "geometry": { "type": "Point", "coordinates": [ 103.8571444, 1.3082009 ] } },
{ "type": "Feature", "properties": { "full_id": "n5264975531", "osm_id": "5264975531", "osm_type": "node", "layer": "", "name": "Bukit Panjang", "name:en": "Bukit Panjang", "name:zh": "武吉班让", "network": "Downtown Line (DTL)", "operator": "SBS Transit", "public_transport": "stop_position", "railway": "stop", "ref": "DT1", "station": "", "subway": "yes", "name:ta": "புக்கிட் பாஞ்சாங்", "website": "", "wheelchair": "", "wikidata": "", "wikipedia": "", "name:hi": "", "name:ms": "Bukit Panjang", "highway": "", "traffic_signals": "", "level": "", "location": "", "proposed": "", "addr:city": "", "addr:housenumber": "", "addr:postcode": "", "addr:street": "", "maxspeed": "", "old_name": "", "name:tam": "", "construction:public_transport": "", "construction:railway": "" }, "geometry": { "type": "Point", "coordinates": [ 103.7620434, 1.3786023 ] } },
{ "type": "Feature", "properties": { "full_id": "n1840733443", "osm_id": "1840733443", "osm_type": "node", "layer": "", "name": "Stevens", "name:en": "Stevens", "name:zh": "史蒂芬", "network": "Downtown Line (DTL)", "operator": "SBS Transit", "public_transport": "stop_position", "railway": "stop", "ref": "DT10", "station": "", "subway": "yes", "name:ta": "ஸ்டீவன்ஸ்", "website": "", "wheelchair": "", "wikidata": "", "wikipedia": "", "name:hi": "", "name:ms": "", "highway": "", "traffic_signals": "", "level": "", "location": "", "proposed": "", "addr:city": "", "addr:housenumber": "", "addr:postcode": "", "addr:street": "", "maxspeed": "", "old_name": "", "name:tam": "", "construction:public_transport": "", "construction:railway": "" }, "geometry": { "type": "Point", "coordinates": [ 103.8254536, 1.3202074 ] } },
{ "type": "Feature", "properties": { "full_id": "n1840733452", "osm_id": "1840733452", "osm_type": "node", "layer": "", "name": "Ubi", "name:en": "", "name:zh": "乌美", "network": "Downtown Line (DTL)", "operator": "SBS Transit", "public_transport": "stop_position", "railway": "stop", "ref": "DT27", "station": "", "subway": "yes", "name:ta": "உபி", "website": "", "wheelchair": "", "wikidata": "", "wikipedia": "", "name:hi": "", "name:ms": "", "highway": "", "traffic_signals": "", "level": "", "location": "", "proposed": "", "addr:city": "", "addr:housenumber": "", "addr:postcode": "", "addr:street": "", "maxspeed": "", "old_name": "", "name:tam": "", "construction:public_transport": "", "construction:railway": "" }, "geometry": { "type": "Point", "coordinates": [ 103.8993573, 1.3300095 ] } },
{ "type": "Feature", "properties": { "full_id": "n1840733417", "osm_id": "1840733417", "osm_type": "node", "layer": "", "name": "Kaki Bukit", "name:en": "Kaki Bukit", "name:zh": "", "network": "Downtown Line (DTL)", "operator": "SBS Transit", "public_transport": "stop_position", "railway": "stop", "ref": "DT28", "station": "", "subway": "yes", "name:ta": "", "website": "", "wheelchair": "", "wikidata": "", "wikipedia": "", "name:hi": "", "name:ms": "", "highway": "", "traffic_signals": "", "level": "", "location": "", "proposed": "", "addr:city": "", "addr:housenumber": "", "addr:postcode": "", "addr:street": "", "maxspeed": "", "old_name": "", "name:tam": "", "construction:public_transport": "", "construction:railway": "" }, "geometry": { "type": "Point", "coordinates": [ 103.9086571, 1.3349944 ] } },
{ "type": "Feature", "properties": { "full_id": "n1840733412", "osm_id": "1840733412", "osm_type": "node", "layer": "", "name": "Geylang Bahru", "name:en": "Geylang Bahru", "name:zh": "芽笼巴鲁", "network": "Downtown Line (DTL)", "operator": "SBS Transit", "public_transport": "stop_position", "railway": "stop", "ref": "DT24", "station": "", "subway": "yes", "name:ta": "கேலாங் பாரு", "website": "", "wheelchair": "", "wikidata": "", "wikipedia": "", "name:hi": "", "name:ms": "", "highway": "", "traffic_signals": "", "level": "", "location": "", "proposed": "", "addr:city": "", "addr:housenumber": "", "addr:postcode": "", "addr:street": "", "maxspeed": "", "old_name": "", "name:tam": "", "construction:public_transport": "", "construction:railway": "" }, "geometry": { "type": "Point", "coordinates": [ 103.8720146, 1.3215932 ] } },
{ "type": "Feature", "properties": { "full_id": "n1840733398", "osm_id": "1840733398", "osm_type": "node", "layer": "", "name": "Bedok North", "name:en": "Bedok North", "name:zh": "勿洛北", "network": "Downtown Line (DTL)", "operator": "SBS Transit", "public_transport": "stop_position", "railway": "stop", "ref": "DT29", "station": "", "subway": "yes", "name:ta": "பிடோக் நார்த்", "website": "", "wheelchair": "", "wikidata": "", "wikipedia": "", "name:hi": "", "name:ms": "", "highway": "", "traffic_signals": "", "level": "", "location": "", "proposed": "", "addr:city": "", "addr:housenumber": "", "addr:postcode": "", "addr:street": "", "maxspeed": "", "old_name": "", "name:tam": "", "construction:public_transport": "", "construction:railway": "" }, "geometry": { "type": "Point", "coordinates": [ 103.9179906, 1.3346913 ] } },
{ "type": "Feature", "properties": { "full_id": "n1840733401", "osm_id": "1840733401", "osm_type": "node", "layer": "", "name": "Bendemeer", "name:en": "Bendemeer", "name:zh": "明地迷亚", "network": "Downtown Line (DTL)", "operator": "SBS Transit", "public_transport": "stop_position", "railway": "stop", "ref": "DT23", "station": "", "subway": "yes", "name:ta": "பெண்டிமியர்", "website": "", "wheelchair": "", "wikidata": "", "wikipedia": "", "name:hi": "", "name:ms": "", "highway": "", "traffic_signals": "", "level": "", "location": "", "proposed": "", "addr:city": "", "addr:housenumber": "", "addr:postcode": "", "addr:street": "", "maxspeed": "", "old_name": "", "name:tam": "", "construction:public_transport": "", "construction:railway": "" }, "geometry": { "type": "Point", "coordinates": [ 103.862645, 1.3135751 ] } },
{ "type": "Feature", "properties": { "full_id": "n1840733399", "osm_id": "1840733399", "osm_type": "node", "layer": "", "name": "Bedok Reservoir", "name:en": "Bedok Reservoir", "name:zh": "勿洛蓄水池", "network": "Downtown Line (DTL)", "operator": "SBS Transit", "public_transport": "stop_position", "railway": "stop", "ref": "DT30", "station": "", "subway": "yes", "name:ta": "பிடோக் ரெசவோர்", "website": "", "wheelchair": "", "wikidata": "", "wikipedia": "", "name:hi": "", "name:ms": "", "highway": "", "traffic_signals": "", "level": "", "location": "", "proposed": "", "addr:city": "", "addr:housenumber": "", "addr:postcode": "", "addr:street": "", "maxspeed": "", "old_name": "", "name:tam": "", "construction:public_transport": "", "construction:railway": "" }, "geometry": { "type": "Point", "coordinates": [ 103.9321489, 1.3367222 ] } },
{ "type": "Feature", "properties": { "full_id": "n7106086687", "osm_id": "7106086687", "osm_type": "node", "layer": "", "name": "King Albert Park", "name:en": "", "name:zh": "", "network": "Downtown Line (DTL)", "operator": "SBS Transit", "public_transport": "stop_position", "railway": "stop", "ref": "DT6", "station": "", "subway": "yes", "name:ta": "", "website": "", "wheelchair": "", "wikidata": "", "wikipedia": "", "name:hi": "", "name:ms": "", "highway": "", "traffic_signals": "", "level": "", "location": "", "proposed": "", "addr:city": "", "addr:housenumber": "", "addr:postcode": "", "addr:street": "", "maxspeed": "", "old_name": "", "name:tam": "", "construction:public_transport": "", "construction:railway": "" }, "geometry": { "type": "Point", "coordinates": [ 103.783519, 1.3360325 ] } },
{ "type": "Feature", "properties": { "full_id": "n7106086686", "osm_id": "7106086686", "osm_type": "node", "layer": "", "name": "Downtown", "name:en": "Downtown", "name:zh": "市中心", "network": "Downtown Line (DTL)", "operator": "SBS Transit", "public_transport": "stop_position", "railway": "stop", "ref": "DT17", "station": "", "subway": "yes", "name:ta": "", "website": "", "wheelchair": "yes", "wikidata": "", "wikipedia": "", "name:hi": "", "name:ms": "", "highway": "", "traffic_signals": "", "level": "-1", "location": "underground", "proposed": "", "addr:city": "", "addr:housenumber": "", "addr:postcode": "", "addr:street": "", "maxspeed": "", "old_name": "", "name:tam": "டௌன்டவுன்", "construction:public_transport": "", "construction:railway": "" }, "geometry": { "type": "Point", "coordinates": [ 103.8528373, 1.2794465 ] } },
{ "type": "Feature", "properties": { "full_id": "n1840076854", "osm_id": "1840076854", "osm_type": "node", "layer": "", "name": "Tan Kah Kee", "name:en": "", "name:zh": "", "network": "Downtown Line (DTL)", "operator": "SBS Transit", "public_transport": "stop_position", "railway": "stop", "ref": "DT8", "station": "", "subway": "yes", "name:ta": "", "website": "", "wheelchair": "", "wikidata": "", "wikipedia": "", "name:hi": "", "name:ms": "", "highway": "", "traffic_signals": "", "level": "-1", "location": "underground", "proposed": "", "addr:city": "", "addr:housenumber": "", "addr:postcode": "", "addr:street": "", "maxspeed": "", "old_name": "", "name:tam": "", "construction:public_transport": "", "construction:railway": "" }, "geometry": { "type": "Point", "coordinates": [ 103.8069722, 1.326052 ] } },
{ "type": "Feature", "properties": { "full_id": "n7106086689", "osm_id": "7106086689", "osm_type": "node", "layer": "", "name": "Beauty World", "name:en": "Beauty World", "name:zh": "美世界", "network": "Downtown Line (DTL)", "operator": "SBS Transit", "public_transport": "stop_position", "railway": "stop", "ref": "DT5", "station": "", "subway": "yes", "name:ta": "", "website": "", "wheelchair": "", "wikidata": "", "wikipedia": "", "name:hi": "", "name:ms": "", "highway": "", "traffic_signals": "", "level": "-1", "location": "underground", "proposed": "", "addr:city": "", "addr:housenumber": "", "addr:postcode": "588216", "addr:street": "", "maxspeed": "", "old_name": "", "name:tam": "", "construction:public_transport": "", "construction:railway": "" }, "geometry": { "type": "Point", "coordinates": [ 103.776006, 1.34127 ] } },
{ "type": "Feature", "properties": { "full_id": "n1840076847", "osm_id": "1840076847", "osm_type": "node", "layer": "", "name": "Sixth Avenue", "name:en": "", "name:zh": "", "network": "Downtown Line (DTL)", "operator": "SBS Transit", "public_transport": "stop_position", "railway": "stop", "ref": "DT7", "station": "", "subway": "yes", "name:ta": "", "website": "", "wheelchair": "", "wikidata": "", "wikipedia": "", "name:hi": "", "name:ms": "", "highway": "", "traffic_signals": "", "level": "", "location": "", "proposed": "", "addr:city": "", "addr:housenumber": "", "addr:postcode": "", "addr:street": "", "maxspeed": "", "old_name": "", "name:tam": "", "construction:public_transport": "", "construction:railway": "" }, "geometry": { "type": "Point", "coordinates": [ 103.7972638, 1.3308228 ] } },
{ "type": "Feature", "properties": { "full_id": "n7106086688", "osm_id": "7106086688", "osm_type": "node", "layer": "", "name": "Cashew", "name:en": "Cashew", "name:zh": "凯秀", "network": "Downtown Line (DTL)", "operator": "SBS Transit", "public_transport": "stop_position", "railway": "stop", "ref": "DT2", "station": "", "subway": "yes", "name:ta": "", "website": "", "wheelchair": "", "wikidata": "", "wikipedia": "", "name:hi": "", "name:ms": "", "highway": "", "traffic_signals": "", "level": "-1", "location": "underground", "proposed": "", "addr:city": "", "addr:housenumber": "", "addr:postcode": "", "addr:street": "", "maxspeed": "", "old_name": "", "name:tam": "", "construction:public_transport": "", "construction:railway": "" }, "geometry": { "type": "Point", "coordinates": [ 103.7647369, 1.3693616 ] } },
{ "type": "Feature", "properties": { "full_id": "n7105997482", "osm_id": "7105997482", "osm_type": "node", "layer": "-1", "name": "Mattar", "name:en": "Mattar", "name:zh": "玛达", "network": "Downtown Line (DTL)", "operator": "SBS Transit", "public_transport": "stop_position", "railway": "stop", "ref": "DT25", "station": "", "subway": "yes", "name:ta": "மாத்தார்", "website": "", "wheelchair": "", "wikidata": "", "wikipedia": "", "name:hi": "", "name:ms": "", "highway": "", "traffic_signals": "", "level": "", "location": "underground", "proposed": "", "addr:city": "", "addr:housenumber": "", "addr:postcode": "", "addr:street": "", "maxspeed": "", "old_name": "", "name:tam": "", "construction:public_transport": "", "construction:railway": "" }, "geometry": { "type": "Point", "coordinates": [ 103.8832884, 1.3267827 ] } },
{ "type": "Feature", "properties": { "full_id": "n1840701015", "osm_id": "1840701015", "osm_type": "node", "layer": "", "name": "Expo", "name:en": "Expo", "name:zh": "博览", "network": "Downtown Line (DTL)", "operator": "SBS Transit", "public_transport": "stop_position", "railway": "stop", "ref": "DT35", "station": "", "subway": "yes", "name:ta": "எக்ஸ்போ", "website": "", "wheelchair": "", "wikidata": "", "wikipedia": "", "name:hi": "", "name:ms": "", "highway": "", "traffic_signals": "", "level": "", "location": "", "proposed": "", "addr:city": "", "addr:housenumber": "", "addr:postcode": "", "addr:street": "", "maxspeed": "", "old_name": "", "name:tam": "", "construction:public_transport": "", "construction:railway": "" }, "geometry": { "type": "Point", "coordinates": [ 103.9621796, 1.3355533 ] } },
{ "type": "Feature", "properties": { "full_id": "n7105997481", "osm_id": "7105997481", "osm_type": "node", "layer": "-1", "name": "Upper Changi", "name:en": "Upper Changi", "name:zh": "樟宜上段", "network": "Downtown Line (DTL)", "operator": "SBS Transit", "public_transport": "stop_position", "railway": "stop", "ref": "DT34", "station": "", "subway": "yes", "name:ta": "அப்பர் சாங்கி", "website": "", "wheelchair": "", "wikidata": "", "wikipedia": "", "name:hi": "", "name:ms": "", "highway": "", "traffic_signals": "", "level": "", "location": "underground", "proposed": "", "addr:city": "", "addr:housenumber": "", "addr:postcode": "", "addr:street": "", "maxspeed": "", "old_name": "", "name:tam": "", "construction:public_transport": "", "construction:railway": "" }, "geometry": { "type": "Point", "coordinates": [ 103.961344, 1.3416575 ] } },
{ "type": "Feature", "properties": { "full_id": "n1840700819", "osm_id": "1840700819", "osm_type": "node", "layer": "-1", "name": "Tampines East", "name:en": "Tampines East", "name:zh": "淡滨尼东", "network": "Downtown Line (DTL)", "operator": "SBS Transit", "public_transport": "stop_position", "railway": "stop", "ref": "DT33", "station": "", "subway": "yes", "name:ta": "தெம்பினிஸ் ஈஸ்ட்", "website": "", "wheelchair": "", "wikidata": "", "wikipedia": "", "name:hi": "", "name:ms": "", "highway": "", "traffic_signals": "", "level": "", "location": "underground", "proposed": "", "addr:city": "", "addr:housenumber": "", "addr:postcode": "", "addr:street": "", "maxspeed": "", "old_name": "", "name:tam": "", "construction:public_transport": "", "construction:railway": "" }, "geometry": { "type": "Point", "coordinates": [ 103.955007, 1.3561487 ] } },
{ "type": "Feature", "properties": { "full_id": "n7106086685", "osm_id": "7106086685", "osm_type": "node", "layer": "", "name": "Telok Ayer", "name:en": "Telok Ayer", "name:zh": "直落亚逸", "network": "Downtown Line (DTL)", "operator": "SBS Transit", "public_transport": "stop_position", "railway": "stop", "ref": "DT18", "station": "", "subway": "yes", "name:ta": "தெலுக் ஆயர்", "website": "", "wheelchair": "", "wikidata": "", "wikipedia": "", "name:hi": "", "name:ms": "", "highway": "", "traffic_signals": "", "level": "-1", "location": "underground", "proposed": "", "addr:city": "", "addr:housenumber": "", "addr:postcode": "", "addr:street": "", "maxspeed": "", "old_name": "", "name:tam": "", "construction:public_transport": "", "construction:railway": "" }, "geometry": { "type": "Point", "coordinates": [ 103.8483554, 1.2823577 ] } },
{ "type": "Feature", "properties": { "full_id": "n7105997484", "osm_id": "7105997484", "osm_type": "node", "layer": "", "name": "Fort Canning", "name:en": "Fort Canning", "name:zh": "福康宁", "network": "Downtown Line (DTL)", "operator": "SBS Transit", "public_transport": "stop_position", "railway": "stop", "ref": "DT20", "station": "subway", "subway": "yes", "name:ta": "ஃபோர்ட் கெனிங்", "website": "", "wheelchair": "", "wikidata": "", "wikipedia": "", "name:hi": "", "name:ms": "", "highway": "", "traffic_signals": "", "level": "-1", "location": "underground", "proposed": "", "addr:city": "", "addr:housenumber": "", "addr:postcode": "", "addr:street": "", "maxspeed": "", "old_name": "", "name:tam": "", "construction:public_transport": "", "construction:railway": "" }, "geometry": { "type": "Point", "coordinates": [ 103.8443248, 1.2924806 ] } },
{ "type": "Feature", "properties": { "full_id": "n1840076843", "osm_id": "1840076843", "osm_type": "node", "layer": "", "name": "Newton", "name:en": "Newton", "name:zh": "纽顿", "network": "Downtown Line (DTL)", "operator": "SBS Transit", "public_transport": "stop_position", "railway": "stop", "ref": "DT11", "station": "", "subway": "yes", "name:ta": "நியூட்டன்", "website": "", "wheelchair": "", "wikidata": "", "wikipedia": "", "name:hi": "", "name:ms": "", "highway": "", "traffic_signals": "", "level": "", "location": "", "proposed": "", "addr:city": "", "addr:housenumber": "", "addr:postcode": "", "addr:street": "", "maxspeed": "", "old_name": "", "name:tam": "", "construction:public_transport": "", "construction:railway": "" }, "geometry": { "type": "Point", "coordinates": [ 103.8378484, 1.3139942 ] } }
]
}
