{
"type": "FeatureCollection",
"name": "sofia-line-2-stops",
"crs": { "type": "name", "properties": { "name": "urn:ogc:def:crs:OGC:1.3:CRS84" } },
"features": [
{ "type": "Feature", "properties": { "full_id": "n727643269", "osm_id": "727643269", "osm_type": "node", "int_name": "James Bourchier", "layer": "-2", "name": "Джеймс Баучер", "name:bg": "Джеймс Баучер", "name:en": "James Bourchier", "network": "Софийско метро", "public_transport": "stop_position", "railway": "stop", "start_date": "", "station": "", "subway": "yes", "wikidata": "", "wikipedia": "", "name:de": "", "wheelchair": "", "operator": "", "name:ro": "", "alt_name": "", "short_name": "", "short_name:bg": "", "short_name:en": "", "alt_name:bg": "", "platforms": "", "name:es": "", "name:fr": "", "internet_access": "", "highway": "", "railway:switch": "" }, "geometry": { "type": "Point", "coordinates": [ 23.320397550072808, 42.670665080837615 ] } },
{ "type": "Feature", "properties": { "full_id": "n727643272", "osm_id": "727643272", "osm_type": "node", "int_name": "Central Railway Station", "layer": "-2", "name": "Централна ЖП гара", "name:bg": "Централна Ж.П. гара", "name:en": "Central Railway Station", "network": "Софийско метро", "public_transport": "station", "railway": "station", "start_date": "2012-08-31", "station": "subway", "subway": "yes", "wikidata": "Q3624028", "wikipedia": "bg:Метростанция „Централна ж.п. гара“", "name:de": "", "wheelchair": "yes", "operator": "", "name:ro": "", "alt_name": "Централна гара", "short_name": "", "short_name:bg": "", "short_name:en": "", "alt_name:bg": "Централна гара", "platforms": "", "name:es": "", "name:fr": "", "internet_access": "", "highway": "", "railway:switch": "" }, "geometry": { "type": "Point", "coordinates": [ 23.3206054, 42.7107605 ] } },
{ "type": "Feature", "properties": { "full_id": "n727643277", "osm_id": "727643277", "osm_type": "node", "int_name": "Lavov most", "layer": "-2", "name": "Лъвов мост", "name:bg": "Лъвов мост", "name:en": "Lavov most", "network": "Софийско метро", "public_transport": "station", "railway": "station", "start_date": "2012-08-31", "station": "subway", "subway": "yes", "wikidata": "Q3624082", "wikipedia": "bg:Метростанция „Лъвов мост“", "name:de": "", "wheelchair": "yes", "operator": "", "name:ro": "", "alt_name": "", "short_name": "", "short_name:bg": "", "short_name:en": "", "alt_name:bg": "", "platforms": "", "name:es": "", "name:fr": "", "internet_access": "", "highway": "", "railway:switch": "" }, "geometry": { "type": "Point", "coordinates": [ 23.3238457, 42.7057509 ] } },
{ "type": "Feature", "properties": { "full_id": "n727643279", "osm_id": "727643279", "osm_type": "node", "int_name": "European Union", "layer": "-2", "name": "Европейски съюз", "name:bg": "Европейски съюз", "name:en": "European Union", "network": "Софийско метро", "public_transport": "station", "railway": "station", "start_date": "2012-08-31", "station": "subway", "subway": "yes", "wikidata": "Q3624048", "wikipedia": "bg:Метростанция „Европейски съюз“", "name:de": "", "wheelchair": "yes", "operator": "", "name:ro": "", "alt_name": "", "short_name": "", "short_name:bg": "", "short_name:en": "", "alt_name:bg": "", "platforms": "", "name:es": "", "name:fr": "", "internet_access": "", "highway": "", "railway:switch": "" }, "geometry": { "type": "Point", "coordinates": [ 23.3216264, 42.6788082 ] } },
{ "type": "Feature", "properties": { "full_id": "n832739287", "osm_id": "832739287", "osm_type": "node", "int_name": "Knyaginya Mariya Luiza", "layer": "-2", "name": "Княгиня Мария Луиза", "name:bg": "Княгиня Мария Луиза", "name:en": "Knyaginya Mariya Luiza", "network": "Софийско метро", "public_transport": "station", "railway": "station", "start_date": "2012-08-31", "station": "subway", "subway": "yes", "wikidata": "Q3624070", "wikipedia": "bg:Метростанция „Княгиня Мария Луиза“", "name:de": "", "wheelchair": "", "operator": "", "name:ro": "", "alt_name": "", "short_name": "", "short_name:bg": "", "short_name:en": "", "alt_name:bg": "Мария Луиза", "platforms": "2", "name:es": "", "name:fr": "", "internet_access": "", "highway": "", "railway:switch": "" }, "geometry": { "type": "Point", "coordinates": [ 23.3121109, 42.7144475 ] } },
{ "type": "Feature", "properties": { "full_id": "n1905045720", "osm_id": "1905045720", "osm_type": "node", "int_name": "National Palace of Culture (NDK)", "layer": "-2", "name": "Национален дворец на културата", "name:bg": "Национален дворец на културата", "name:en": "National Palace of Culture", "network": "", "public_transport": "stop_position", "railway": "stop", "start_date": "", "station": "subway", "subway": "yes", "wikidata": "", "wikipedia": "", "name:de": "Nationaler Kulturpalast", "wheelchair": "", "operator": "", "name:ro": "", "alt_name": "", "short_name": "НДК", "short_name:bg": "НДК", "short_name:en": "NDK", "alt_name:bg": "", "platforms": "", "name:es": "Palacio Nacional de la Cultura", "name:fr": "Palais national de la culture", "internet_access": "", "highway": "", "railway:switch": "" }, "geometry": { "type": "Point", "coordinates": [ 23.319022602821516, 42.688207621511971 ] } },
{ "type": "Feature", "properties": { "full_id": "n1905048083", "osm_id": "1905048083", "osm_type": "node", "int_name": "Han Kubrat", "layer": "-2", "name": "Хан Кубрат", "name:bg": "Хан Кубрат", "name:en": "Han Kubrat", "network": "Софийско метро", "public_transport": "station", "railway": "station", "start_date": "2012-08-31", "station": "subway", "subway": "yes", "wikidata": "Q3624046", "wikipedia": "bg:Метростанция „Хан Кубрат“", "name:de": "", "wheelchair": "yes", "operator": "", "name:ro": "", "alt_name": "", "short_name": "", "short_name:bg": "", "short_name:en": "", "alt_name:bg": "", "platforms": "", "name:es": "", "name:fr": "", "internet_access": "", "highway": "", "railway:switch": "" }, "geometry": { "type": "Point", "coordinates": [ 23.3067955, 42.7226853 ] } },
{ "type": "Feature", "properties": { "full_id": "n1905049958", "osm_id": "1905049958", "osm_type": "node", "int_name": "Nadezhda", "layer": "-2", "name": "Надежда", "name:bg": "Надежда", "name:en": "Nadezhda", "network": "Софийско метро", "public_transport": "station", "railway": "station", "start_date": "2012-08-31", "station": "subway", "subway": "yes", "wikidata": "Q3623872", "wikipedia": "bg:Метростанция „Надежда“", "name:de": "", "wheelchair": "yes", "operator": "Метрополитен София", "name:ro": "", "alt_name": "", "short_name": "", "short_name:bg": "", "short_name:en": "", "alt_name:bg": "", "platforms": "", "name:es": "", "name:fr": "", "internet_access": "no", "highway": "", "railway:switch": "" }, "geometry": { "type": "Point", "coordinates": [ 23.3008753, 42.7280365 ] } },
{ "type": "Feature", "properties": { "full_id": "n1905050150", "osm_id": "1905050150", "osm_type": "node", "int_name": "Beli Dunav", "layer": "-2", "name": "Бели Дунав", "name:bg": "Бели Дунав", "name:en": "Beli Dunav", "network": "Софийско метро", "public_transport": "station", "railway": "station", "start_date": "2012-08-31", "station": "subway", "subway": "yes", "wikidata": "Q3624039", "wikipedia": "bg:Метростанция „Бели Дунав“", "name:de": "", "wheelchair": "yes", "operator": "", "name:ro": "", "alt_name": "", "short_name": "", "short_name:bg": "", "short_name:en": "", "alt_name:bg": "", "platforms": "", "name:es": "", "name:fr": "", "internet_access": "", "highway": "", "railway:switch": "" }, "geometry": { "type": "Point", "coordinates": [ 23.2920449, 42.7361769 ] } },
{ "type": "Feature", "properties": { "full_id": "n7962122129", "osm_id": "7962122129", "osm_type": "node", "int_name": "Serdika II", "layer": "", "name": "Сердика II", "name:bg": "Сердика II", "name:en": "Serdika II", "network": "", "public_transport": "stop_position", "railway": "stop", "start_date": "", "station": "", "subway": "yes", "wikidata": "", "wikipedia": "", "name:de": "", "wheelchair": "", "operator": "", "name:ro": "Serdika II", "alt_name": "", "short_name": "", "short_name:bg": "", "short_name:en": "", "alt_name:bg": "", "platforms": "", "name:es": "", "name:fr": "", "internet_access": "", "highway": "", "railway:switch": "" }, "geometry": { "type": "Point", "coordinates": [ 23.3218834, 42.6983764 ] } },
{ "type": "Feature", "properties": { "full_id": "n1915598031", "osm_id": "1915598031", "osm_type": "node", "int_name": "Lomsko shose", "layer": "1", "name": "Ломско шосе", "name:bg": "Ломско шосе", "name:en": "Lomsko shose", "network": "Софийско метро", "public_transport": "station", "railway": "station", "start_date": "2012-08-31", "station": "subway", "subway": "yes", "wikidata": "Q3624031", "wikipedia": "bg:Метростанция „Ломско шосе“", "name:de": "", "wheelchair": "yes", "operator": "", "name:ro": "", "alt_name": "", "short_name": "", "short_name:bg": "", "short_name:en": "", "alt_name:bg": "", "platforms": "", "name:es": "", "name:fr": "", "internet_access": "", "highway": "", "railway:switch": "" }, "geometry": { "type": "Point", "coordinates": [ 23.2872923, 42.7405164 ] } }
]
}
