{
"type": "FeatureCollection",
"name": "taipei-xinyi-line-east-extension-line",
"crs": { "type": "name", "properties": { "name": "urn:ogc:def:crs:OGC:1.3:CRS84" } },
"features": [
{ "type": "Feature", "properties": { "full_id": "w453081584", "osm_id": "453081584", "osm_type": "way", "construction": "subway", "railway": "construction", "electrified": "rail", "gauge": "", "name": "信義線東延段", "name:en": "MRT Tamsui-Xinyi Line", "name:nan": "", "name:nan-POJ": "", "name:nan-TL": "", "name:zh": "信義線東延段", "usage": "", "service": "", "bridge": "", "frequency": "", "voltage": "", "layer": "-2", "tunnel": "yes", "start_date": "", "start_date:trial": "", "maxspeed": "80", "network": "台北捷運", "oneway": "", "operator": "臺北大眾捷運股份有限公司", "wikipedia": "zh:淡水信義線", "proposed": "", "start_date_trial": "", "operator:zh": "" }, "geometry": { "type": "LineString", "coordinates": [ [ 121.5830041, 25.0377362 ], [ 121.5795761, 25.0364451 ], [ 121.5790483, 25.0363416 ], [ 121.578173, 25.0361733 ], [ 121.577775, 25.0360053 ], [ 121.575136, 25.0340797 ] ] } },
{ "type": "Feature", "properties": { "full_id": "w453081585", "osm_id": "453081585", "osm_type": "way", "construction": "subway", "railway": "construction", "electrified": "rail", "gauge": "", "name": "信義線東延段", "name:en": "MRT Tamsui-Xinyi Line", "name:nan": "", "name:nan-POJ": "", "name:nan-TL": "", "name:zh": "信義線東延段", "usage": "", "service": "", "bridge": "", "frequency": "", "voltage": "", "layer": "-2", "tunnel": "yes", "start_date": "", "start_date:trial": "", "maxspeed": "80", "network": "台北捷運", "oneway": "", "operator": "臺北大眾捷運股份有限公司", "wikipedia": "zh:淡水信義線", "proposed": "", "start_date_trial": "", "operator:zh": "" }, "geometry": { "type": "LineString", "coordinates": [ [ 121.5751909, 25.034001 ], [ 121.5777909, 25.0359519 ], [ 121.5779463, 25.0360175 ], [ 121.5780372, 25.0360558 ], [ 121.5781825, 25.0361171 ], [ 121.5790542, 25.0362848 ], [ 121.5797, 25.0363966 ], [ 121.5830294, 25.0376981 ] ] } },
{ "type": "Feature", "properties": { "full_id": "w665025772", "osm_id": "665025772", "osm_type": "way", "construction": "subway", "railway": "construction", "electrified": "rail", "gauge": "", "name": "信義線東延段", "name:en": "MRT Tamsui-Xinyi Line", "name:nan": "", "name:nan-POJ": "", "name:nan-TL": "", "name:zh": "信義線東延段", "usage": "", "service": "yard", "bridge": "", "frequency": "", "voltage": "", "layer": "-2", "tunnel": "yes", "start_date": "", "start_date:trial": "", "maxspeed": "80", "network": "台北捷運", "oneway": "", "operator": "臺北大眾捷運股份有限公司", "wikipedia": "zh:淡水信義線", "proposed": "", "start_date_trial": "", "operator:zh": "" }, "geometry": { "type": "LineString", "coordinates": [ [ 121.5830294, 25.0376981 ], [ 121.5837143, 25.0379567 ], [ 121.5838671, 25.0380246 ], [ 121.5839824, 25.0381468 ], [ 121.5840691, 25.0383462 ], [ 121.5841091, 25.038544 ], [ 121.5841931, 25.0392231 ], [ 121.5842477, 25.0393575 ], [ 121.5844125, 25.0396478 ], [ 121.5855436, 25.0416277 ] ] } },
{ "type": "Feature", "properties": { "full_id": "w665025773", "osm_id": "665025773", "osm_type": "way", "construction": "subway", "railway": "construction", "electrified": "rail", "gauge": "", "name": "信義線東延段尾軌", "name:en": "Xinyi Line Eastern Extension", "name:nan": "", "name:nan-POJ": "", "name:nan-TL": "", "name:zh": "信義線東延段尾軌", "usage": "", "service": "yard", "bridge": "", "frequency": "", "voltage": "", "layer": "-2", "tunnel": "yes", "start_date": "", "start_date:trial": "", "maxspeed": "80", "network": "台北捷運", "oneway": "", "operator": "臺北大眾捷運股份有限公司", "wikipedia": "zh:淡水信義線", "proposed": "", "start_date_trial": "", "operator:zh": "" }, "geometry": { "type": "LineString", "coordinates": [ [ 121.5830041, 25.0377362 ], [ 121.5836938, 25.0379978 ], [ 121.5838359, 25.038061 ], [ 121.5839392, 25.0381703 ], [ 121.584021, 25.0383586 ], [ 121.5840599, 25.0385506 ], [ 121.5841444, 25.0392335 ], [ 121.584202, 25.0393757 ], [ 121.5843683, 25.0396685 ], [ 121.5854994, 25.0416484 ] ] } }
]
}
